place_id,zipcode,place_type,,latitude,longitude
ChIJAbesjs7i9IgRGpMzEw5QAxg,30320,grocery_or_supermarket,,33.640809,-84.4448347
ChIJAbesjs7i9IgRZOFDES4HWe8,30320,grocery_or_supermarket,,33.640973,-84.4440475
ChIJdwz-nD399IgRW_bOSRoFQHQ,30320,grocery_or_supermarket,,33.6407941,-84.42932
ChIJ8WwDFLji9IgRqoe9HReMKEQ,30320,grocery_or_supermarket,,33.6508607,-84.4498367
ChIJ_xPs4a_i9IgRjoN45Ue4YOg,30320,grocery_or_supermarket,,33.6608846,-84.448102
ChIJA0ZHhUT99IgR7QtK5rk2Nkc,30320,grocery_or_supermarket,,33.6562283,-84.4240045
ChIJgfAJLSXj9IgRrqIn-gD9OTc,30320,grocery_or_supermarket,,33.6165258,-84.4508289
ChIJB9i6rq_i9IgRY6cUo_oOyRk,30320,grocery_or_supermarket,,33.6632094,-84.4465815
ChIJQ2WQ17n89IgRnqqC_BzjFhw,30320,grocery_or_supermarket,,33.6071118,-84.4442716
ChIJEZoCPXH99IgREIjZU_PiL7g,30320,grocery_or_supermarket,,33.6559589,-84.4024886
ChIJL858kG_99IgRH6lNfQJdx_U,30320,grocery_or_supermarket,,33.6581893,-84.4087343
ChIJcwkZisr89IgR6fVaVJeD7Xw,30320,grocery_or_supermarket,,33.6056311,-84.4357895
ChIJF1Bdx5_i9IgRTn4Vb2KDm4M,30320,grocery_or_supermarket,,33.670228,-84.4610834
ChIJbS1MyKIC9YgR_f8TS956S-M,30320,grocery_or_supermarket,,33.6809918,-84.4177651
ChIJg_fcV_B19YgRDHBBNOiduyw,30004,grocery_or_supermarket,,34.0962786,-84.2777761
ChIJoUYCyxqe9YgRqA8iQHmPHck,30004,grocery_or_supermarket,,34.0971212,-84.260974
ChIJQ9z9Y-yd9YgRkB4ccxKhX6w,30004,grocery_or_supermarket,,34.1272733,-84.2555815
ChIJCdJrKZ6d9YgR9idECLLiRDo,30004,grocery_or_supermarket,,34.1523013,-84.2504344
ChIJM2YNcPN19YgRMOIW6oW5WN0,30004,grocery_or_supermarket,,34.0891763,-84.2761244
ChIJj1m17wud9YgRC6QUC1FF85o,30004,grocery_or_supermarket,,34.1561724,-84.245486
ChIJne3kmvh19YgRha_eio9HM0w,30004,grocery_or_supermarket,,34.0991389,-84.2686074
ChIJIUHbfoN19YgR3nmflSnFA6Q,30004,grocery_or_supermarket,,34.0694645,-84.2784552
ChIJsdifqHV09YgRAsDwkLpqsc4,30004,grocery_or_supermarket,,34.0857304,-84.3569171
ChIJOwNiKN2e9YgRkl4kNsxgZws,30005,grocery_or_supermarket,,34.0716325,-84.2048752
ChIJHbc6xgif9YgRJ3D8hBW-oIA,30005,grocery_or_supermarket,,34.049551,-84.223021
ChIJmRDVb62f9YgRa9gDmhympUo,30005,grocery_or_supermarket,,34.0607904,-84.237872
ChIJM2YNcPN19YgRMOIW6oW5WN0,30005,grocery_or_supermarket,,34.0891763,-84.2761244
ChIJbwU6m-ee9YgRkYTD7OI6I8k,30005,grocery_or_supermarket,,34.0705768,-84.2073743
ChIJQ7D9lA6f9YgRPcZ5CS7VFAM,30005,grocery_or_supermarket,,34.0454009,-84.2214496
ChIJO8mizhWZ9YgRDkJCMWA2NP0,30005,grocery_or_supermarket,,34.0773392,-84.1622567
ChIJORC1wzyZ9YgRqG0raZOQoj8,30005,grocery_or_supermarket,,34.070253,-84.170786
ChIJRYFkplCZ9YgRQX525TESnbE,30005,grocery_or_supermarket,,34.0979494,-84.175444
ChIJIUHbfoN19YgR3nmflSnFA6Q,30005,grocery_or_supermarket,,34.0694645,-84.2784552
ChIJq6lXk-Kb9YgRP9wPYL_olq0,30005,grocery_or_supermarket,,34.1054843,-84.1761064
ChIJpRcKFKyf9YgRKJ_LWexXvR0,30005,grocery_or_supermarket,,34.060149,-84.242962
ChIJoUYCyxqe9YgRqA8iQHmPHck,30005,grocery_or_supermarket,,34.0971212,-84.260974
ChIJR_tLmVV09YgRnwQ7lD6BZ-8,30009,grocery_or_supermarket,,34.067593,-84.315105
ChIJUd3f7aZ19YgRwefYwG2w-Oo,30009,grocery_or_supermarket,,34.0691374,-84.2970441
ChIJWwuRa6F19YgRsdZl7I-FZMw,30009,grocery_or_supermarket,,34.069409,-84.295245
ChIJ1TbMO9x09YgRHoWzCIMhB9w,30009,grocery_or_supermarket,,34.0408288,-84.3184068
ChIJM2YNcPN19YgRMOIW6oW5WN0,30009,grocery_or_supermarket,,34.0891763,-84.2761244
ChIJ92AFBKF19YgRDwYLGQhZbSU,30009,grocery_or_supermarket,,34.0686094,-84.2942532
ChIJIUHbfoN19YgR3nmflSnFA6Q,30009,grocery_or_supermarket,,34.0694645,-84.2784552
ChIJg_fcV_B19YgRDHBBNOiduyw,30009,grocery_or_supermarket,,34.0962786,-84.2777761
ChIJJyI9ue109YgRoff4qPee5c4,30009,grocery_or_supermarket,,34.054059,-84.3287
ChIJJyI9ue109YgRdHJb0JHih88,30009,grocery_or_supermarket,,34.0540592,-84.3286995
ChIJ--k7HfJ09YgRBho4aBWeeC4,30009,grocery_or_supermarket,,34.0568148,-84.3281865
ChIJHbc6xgif9YgRJ3D8hBW-oIA,30022,grocery_or_supermarket,,34.049551,-84.223021
ChIJQ7D9lA6f9YgRPcZ5CS7VFAM,30022,grocery_or_supermarket,,34.0454009,-84.2214496
ChIJOwNiKN2e9YgRkl4kNsxgZws,30022,grocery_or_supermarket,,34.0716325,-84.2048752
ChIJBbP2KFV19YgRz_0P26PYNLg,30022,grocery_or_supermarket,,34.0202637,-84.2725221
ChIJM2YNcPN19YgRMOIW6oW5WN0,30022,grocery_or_supermarket,,34.0891763,-84.2761244
ChIJmRDVb62f9YgRa9gDmhympUo,30022,grocery_or_supermarket,,34.0607904,-84.237872
ChIJR_tLmVV09YgRnwQ7lD6BZ-8,30022,grocery_or_supermarket,,34.067593,-84.315105
ChIJYaUOQACi9YgRYfXV8v0OfuA,30022,grocery_or_supermarket,,34.0129983,-84.1835128
ChIJUd3f7aZ19YgRwefYwG2w-Oo,30022,grocery_or_supermarket,,34.0691374,-84.2970441
ChIJWwuRa6F19YgRsdZl7I-FZMw,30022,grocery_or_supermarket,,34.069409,-84.295245
ChIJbwU6m-ee9YgRkYTD7OI6I8k,30022,grocery_or_supermarket,,34.0705768,-84.2073743
ChIJw4STFFV19YgR88qrqni1OVc,30022,grocery_or_supermarket,,34.0230548,-84.2715455
ChIJSYhF83eg9YgRGIMLQQ-2X0Y,30022,grocery_or_supermarket,,33.9874281,-84.2689726
ChIJQ7D9lA6f9YgRPcZ5CS7VFAM,30023,grocery_or_supermarket,,34.0454009,-84.2214496
ChIJHbc6xgif9YgRJ3D8hBW-oIA,30023,grocery_or_supermarket,,34.049551,-84.223021
ChIJmRDVb62f9YgRa9gDmhympUo,30023,grocery_or_supermarket,,34.0607904,-84.237872
ChIJBbP2KFV19YgRz_0P26PYNLg,30023,grocery_or_supermarket,,34.0202637,-84.2725221
ChIJw4STFFV19YgR88qrqni1OVc,30023,grocery_or_supermarket,,34.0230548,-84.2715455
ChIJIUHbfoN19YgR3nmflSnFA6Q,30023,grocery_or_supermarket,,34.0694645,-84.2784552
ChIJbwU6m-ee9YgRkYTD7OI6I8k,30023,grocery_or_supermarket,,34.0705768,-84.2073743
ChIJq6qqqlqg9YgRcLEWV7R8W-M,30023,grocery_or_supermarket,,33.9851868,-84.238417
ChIJsbNRuoYD9YgRy1fhsJgldJY,30301,grocery_or_supermarket,,33.7539328,-84.390386
ChIJI00M5YgD9YgR0wAaEQ6oqZU,30301,grocery_or_supermarket,,33.7546186,-84.3836863
ChIJDYah9HsD9YgRKoQfaN75ynw,30301,grocery_or_supermarket,,33.7535325,-84.402477
ChIJPa8F3YsD9YgRAOOiZTcqp6M,30301,grocery_or_supermarket,,33.754076,-84.3799669
ChIJBfK5TIwD9YgRjvHEUfCW3pQ,30301,grocery_or_supermarket,,33.7499749,-84.3768908
ChIJw2Pxp_ED9YgR76DtrNcdY6I,30301,grocery_or_supermarket,,33.7492177,-84.3678997
ChIJwR5ZmiYD9YgRqcB_x4nsZc8,30301,grocery_or_supermarket,,33.7207092,-84.4244978
ChIJr_ik5T8D9YgRUHtyScyVpkI,30301,grocery_or_supermarket,,33.7364924,-84.4182372
ChIJ1zoUGxYE9YgRL399jlxWp6Q,30301,grocery_or_supermarket,,33.7797565,-84.3678403
ChIJBb6sr5ME9YgRjtXSBOtRe1M,30301,grocery_or_supermarket,,33.7832132,-84.35467
ChIJraRjlwgE9YgRMQYH8zBgerE,30301,grocery_or_supermarket,,33.761427,-84.3653191
ChIJ6cBjtBAE9YgRUisH70GZTX4,30301,grocery_or_supermarket,,33.775188,-84.3658097
ChIJDYah9HsD9YgRKoQfaN75ynw,30302,grocery_or_supermarket,,33.7535325,-84.402477
ChIJI00M5YgD9YgR0wAaEQ6oqZU,30302,grocery_or_supermarket,,33.7546186,-84.3836863
ChIJY67FFGED9YgRCn6XUng5x4A,30302,grocery_or_supermarket,,33.7557898,-84.4136594
ChIJk3VXo2sD9YgROKC8qaLZjGY,30302,grocery_or_supermarket,,33.7408717,-84.4135485
ChIJ1d4zXGoD9YgR-NXfbZN2qOI,30302,grocery_or_supermarket,,33.739629,-84.416105
ChIJr_ik5T8D9YgRUHtyScyVpkI,30302,grocery_or_supermarket,,33.7364924,-84.4182372
ChIJBfK5TIwD9YgRjvHEUfCW3pQ,30302,grocery_or_supermarket,,33.7499749,-84.3768908
ChIJ5ylOSQ8D9YgRmeNcwOn2AsE,30302,grocery_or_supermarket,,33.7267834,-84.4018115
ChIJw2Pxp_ED9YgR76DtrNcdY6I,30302,grocery_or_supermarket,,33.7492177,-84.3678997
ChIJwR5ZmiYD9YgRqcB_x4nsZc8,30302,grocery_or_supermarket,,33.7207092,-84.4244978
ChIJ03mBjoIH9YgRmlvPFl07b60,30302,grocery_or_supermarket,,33.7986531,-84.2794785
ChIJsbNRuoYD9YgRy1fhsJgldJY,30303,grocery_or_supermarket,,33.7539328,-84.390386
ChIJI00M5YgD9YgR0wAaEQ6oqZU,30303,grocery_or_supermarket,,33.7546186,-84.3836863
ChIJI7ZymYgD9YgRqFCvKvky8co,30303,grocery_or_supermarket,,33.7546783,-84.3854227
ChIJSyUUC3ED9YgR79XdRNlAn7s,30303,grocery_or_supermarket,,33.744082,-84.4038249
ChIJEZoCPXH99IgREIjZU_PiL7g,30304,grocery_or_supermarket,,33.6559589,-84.4024886
ChIJv7Uvqpv99IgR-0OnJPO1UKU,30304,grocery_or_supermarket,,33.655176,-84.388434
ChIJL858kG_99IgRH6lNfQJdx_U,30304,grocery_or_supermarket,,33.6581893,-84.4087343
ChIJbS1MyKIC9YgR_f8TS956S-M,30304,grocery_or_supermarket,,33.6809918,-84.4177651
ChIJ98UKmpAC9YgRx_FrB4QSp7o,30304,grocery_or_supermarket,,33.6826787,-84.4092222
ChIJgae8QYkC9YgR5WYPBYjZlus,30304,grocery_or_supermarket,,33.6852058,-84.4000734
ChIJjyWRQv_89IgR19IjKIDXR4U,30304,grocery_or_supermarket,,33.6203728,-84.3887408
ChIJ_xPs4a_i9IgRjoN45Ue4YOg,30304,grocery_or_supermarket,,33.6608846,-84.448102
ChIJqyitFYD-9IgR1VX6v2O8vBs,30304,grocery_or_supermarket,,33.6209878,-84.3548205
ChIJjyWRQv_89IgR3tuLbLczKD8,30304,grocery_or_supermarket,,33.6216593,-84.3928628
ChIJbSTZaiQC9YgRXIE43ThLdgY,30304,grocery_or_supermarket,,33.6970886,-84.3608444
ChIJbe30v-8C9YgRzZmzLGuBbk0,30304,grocery_or_supermarket,,33.7034342,-84.4100028
ChIJjyWRQv_89IgRciDESyPTYrA,30304,grocery_or_supermarket,,33.6207931,-84.3970711
ChIJ8WwDFLji9IgRqoe9HReMKEQ,30304,grocery_or_supermarket,,33.6508607,-84.4498367
ChIJl6IJR9X99IgRYms_KzDMn-Y,30304,grocery_or_supermarket,,33.6241064,-84.3555405
ChIJ38AR_0sC9YgRzvoeQfknxWU,30304,grocery_or_supermarket,,33.7083006,-84.3803597
ChIJH6wyD1MP9YgRseDZrRZWK6E,30305,grocery_or_supermarket,,33.840941,-84.374955
ChIJQySAuI4F9YgRj3NAqVrX5js,30305,grocery_or_supermarket,,33.8408911,-84.381743
ChIJt3HwQvUF9YgRxBRc6csptew,30305,grocery_or_supermarket,,33.84552,-84.3745814
ChIJt3HwQvUF9YgR9Sjtgg5Of9M,30305,grocery_or_supermarket,,33.8456696,-84.3745057
ChIJWRj4FY8F9YgR4BBoZThHMYM,30305,grocery_or_supermarket,,33.840619,-84.384232
ChIJN_zP3agF9YgRK-ptZFY1yYk,30305,grocery_or_supermarket,,33.8119915,-84.3913963
ChIJ_____4YD9YgR0DihLc0qSF4,30305,grocery_or_supermarket,,33.8363126,-84.3857442
ChIJAz1IDPgF9YgRzn9e4HDqFEI,30305,grocery_or_supermarket,,33.8459141,-84.3621872
ChIJLym-7VQE9YgRpzegAmUhAIk,30305,grocery_or_supermarket,,33.8017601,-84.4125193
ChIJWTDCsqgG9YgR-U6sWxq-qJw,30307,grocery_or_supermarket,,33.7671024,-84.3484783
ChIJgYuQHbYG9YgRkCRneKN6ySs,30307,grocery_or_supermarket,,33.7625692,-84.3332728
ChIJIcD8p0wB9YgRhT-2Q5XHwFE,30307,grocery_or_supermarket,,33.7554939,-84.3385214
ChIJKznvTVMB9YgRWFYyoZFkjyk,30307,grocery_or_supermarket,,33.7560452,-84.3480857
ChIJae9o8gQH9YgR3uq8CQkWxPc,30307,grocery_or_supermarket,,33.7908588,-84.3052307
ChIJ6cBjtBAE9YgRUisH70GZTX4,30307,grocery_or_supermarket,,33.775188,-84.3658097
ChIJw2Pxp_ED9YgR76DtrNcdY6I,30307,grocery_or_supermarket,,33.7492177,-84.3678997
ChIJq4vrxncH9YgR_zZpw8O_RZE,30307,grocery_or_supermarket,,33.7976687,-84.2806728
ChIJ1zoUGxYE9YgRL399jlxWp6Q,30308,grocery_or_supermarket,,33.7797565,-84.3678403
ChIJ6cBjtBAE9YgRUisH70GZTX4,30308,grocery_or_supermarket,,33.775188,-84.3658097
ChIJg9vjnm8E9YgR37F5u3cTHxg,30308,grocery_or_supermarket,,33.771973,-84.3844869
ChIJu7FCnlsB9YgREOKPzeQBCE8,30308,grocery_or_supermarket,,33.7755299,-84.3751382
ChIJISUkc2sE9YgRXDAaZcJRuEU,30308,grocery_or_supermarket,,33.7760057,-84.3774371
ChIJu95SDhYE9YgRfh8h8GYvfUU,30308,grocery_or_supermarket,,33.7814186,-84.3683548
ChIJZ75CEBcE9YgRzBUatdvfMdQ,30308,grocery_or_supermarket,,33.7725829,-84.3654761
ChIJa-9dZxoE9YgRB5SAyPu3qoo,30308,grocery_or_supermarket,,33.7716769,-84.3633876
ChIJraRjlwgE9YgRMQYH8zBgerE,30308,grocery_or_supermarket,,33.761427,-84.3653191
ChIJw2Pxp_ED9YgR76DtrNcdY6I,30308,grocery_or_supermarket,,33.7492177,-84.3678997
ChIJN_zP3agF9YgRK-ptZFY1yYk,30309,grocery_or_supermarket,,33.8119915,-84.3913963
ChIJbyhzTKkF9YgRMMSfb3KsW3I,30309,grocery_or_supermarket,,33.8096585,-84.3913914
ChIJg0Ul6VQE9YgRy-YZx9vQRbs,30309,grocery_or_supermarket,,33.800951,-84.3934681
ChIJ1zoUGxYE9YgRL399jlxWp6Q,30309,grocery_or_supermarket,,33.7797565,-84.3678403
ChIJ7ZJkxkQE9YgRz0HXg48nOEw,30309,grocery_or_supermarket,,33.7878904,-84.3848754
ChIJAQAAAFME9YgR4o539sFGv0M,30309,grocery_or_supermarket,,33.7971137,-84.3804888
ChIJ10zeHTUE9YgR0gO0QptFsIQ,30309,grocery_or_supermarket,,33.800517,-84.372989
ChIJu95SDhYE9YgRfh8h8GYvfUU,30309,grocery_or_supermarket,,33.7814186,-84.3683548
ChIJ6cBjtBAE9YgRUisH70GZTX4,30309,grocery_or_supermarket,,33.775188,-84.3658097
ChIJlxGwyM0F9YgRtcK7jFtCEog,30309,grocery_or_supermarket,,33.8067817,-84.366375
ChIJBb6sr5ME9YgRjtXSBOtRe1M,30309,grocery_or_supermarket,,33.7832132,-84.35467
ChIJLym-7VQE9YgRpzegAmUhAIk,30309,grocery_or_supermarket,,33.8017601,-84.4125193
ChIJwR5ZmiYD9YgRqcB_x4nsZc8,30310,grocery_or_supermarket,,33.7207092,-84.4244978
ChIJr_ik5T8D9YgRUHtyScyVpkI,30310,grocery_or_supermarket,,33.7364924,-84.4182372
ChIJ5ylOSQ8D9YgRmeNcwOn2AsE,30310,grocery_or_supermarket,,33.7267834,-84.4018115
ChIJjSeY-hwD9YgRfsiMrIc8tPo,30310,grocery_or_supermarket,,33.7183641,-84.4082864
ChIJs0QCjx4D9YgR3bBzbX5mlUY,30310,grocery_or_supermarket,,33.7184247,-84.4127798
ChIJs_SaKGsD9YgRshNltdfH3YE,30310,grocery_or_supermarket,,33.7380613,-84.4144253
ChIJ1d4zXGoD9YgR-NXfbZN2qOI,30310,grocery_or_supermarket,,33.739629,-84.416105
ChIJk3VXo2sD9YgROKC8qaLZjGY,30310,grocery_or_supermarket,,33.7408717,-84.4135485
ChIJzWAQUrsc9YgRf2pnxnimCyQ,30310,grocery_or_supermarket,,33.7502936,-84.4536058
ChIJKfULVrsc9YgRi0zYDwKI0Gc,30310,grocery_or_supermarket,,33.7500132,-84.4539616
ChIJ-YN3mkQD9YgRNhSkm6_hc6Q,30310,grocery_or_supermarket,,33.7471594,-84.4231375
ChIJK4fw0Q4D9YgRBhlXDXDVZG8,30310,grocery_or_supermarket,,33.7275707,-84.4019157
ChIJ0y48gQgD9YgRAciDTvWVRS8,30310,grocery_or_supermarket,,33.7257336,-84.3991061
ChIJ_4gSA0oD9YgRh9nrS1zp048,30310,grocery_or_supermarket,,33.7376424,-84.4330944
ChIJ30JeSHsc9YgR1Wl2XUlOFw0,30311,grocery_or_supermarket,,33.7504098,-84.4858342
ChIJ_eRmLiMd9YgR1QOj3oULqV4,30311,grocery_or_supermarket,,33.7064932,-84.4565526
ChIJJRSiMjwd9YgR__M2a4dO6Gw,30311,grocery_or_supermarket,,33.7010416,-84.4565605
ChIJOTP7gTEc9YgRW9NDPYouWGU,30311,grocery_or_supermarket,,33.7248442,-84.5081825
ChIJFa8seT4d9YgRYywwdGQWw_Q,30311,grocery_or_supermarket,,33.700109,-84.456976
ChIJ-cLw0IUc9YgRLO73isvGpDo,30311,grocery_or_supermarket,,33.7534494,-84.4745468
ChIJ3fnylNUC9YgRLMadE9_oZ3c,30311,grocery_or_supermarket,,33.714872,-84.434465
ChIJKQinENUC9YgRbc4DrnaGu_w,30311,grocery_or_supermarket,,33.714027,-84.43658
ChIJGTeglBcd9YgRRzN1ZqL2r7c,30311,grocery_or_supermarket,,33.7050478,-84.4606458
ChIJqca5Sj0d9YgRAa6_D3dSJpY,30311,grocery_or_supermarket,,33.7057427,-84.4583611
ChIJ2Z08lpgd9YgR_bmQexYBBUo,30311,grocery_or_supermarket,,33.695132,-84.486866
ChIJwR5ZmiYD9YgRqcB_x4nsZc8,30311,grocery_or_supermarket,,33.7207092,-84.4244978
ChIJKV-tkxcd9YgRBDhVrCyI-GU,30311,grocery_or_supermarket,,33.7050478,-84.4606458
ChIJNRN-NJod9YgREuUFVEVZO2Q,30311,grocery_or_supermarket,,33.6868182,-84.4876634
ChIJ0fcB2iId9YgRY_0K0mXw8wg,30311,grocery_or_supermarket,,33.7052062,-84.4568632
ChIJw2Pxp_ED9YgR76DtrNcdY6I,30312,grocery_or_supermarket,,33.7492177,-84.3678997
ChIJ-ajUbfQD9YgRR9f2OJNcdCw,30312,grocery_or_supermarket,,33.7530362,-84.3714584
ChIJi2Q0KPYD9YgRlBQcWH2C7j0,30312,grocery_or_supermarket,,33.75749,-84.3677778
ChIJBfK5TIwD9YgRjvHEUfCW3pQ,30312,grocery_or_supermarket,,33.7499749,-84.3768908
ChIJraRjlwgE9YgRMQYH8zBgerE,30312,grocery_or_supermarket,,33.761427,-84.3653191
ChIJwxAM__UD9YgRtdFxMb2Hik0,30312,grocery_or_supermarket,,33.7574665,-84.370162
ChIJwTBPlXUD9YgROvtC08U3abo,30312,grocery_or_supermarket,,33.7410593,-84.3979289
ChIJsbNRuoYD9YgRy1fhsJgldJY,30312,grocery_or_supermarket,,33.7539328,-84.390386
ChIJLwS8__UD9YgROhtymNwm3Xw,30312,grocery_or_supermarket,,33.7575499,-84.3700812
ChIJ5ylOSQ8D9YgRmeNcwOn2AsE,30312,grocery_or_supermarket,,33.7267834,-84.4018115
ChIJK4fw0Q4D9YgRBhlXDXDVZG8,30312,grocery_or_supermarket,,33.7275707,-84.4019157
ChIJDYah9HsD9YgRKoQfaN75ynw,30312,grocery_or_supermarket,,33.7535325,-84.402477
ChIJ1d4zXGoD9YgR-NXfbZN2qOI,30312,grocery_or_supermarket,,33.739629,-84.416105
ChIJr_ik5T8D9YgRUHtyScyVpkI,30312,grocery_or_supermarket,,33.7364924,-84.4182372
ChIJWTDCsqgG9YgR-U6sWxq-qJw,30312,grocery_or_supermarket,,33.7671024,-84.3484783
ChIJDYah9HsD9YgRKoQfaN75ynw,30313,grocery_or_supermarket,,33.7535325,-84.402477
ChIJI00M5YgD9YgR0wAaEQ6oqZU,30313,grocery_or_supermarket,,33.7546186,-84.3836863
ChIJo7Z1rnAD9YgRR00zvsZiW5M,30313,grocery_or_supermarket,,33.7473532,-84.401997
ChIJu-ozPJIE9YgRneAKSWnekIc,30313,grocery_or_supermarket,,33.7768865,-84.4081811
ChIJBb6sr5ME9YgRjtXSBOtRe1M,30313,grocery_or_supermarket,,33.7832132,-84.35467
ChIJreRAYvIE9YgRbsssSxcWrRs,30313,grocery_or_supermarket,,33.7842234,-84.4055378
ChIJBfK5TIwD9YgRjvHEUfCW3pQ,30313,grocery_or_supermarket,,33.7499749,-84.3768908
ChIJY67FFGED9YgRCn6XUng5x4A,30313,grocery_or_supermarket,,33.7557898,-84.4136594
ChIJ1d4zXGoD9YgR-NXfbZN2qOI,30313,grocery_or_supermarket,,33.739629,-84.416105
ChIJs_SaKGsD9YgRshNltdfH3YE,30313,grocery_or_supermarket,,33.7380613,-84.4144253
ChIJi7ON-aYE9YgRGHzwnQ8MyeE,30313,grocery_or_supermarket,,33.7638854,-84.4250837
ChIJw2Pxp_ED9YgR76DtrNcdY6I,30313,grocery_or_supermarket,,33.7492177,-84.3678997
ChIJraRjlwgE9YgRMQYH8zBgerE,30313,grocery_or_supermarket,,33.761427,-84.3653191
ChIJaUODK6YE9YgR_BMaI5SeQvw,30314,grocery_or_supermarket,,33.7632249,-84.4274268
ChIJ2xCkd6IE9YgRidx9sUF12Gs,30314,grocery_or_supermarket,,33.768606,-84.4170839
ChIJi7ON-aYE9YgRGHzwnQ8MyeE,30314,grocery_or_supermarket,,33.7638854,-84.4250837
ChIJy8e7518D9YgRG-d8Qknzzdw,30314,grocery_or_supermarket,,33.7586703,-84.4177568
ChIJY67FFGED9YgRCn6XUng5x4A,30314,grocery_or_supermarket,,33.7557898,-84.4136594
ChIJS6yQY58E9YgRxmd3lRzaEQY,30314,grocery_or_supermarket,,33.7637582,-84.4170773
ChIJWTRzAFUb9YgRiWgjdvT2llQ,30314,grocery_or_supermarket,,33.7633213,-84.4407174
ChIJb-kTdKkE9YgRl0DsubHoYHo,30314,grocery_or_supermarket,,33.763244,-84.4320369
ChIJf6nuL54E9YgRtAWzemRxKWc,30314,grocery_or_supermarket,,33.7603788,-84.4140478
ChIJ74lyA14D9YgREr42-3VeEbU,30314,grocery_or_supermarket,,33.7552418,-84.4177406
ChIJAUCRhKgE9YgRx0CW3eNu3Ok,30314,grocery_or_supermarket,,33.764352,-84.4278391
ChIJr_ik5T8D9YgRUHtyScyVpkI,30314,grocery_or_supermarket,,33.7364924,-84.4182372
ChIJlZJ6A7ID9YgRkG-TijaNtj0,30315,grocery_or_supermarket,,33.7189936,-84.385472
ChIJbe30v-8C9YgRzZmzLGuBbk0,30315,grocery_or_supermarket,,33.7034342,-84.4100028
ChIJ98UKmpAC9YgRx_FrB4QSp7o,30315,grocery_or_supermarket,,33.6826787,-84.4092222
ChIJgae8QYkC9YgR5WYPBYjZlus,30315,grocery_or_supermarket,,33.6852058,-84.4000734
ChIJ13fTbKMD9YgRivIDIjfJGnQ,30315,grocery_or_supermarket,,33.7320162,-84.387635
ChIJg0yHiCsC9YgRFquwusYb_kU,30315,grocery_or_supermarket,,33.709367,-84.3593679
ChIJbSTZaiQC9YgRXIE43ThLdgY,30315,grocery_or_supermarket,,33.6970886,-84.3608444
ChIJgWn830gC9YgRWOgiY7qvCyk,30315,grocery_or_supermarket,,33.7051464,-84.3792991
ChIJEYvOwcwD9YgRgNawoHP9R7E,30315,grocery_or_supermarket,,33.7143654,-84.3683048
ChIJDX241mQC9YgRSGYVZETjPTk,30315,grocery_or_supermarket,,33.6808909,-84.3885049
ChIJqUM_zXwC9YgRYYOXuOkhgX4,30315,grocery_or_supermarket,,33.6806288,-84.3928842
ChIJbS1MyKIC9YgR_f8TS956S-M,30315,grocery_or_supermarket,,33.6809918,-84.4177651
ChIJuXkgfqQD9YgRkSsC2H3rrC4,30315,grocery_or_supermarket,,33.7302546,-84.3883642
ChIJNYyG134B9YgRUJOqTz5seeQ,30315,grocery_or_supermarket,,33.7137395,-84.3502697
ChIJI_FfY3wB9YgR1H6p_aAy8M0,30315,grocery_or_supermarket,,33.7201102,-84.3504739
ChIJrT9qfXwB9YgRSp708zlc_oQ,30315,grocery_or_supermarket,,33.7201146,-84.3504467
ChIJEyH3XHwB9YgRKo6ZdDBJjlI,30315,grocery_or_supermarket,,33.7200866,-84.3504975
ChIJNYyG134B9YgRUJOqTz5seeQ,30316,grocery_or_supermarket,,33.7137395,-84.3502697
ChIJI_FfY3wB9YgR1H6p_aAy8M0,30316,grocery_or_supermarket,,33.7201102,-84.3504739
ChIJzW5hmHwB9YgRWcIYTBM4B8k,30316,grocery_or_supermarket,,33.7223995,-84.3476968
ChIJrT9qfXwB9YgRSp708zlc_oQ,30316,grocery_or_supermarket,,33.7201146,-84.3504467
ChIJEyH3XHwB9YgRKo6ZdDBJjlI,30316,grocery_or_supermarket,,33.7200866,-84.3504975
ChIJZyOGBWsB9YgRMcSSWZbHIxw,30316,grocery_or_supermarket,,33.7303675,-84.3355865
ChIJw2Pxp_ED9YgR76DtrNcdY6I,30316,grocery_or_supermarket,,33.7492177,-84.3678997
ChIJ5wU_ElQB9YgRxcXGueQxaJg,30316,grocery_or_supermarket,,33.752274,-84.349589
ChIJraptr0QB9YgREZ5IBPoul64,30316,grocery_or_supermarket,,33.7403774,-84.3431743
ChIJ2XMru9gA9YgR7itsVRch310,30316,grocery_or_supermarket,,33.7392125,-84.3115239
ChIJ_fwyglcB9YgR2VtDKFSGEOw,30316,grocery_or_supermarket,,33.74609,-84.351732
ChIJKznvTVMB9YgRWFYyoZFkjyk,30316,grocery_or_supermarket,,33.7560452,-84.3480857
ChIJWTDCsqgG9YgR-U6sWxq-qJw,30316,grocery_or_supermarket,,33.7671024,-84.3484783
ChIJJ66tSXEb9YgR49Ga4VUaXOI,30318,grocery_or_supermarket,,33.7777347,-84.4750829
ChIJu-ozPJIE9YgRneAKSWnekIc,30318,grocery_or_supermarket,,33.7768865,-84.4081811
ChIJLym-7VQE9YgRpzegAmUhAIk,30318,grocery_or_supermarket,,33.8017601,-84.4125193
ChIJK0dEFvQE9YgR9QyxhU3-DsU,30318,grocery_or_supermarket,,33.7859132,-84.4002382
ChIJ30JeSHsc9YgR1Wl2XUlOFw0,30318,grocery_or_supermarket,,33.7504098,-84.4858342
ChIJlSDudA4b9YgR7kuTuAIE4es,30318,grocery_or_supermarket,,33.7902863,-84.4711853
ChIJr_ik5T8D9YgRUHtyScyVpkI,30318,grocery_or_supermarket,,33.7364924,-84.4182372
ChIJsbNRuoYD9YgRy1fhsJgldJY,30321,grocery_or_supermarket,,33.7539328,-84.390386
ChIJI00M5YgD9YgR0wAaEQ6oqZU,30321,grocery_or_supermarket,,33.7546186,-84.3836863
ChIJBfK5TIwD9YgRjvHEUfCW3pQ,30321,grocery_or_supermarket,,33.7499749,-84.3768908
ChIJw2Pxp_ED9YgR76DtrNcdY6I,30321,grocery_or_supermarket,,33.7492177,-84.3678997
ChIJk3VXo2sD9YgROKC8qaLZjGY,30321,grocery_or_supermarket,,33.7408717,-84.4135485
ChIJY67FFGED9YgRCn6XUng5x4A,30321,grocery_or_supermarket,,33.7557898,-84.4136594
ChIJ1d4zXGoD9YgR-NXfbZN2qOI,30321,grocery_or_supermarket,,33.739629,-84.416105
ChIJ5ylOSQ8D9YgRmeNcwOn2AsE,30321,grocery_or_supermarket,,33.7267834,-84.4018115
ChIJr_ik5T8D9YgRUHtyScyVpkI,30321,grocery_or_supermarket,,33.7364924,-84.4182372
ChIJu-ozPJIE9YgRneAKSWnekIc,30321,grocery_or_supermarket,,33.7768865,-84.4081811
ChIJi7wD98IF9YgRBHDcGU7-918,30324,grocery_or_supermarket,,33.8223543,-84.3669527
ChIJ10zeHTUE9YgR0gO0QptFsIQ,30324,grocery_or_supermarket,,33.800517,-84.372989
ChIJlxGwyM0F9YgRtcK7jFtCEog,30324,grocery_or_supermarket,,33.8067817,-84.366375
ChIJY_Z6x3cG9YgR1RbakV-W720,30324,grocery_or_supermarket,,33.8144356,-84.3529249
ChIJr0U0BUIG9YgRq4StqIACTu8,30324,grocery_or_supermarket,,33.8158203,-84.333212
ChIJmV7R-BUG9YgR_ZTjYIP2M2k,30324,grocery_or_supermarket,,33.827982,-84.333309
ChIJN_zP3agF9YgRK-ptZFY1yYk,30324,grocery_or_supermarket,,33.8119915,-84.3913963
ChIJH6wyD1MP9YgRseDZrRZWK6E,30324,grocery_or_supermarket,,33.840941,-84.374955
ChIJCQfrG2EG9YgRk-OyqR3iIBg,30324,grocery_or_supermarket,,33.8041851,-84.3363293
ChIJWRj4FY8F9YgR4BBoZThHMYM,30325,grocery_or_supermarket,,33.840619,-84.384232
ChIJN_zP3agF9YgRK-ptZFY1yYk,30325,grocery_or_supermarket,,33.8119915,-84.3913963
ChIJLym-7VQE9YgRpzegAmUhAIk,30325,grocery_or_supermarket,,33.8017601,-84.4125193
ChIJH6wyD1MP9YgRseDZrRZWK6E,30325,grocery_or_supermarket,,33.840941,-84.374955
ChIJQySAuI4F9YgRj3NAqVrX5js,30325,grocery_or_supermarket,,33.8408911,-84.381743
ChIJt3HwQvUF9YgR9Sjtgg5Of9M,30325,grocery_or_supermarket,,33.8456696,-84.3745057
ChIJg0Ul6VQE9YgRy-YZx9vQRbs,30325,grocery_or_supermarket,,33.800951,-84.3934681
ChIJt3HwQvUF9YgRxBRc6csptew,30325,grocery_or_supermarket,,33.84552,-84.3745814
ChIJAz1IDPgF9YgRzn9e4HDqFEI,30326,grocery_or_supermarket,,33.8459141,-84.3621872
ChIJt3HwQvUF9YgRxBRc6csptew,30326,grocery_or_supermarket,,33.84552,-84.3745814
ChIJt3HwQvUF9YgR9Sjtgg5Of9M,30326,grocery_or_supermarket,,33.8456696,-84.3745057
ChIJH6wyD1MP9YgRseDZrRZWK6E,30326,grocery_or_supermarket,,33.840941,-84.374955
ChIJ83So4a8I9YgR93PnInUyxd8,30326,grocery_or_supermarket,,33.856402,-84.3450209
ChIJHeDwnxkG9YgRwQxPqV8Hbsk,30326,grocery_or_supermarket,,33.8367478,-84.3371045
ChIJA2Nd5SYG9YgRh9RbU5P_AQA,30326,grocery_or_supermarket,,33.8412109,-84.325894
ChIJN_zP3agF9YgRK-ptZFY1yYk,30326,grocery_or_supermarket,,33.8119915,-84.3913963
ChIJQySAuI4F9YgRj3NAqVrX5js,30326,grocery_or_supermarket,,33.8408911,-84.381743
ChIJDc1o0FIP9YgR9qnUum3iL5Y,30326,grocery_or_supermarket,,33.8680218,-84.3357149
ChIJ41iTYxUQ9YgRFD6NFGwKIAk,30327,grocery_or_supermarket,,33.8715762,-84.457704
ChIJE7j3VREP9YgRiel1VuYEVZk,30327,grocery_or_supermarket,,33.8744413,-84.3798848
ChIJ3fBfiOwO9YgReOnzvA12uVM,30327,grocery_or_supermarket,,33.9113507,-84.3812855
ChIJ_yAATRwP9YgR-_XQB_uGA3w,30327,grocery_or_supermarket,,33.8896159,-84.3832728
ChIJO-GVHGMa9YgRy-XFhDi-Rgw,30327,grocery_or_supermarket,,33.8391055,-84.4821192
ChIJKdr1hHAa9YgR4qda4WUzo3A,30327,grocery_or_supermarket,,33.8442228,-84.4910563
ChIJN_zP3agF9YgRK-ptZFY1yYk,30327,grocery_or_supermarket,,33.8119915,-84.3913963
ChIJH6wyD1MP9YgRseDZrRZWK6E,30327,grocery_or_supermarket,,33.840941,-84.374955
ChIJC00f3PcQ9YgRp9dfseHig1Y,30327,grocery_or_supermarket,,33.883624,-84.4805916
ChIJzdeJft8W9YgRPkxegbwskHk,30327,grocery_or_supermarket,,33.9010676,-84.4875364
ChIJV4dewpkO9YgRg240W67FCMw,30328,grocery_or_supermarket,,33.926269,-84.378101
ChIJOwmMtJ4O9YgRgi9BMj1nNiQ,30328,grocery_or_supermarket,,33.9307585,-84.3790735
ChIJRzp7a5QO9YgRTeyoOkbsYwc,30328,grocery_or_supermarket,,33.9176936,-84.3797966
ChIJrR8E0ZMO9YgRE8nDOh2zbn0,30328,grocery_or_supermarket,,33.9202912,-84.381341
ChIJ3fBfiOwO9YgReOnzvA12uVM,30328,grocery_or_supermarket,,33.9113507,-84.3812855
ChIJ6yymv18J9YgR58jT-QzWXmE,30328,grocery_or_supermarket,,33.9321441,-84.3322921
ChIJoUaYd8MN9YgRSXtpOosAVso,30328,grocery_or_supermarket,,33.9507958,-84.4139645
ChIJs1TmWRcP9YgR5lMLQ45fcts,30328,grocery_or_supermarket,,33.8814997,-84.3809168
ChIJ30JeSHsc9YgR1Wl2XUlOFw0,30331,grocery_or_supermarket,,33.7504098,-84.4858342
ChIJOTP7gTEc9YgRW9NDPYouWGU,30331,grocery_or_supermarket,,33.7248442,-84.5081825
ChIJY9rgCW7g9IgRIse7ALVOApM,30331,grocery_or_supermarket,,33.6505837,-84.5941965
ChIJJ66tSXEb9YgR49Ga4VUaXOI,30331,grocery_or_supermarket,,33.7777347,-84.4750829
ChIJNRN-NJod9YgREuUFVEVZO2Q,30331,grocery_or_supermarket,,33.6868182,-84.4876634
ChIJu7FCnlsB9YgREOKPzeQBCE8,30332,grocery_or_supermarket,,33.7755299,-84.3751382
ChIJ6cBjtBAE9YgRUisH70GZTX4,30332,grocery_or_supermarket,,33.775188,-84.3658097
ChIJ1zoUGxYE9YgRL399jlxWp6Q,30332,grocery_or_supermarket,,33.7797565,-84.3678403
ChIJa-9dZxoE9YgRB5SAyPu3qoo,30332,grocery_or_supermarket,,33.7716769,-84.3633876
ChIJifEXvhAE9YgRGGg1S80BZYU,30332,grocery_or_supermarket,,33.7728278,-84.3657839
ChIJraRjlwgE9YgRMQYH8zBgerE,30332,grocery_or_supermarket,,33.761427,-84.3653191
ChIJI00M5YgD9YgR0wAaEQ6oqZU,30332,grocery_or_supermarket,,33.7546186,-84.3836863
ChIJZ75CEBcE9YgRzBUatdvfMdQ,30332,grocery_or_supermarket,,33.7725829,-84.3654761
ChIJPa8F3YsD9YgRAOOiZTcqp6M,30332,grocery_or_supermarket,,33.754076,-84.3799669
ChIJsbNRuoYD9YgRy1fhsJgldJY,30334,grocery_or_supermarket,,33.7539328,-84.390386
ChIJI00M5YgD9YgR0wAaEQ6oqZU,30334,grocery_or_supermarket,,33.7546186,-84.3836863
ChIJBfK5TIwD9YgRjvHEUfCW3pQ,30334,grocery_or_supermarket,,33.7499749,-84.3768908
ChIJDYah9HsD9YgRKoQfaN75ynw,30334,grocery_or_supermarket,,33.7535325,-84.402477
ChIJw2Pxp_ED9YgR76DtrNcdY6I,30334,grocery_or_supermarket,,33.7492177,-84.3678997
ChIJk3VXo2sD9YgROKC8qaLZjGY,30334,grocery_or_supermarket,,33.7408717,-84.4135485
ChIJraRjlwgE9YgRMQYH8zBgerE,30334,grocery_or_supermarket,,33.761427,-84.3653191
ChIJ5ylOSQ8D9YgRmeNcwOn2AsE,30334,grocery_or_supermarket,,33.7267834,-84.4018115
ChIJY67FFGED9YgRCn6XUng5x4A,30334,grocery_or_supermarket,,33.7557898,-84.4136594
ChIJr_ik5T8D9YgRUHtyScyVpkI,30334,grocery_or_supermarket,,33.7364924,-84.4182372
ChIJ1d4zXGoD9YgR-NXfbZN2qOI,30334,grocery_or_supermarket,,33.739629,-84.416105
ChIJwR5ZmiYD9YgRqcB_x4nsZc8,30334,grocery_or_supermarket,,33.7207092,-84.4244978
ChIJ1zoUGxYE9YgRL399jlxWp6Q,30334,grocery_or_supermarket,,33.7797565,-84.3678403
ChIJ9RvBj8Ue9YgR9EAovpYXJuE,30336,grocery_or_supermarket,,33.7539779,-84.550297
ChIJrXSO0Zsf9YgRF6mygQ3qPUM,30336,grocery_or_supermarket,,33.714981,-84.5907876
ChIJ-YWyTyAf9YgRgF1Gw8FeR2k,30336,grocery_or_supermarket,,33.7461362,-84.566285
ChIJSSjF9B4f9YgRISKK5Ag4ngo,30336,grocery_or_supermarket,,33.7400672,-84.5669733
ChIJJ66tSXEb9YgR49Ga4VUaXOI,30336,grocery_or_supermarket,,33.7777347,-84.4750829
ChIJ30JeSHsc9YgR1Wl2XUlOFw0,30336,grocery_or_supermarket,,33.7504098,-84.4858342
ChIJ-y7akfwY9YgRitRTp5E_JEE,30336,grocery_or_supermarket,,33.802272,-84.5687504
ChIJOTP7gTEc9YgRW9NDPYouWGU,30336,grocery_or_supermarket,,33.7248442,-84.5081825
ChIJ8WwDFLji9IgRqoe9HReMKEQ,30336,grocery_or_supermarket,,33.6508607,-84.4498367
ChIJ16t1kFoi9YgRKGOmQYZ7SOE,30336,grocery_or_supermarket,,33.7977966,-84.6406722
ChIJKdr1hHAa9YgR4qda4WUzo3A,30336,grocery_or_supermarket,,33.8442228,-84.4910563
ChIJPRBk2UMd9YgRlTYgwg0aplU,30336,grocery_or_supermarket,,33.6877229,-84.4547178
ChIJ8WwDFLji9IgRqoe9HReMKEQ,30337,grocery_or_supermarket,,33.6508607,-84.4498367
ChIJhWw0HLji9IgR7rTgQCPlpZI,30337,grocery_or_supermarket,,33.6508856,-84.4498764
ChIJ36PlsDzj9IgRerHCMyKlNQo,30337,grocery_or_supermarket,,33.6158486,-84.4554606
ChIJB9i6rq_i9IgRY6cUo_oOyRk,30337,grocery_or_supermarket,,33.6632094,-84.4465815
ChIJ_xPs4a_i9IgRjoN45Ue4YOg,30337,grocery_or_supermarket,,33.6608846,-84.448102
ChIJF1Bdx5_i9IgRTn4Vb2KDm4M,30337,grocery_or_supermarket,,33.670228,-84.4610834
ChIJKSu9u03i9IgRxa0Q3_LumeQ,30337,grocery_or_supermarket,,33.6330516,-84.4927583
ChIJQ2WQ17n89IgRnqqC_BzjFhw,30337,grocery_or_supermarket,,33.6071118,-84.4442716
ChIJmyz4Jbbj9IgRshAuZ21acSU,30337,grocery_or_supermarket,,33.6232195,-84.5012779
ChIJoZffS3vj9IgROzSrjpQY2XE,30337,grocery_or_supermarket,,33.590389,-84.4705348
ChIJPRBk2UMd9YgRlTYgwg0aplU,30337,grocery_or_supermarket,,33.6877229,-84.4547178
ChIJ98UKmpAC9YgRx_FrB4QSp7o,30337,grocery_or_supermarket,,33.6826787,-84.4092222
ChIJ41iTYxUQ9YgRFD6NFGwKIAk,30339,grocery_or_supermarket,,33.8715762,-84.457704
ChIJzdeJft8W9YgRPkxegbwskHk,30339,grocery_or_supermarket,,33.9010676,-84.4875364
ChIJ9QKGsxoR9YgR1r-OaVkPXxM,30339,grocery_or_supermarket,,33.9072017,-84.4892502
ChIJMVsJc1oQ9YgR2mcmxi7gc2I,30339,grocery_or_supermarket,,33.8840592,-84.47396
ChIJKdr1hHAa9YgR4qda4WUzo3A,30339,grocery_or_supermarket,,33.8442228,-84.4910563
ChIJYbDqtHIa9YgRrQn6JFBGqHM,30339,grocery_or_supermarket,,33.842338,-84.5012053
ChIJs31HEpcR9YgR0RbJGogJ22U,30339,grocery_or_supermarket,,33.9213896,-84.4682872
ChIJf0XhHPEQ9YgRS0ftb-9Bvdo,30339,grocery_or_supermarket,,33.8822287,-84.4876042
ChIJO-GVHGMa9YgRy-XFhDi-Rgw,30339,grocery_or_supermarket,,33.8391055,-84.4821192
ChIJicJ1MNwQ9YgRmXhxnhegdJ8,30339,grocery_or_supermarket,,33.8909654,-84.5039525
ChIJZ2FJUpcR9YgRYDuC_phlHvc,30339,grocery_or_supermarket,,33.9229569,-84.4699083
ChIJ3fBfiOwO9YgReOnzvA12uVM,30342,grocery_or_supermarket,,33.9113507,-84.3812855
ChIJE7j3VREP9YgRiel1VuYEVZk,30342,grocery_or_supermarket,,33.8744413,-84.3798848
ChIJs1TmWRcP9YgR5lMLQ45fcts,30342,grocery_or_supermarket,,33.8814997,-84.3809168
ChIJ_yAATRwP9YgR-_XQB_uGA3w,30342,grocery_or_supermarket,,33.8896159,-84.3832728
ChIJ1XkZlusO9YgR-fEnXcILd20,30342,grocery_or_supermarket,,33.9102168,-84.3792036
ChIJlVZXhesO9YgRQsD8JydWZck,30342,grocery_or_supermarket,,33.9104957,-84.3797519
ChIJt3HwQvUF9YgR9Sjtgg5Of9M,30342,grocery_or_supermarket,,33.8456696,-84.3745057
ChIJsbNRuoYD9YgRy1fhsJgldJY,30343,grocery_or_supermarket,,33.7539328,-84.390386
ChIJI00M5YgD9YgR0wAaEQ6oqZU,30343,grocery_or_supermarket,,33.7546186,-84.3836863
ChIJPa8F3YsD9YgRAOOiZTcqp6M,30343,grocery_or_supermarket,,33.754076,-84.3799669
ChIJDYah9HsD9YgRKoQfaN75ynw,30343,grocery_or_supermarket,,33.7535325,-84.402477
ChIJBfK5TIwD9YgRjvHEUfCW3pQ,30343,grocery_or_supermarket,,33.7499749,-84.3768908
ChIJw2Pxp_ED9YgR76DtrNcdY6I,30343,grocery_or_supermarket,,33.7492177,-84.3678997
ChIJwR5ZmiYD9YgRqcB_x4nsZc8,30343,grocery_or_supermarket,,33.7207092,-84.4244978
ChIJr_ik5T8D9YgRUHtyScyVpkI,30343,grocery_or_supermarket,,33.7364924,-84.4182372
ChIJ1zoUGxYE9YgRL399jlxWp6Q,30343,grocery_or_supermarket,,33.7797565,-84.3678403
ChIJBb6sr5ME9YgRjtXSBOtRe1M,30343,grocery_or_supermarket,,33.7832132,-84.35467
ChIJraRjlwgE9YgRMQYH8zBgerE,30343,grocery_or_supermarket,,33.761427,-84.3653191
ChIJ6cBjtBAE9YgRUisH70GZTX4,30343,grocery_or_supermarket,,33.775188,-84.3658097
ChIJPRBk2UMd9YgRlTYgwg0aplU,30344,grocery_or_supermarket,,33.6877229,-84.4547178
ChIJbS1MyKIC9YgR_f8TS956S-M,30344,grocery_or_supermarket,,33.6809918,-84.4177651
ChIJJ3Aphani9IgRE-JGr4XtgJg,30344,grocery_or_supermarket,,33.6695697,-84.4441958
ChIJF1Bdx5_i9IgRTn4Vb2KDm4M,30344,grocery_or_supermarket,,33.670228,-84.4610834
ChIJkRzdTq8C9YgRpIjpQVPtUCY,30344,grocery_or_supermarket,,33.6775563,-84.4290821
ChIJo8sNclcd9YgR3nSm-sO4cgA,30344,grocery_or_supermarket,,33.6754729,-84.447722
ChIJ_xPs4a_i9IgRjoN45Ue4YOg,30344,grocery_or_supermarket,,33.6608846,-84.448102
ChIJ_eRmLiMd9YgR1QOj3oULqV4,30344,grocery_or_supermarket,,33.7064932,-84.4565526
ChIJKQuG-p_i9IgRU8RuNwXzbsY,30344,grocery_or_supermarket,,33.6719324,-84.459892
ChIJhWw0HLji9IgR7rTgQCPlpZI,30344,grocery_or_supermarket,,33.6508856,-84.4498764
ChIJJRSiMjwd9YgR__M2a4dO6Gw,30344,grocery_or_supermarket,,33.7010416,-84.4565605
ChIJwR5ZmiYD9YgRqcB_x4nsZc8,30344,grocery_or_supermarket,,33.7207092,-84.4244978
ChIJr_ik5T8D9YgRUHtyScyVpkI,30344,grocery_or_supermarket,,33.7364924,-84.4182372
ChIJQySAuI4F9YgRj3NAqVrX5js,30348,grocery_or_supermarket,,33.8408911,-84.381743
ChIJWRj4FY8F9YgR4BBoZThHMYM,30348,grocery_or_supermarket,,33.840619,-84.384232
ChIJH6wyD1MP9YgRseDZrRZWK6E,30348,grocery_or_supermarket,,33.840941,-84.374955
ChIJN_zP3agF9YgRK-ptZFY1yYk,30348,grocery_or_supermarket,,33.8119915,-84.3913963
ChIJt3HwQvUF9YgRxBRc6csptew,30348,grocery_or_supermarket,,33.84552,-84.3745814
ChIJt3HwQvUF9YgR9Sjtgg5Of9M,30348,grocery_or_supermarket,,33.8456696,-84.3745057
ChIJ03mBjoIH9YgRmlvPFl07b60,30348,grocery_or_supermarket,,33.7986531,-84.2794785
ChIJWTDCsqgG9YgR-U6sWxq-qJw,30348,grocery_or_supermarket,,33.7671024,-84.3484783
ChIJq4vrxncH9YgR_zZpw8O_RZE,30348,grocery_or_supermarket,,33.7976687,-84.2806728
ChIJBb6sr5ME9YgRjtXSBOtRe1M,30348,grocery_or_supermarket,,33.7832132,-84.35467
ChIJae9o8gQH9YgR3uq8CQkWxPc,30348,grocery_or_supermarket,,33.7908588,-84.3052307
ChIJmyz4Jbbj9IgRshAuZ21acSU,30349,grocery_or_supermarket,,33.6232195,-84.5012779
ChIJ36PlsDzj9IgRerHCMyKlNQo,30349,grocery_or_supermarket,,33.6158486,-84.4554606
ChIJQ2WQ17n89IgRnqqC_BzjFhw,30349,grocery_or_supermarket,,33.6071118,-84.4442716
ChIJY9rgCW7g9IgRIse7ALVOApM,30349,grocery_or_supermarket,,33.6505837,-84.5941965
ChIJoZffS3vj9IgROzSrjpQY2XE,30349,grocery_or_supermarket,,33.590389,-84.4705348
ChIJQ2WQ17n89IgR_A0pjMM13lY,30349,grocery_or_supermarket,,33.6016445,-84.4272594
ChIJKSu9u03i9IgRxa0Q3_LumeQ,30349,grocery_or_supermarket,,33.6330516,-84.4927583
ChIJcwkZisr89IgR6fVaVJeD7Xw,30349,grocery_or_supermarket,,33.6056311,-84.4357895
ChIJ36PlsDzj9IgRdgILp2AmKRQ,30349,grocery_or_supermarket,,33.6158605,-84.4556698
ChIJgfAJLSXj9IgRrqIn-gD9OTc,30349,grocery_or_supermarket,,33.6165258,-84.4508289
ChIJoyDdjcz89IgRd7DZ-iJO4Us,30349,grocery_or_supermarket,,33.6112191,-84.4361619
ChIJe1uik2Ph9IgRCdMkbvWWcRk,30349,grocery_or_supermarket,,33.6156753,-84.5275012
ChIJhWw0HLji9IgR7rTgQCPlpZI,30349,grocery_or_supermarket,,33.6508856,-84.4498764
ChIJ_xPs4a_i9IgRjoN45Ue4YOg,30349,grocery_or_supermarket,,33.6608846,-84.448102
ChIJ8WwDFLji9IgRqoe9HReMKEQ,30349,grocery_or_supermarket,,33.6508607,-84.4498367
ChIJTU-Q2YEL9YgRSGsJh_z1hpM,30350,grocery_or_supermarket,,33.9827223,-84.3480585
ChIJ6xmHVXwL9YgRYMn5aVcWfis,30350,grocery_or_supermarket,,33.9865128,-84.3515344
ChIJGeDLnZIM9YgRztrYK_A9S24,30350,grocery_or_supermarket,,33.9914561,-84.3734831
ChIJq54QjkgK9YgRL-0WnUnARR8,30350,grocery_or_supermarket,,33.9582912,-84.3040525
ChIJF87T_EUK9YgRmfOf9eSK7GE,30350,grocery_or_supermarket,,33.9607317,-84.3011308
ChIJs5HNnUgK9YgRy9ZPB3lwNPE,30350,grocery_or_supermarket,,33.9587927,-84.3019631
ChIJD9J31XsM9YgRtRGItmkJva4,30350,grocery_or_supermarket,,33.97134,-84.3593207
ChIJURQfUegL9YgRIF-K5ufiRuU,30350,grocery_or_supermarket,,33.9484704,-84.3347005
ChIJBwtS6dwM9YgRFXx6Pau8VM8,30350,grocery_or_supermarket,,34.0041144,-84.389529
ChIJfc52NMt09YgRRkyralYpbSo,30350,grocery_or_supermarket,,34.0226737,-84.3294152
ChIJoVT0tcYK9YgRKmzG0qTIzBQ,30350,grocery_or_supermarket,,34.00502,-84.294856
ChIJsbNRuoYD9YgRy1fhsJgldJY,30353,grocery_or_supermarket,,33.7539328,-84.390386
ChIJI00M5YgD9YgR0wAaEQ6oqZU,30353,grocery_or_supermarket,,33.7546186,-84.3836863
ChIJPa8F3YsD9YgRAOOiZTcqp6M,30353,grocery_or_supermarket,,33.754076,-84.3799669
ChIJDYah9HsD9YgRKoQfaN75ynw,30353,grocery_or_supermarket,,33.7535325,-84.402477
ChIJBfK5TIwD9YgRjvHEUfCW3pQ,30353,grocery_or_supermarket,,33.7499749,-84.3768908
ChIJw2Pxp_ED9YgR76DtrNcdY6I,30353,grocery_or_supermarket,,33.7492177,-84.3678997
ChIJwR5ZmiYD9YgRqcB_x4nsZc8,30353,grocery_or_supermarket,,33.7207092,-84.4244978
ChIJr_ik5T8D9YgRUHtyScyVpkI,30353,grocery_or_supermarket,,33.7364924,-84.4182372
ChIJ1zoUGxYE9YgRL399jlxWp6Q,30353,grocery_or_supermarket,,33.7797565,-84.3678403
ChIJBb6sr5ME9YgRjtXSBOtRe1M,30353,grocery_or_supermarket,,33.7832132,-84.35467
ChIJ6cBjtBAE9YgRUisH70GZTX4,30353,grocery_or_supermarket,,33.775188,-84.3658097
ChIJbS1MyKIC9YgR_f8TS956S-M,30353,grocery_or_supermarket,,33.6809918,-84.4177651
ChIJk3VXo2sD9YgROKC8qaLZjGY,30353,grocery_or_supermarket,,33.7408717,-84.4135485
ChIJEZoCPXH99IgREIjZU_PiL7g,30354,grocery_or_supermarket,,33.6559589,-84.4024886
ChIJL858kG_99IgRH6lNfQJdx_U,30354,grocery_or_supermarket,,33.6581893,-84.4087343
ChIJb7UKWIP99IgRPBzzpdjUQ_c,30354,grocery_or_supermarket,,33.659099,-84.391004
ChIJA0ZHhUT99IgR7QtK5rk2Nkc,30354,grocery_or_supermarket,,33.6562283,-84.4240045
ChIJAdr-tef99IgRDVnnmpSQeOA,30354,grocery_or_supermarket,,33.6484884,-84.3634174
ChIJbS1MyKIC9YgR_f8TS956S-M,30354,grocery_or_supermarket,,33.6809918,-84.4177651
ChIJ98UKmpAC9YgRx_FrB4QSp7o,30354,grocery_or_supermarket,,33.6826787,-84.4092222
ChIJicJyxI_99IgRxfezVLLed-E,30354,grocery_or_supermarket,,33.658954,-84.384068
ChIJv7Uvqpv99IgR-0OnJPO1UKU,30354,grocery_or_supermarket,,33.655176,-84.388434
ChIJTdU_aYP99IgRPbtb5c7AfuI,30354,grocery_or_supermarket,,33.6597091,-84.3935557
ChIJjyWRQv_89IgR19IjKIDXR4U,30354,grocery_or_supermarket,,33.6203728,-84.3887408
ChIJgae8QYkC9YgR5WYPBYjZlus,30354,grocery_or_supermarket,,33.6852058,-84.4000734
ChIJ_xPs4a_i9IgRjoN45Ue4YOg,30354,grocery_or_supermarket,,33.6608846,-84.448102
ChIJSw0ehk789IgRAWcQLi2CAVo,30354,grocery_or_supermarket,,33.6181673,-84.38277
ChIJqyitFYD-9IgR1VX6v2O8vBs,30354,grocery_or_supermarket,,33.6209878,-84.3548205
ChIJPRBk2UMd9YgRlTYgwg0aplU,30354,grocery_or_supermarket,,33.6877229,-84.4547178
ChIJH6wyD1MP9YgRseDZrRZWK6E,30355,grocery_or_supermarket,,33.840941,-84.374955
ChIJt3HwQvUF9YgRxBRc6csptew,30355,grocery_or_supermarket,,33.84552,-84.3745814
ChIJQySAuI4F9YgRj3NAqVrX5js,30355,grocery_or_supermarket,,33.8408911,-84.381743
ChIJt3HwQvUF9YgR9Sjtgg5Of9M,30355,grocery_or_supermarket,,33.8456696,-84.3745057
ChIJAz1IDPgF9YgRzn9e4HDqFEI,30355,grocery_or_supermarket,,33.8459141,-84.3621872
ChIJWRj4FY8F9YgR4BBoZThHMYM,30355,grocery_or_supermarket,,33.840619,-84.384232
ChIJ1zoUGxYE9YgRL399jlxWp6Q,30357,grocery_or_supermarket,,33.7797565,-84.3678403
ChIJreRAYvIE9YgRbsssSxcWrRs,30357,grocery_or_supermarket,,33.7842234,-84.4055378
ChIJg0Ul6VQE9YgRy-YZx9vQRbs,30357,grocery_or_supermarket,,33.800951,-84.3934681
ChIJ6cBjtBAE9YgRUisH70GZTX4,30357,grocery_or_supermarket,,33.775188,-84.3658097
ChIJ10zeHTUE9YgR0gO0QptFsIQ,30357,grocery_or_supermarket,,33.800517,-84.372989
ChIJBb6sr5ME9YgRjtXSBOtRe1M,30357,grocery_or_supermarket,,33.7832132,-84.35467
ChIJZ75CEBcE9YgRzBUatdvfMdQ,30357,grocery_or_supermarket,,33.7725829,-84.3654761
ChIJI00M5YgD9YgR0wAaEQ6oqZU,30357,grocery_or_supermarket,,33.7546186,-84.3836863
ChIJrR8E0ZMO9YgRE8nDOh2zbn0,30358,grocery_or_supermarket,,33.9202912,-84.381341
ChIJV4dewpkO9YgRg240W67FCMw,30358,grocery_or_supermarket,,33.926269,-84.378101
ChIJRzp7a5QO9YgRTeyoOkbsYwc,30358,grocery_or_supermarket,,33.9176936,-84.3797966
ChIJvwJ5vOsO9YgRwKBhwmjp39Q,30358,grocery_or_supermarket,,33.9101896,-84.3791999
ChIJ1XkZlusO9YgR-fEnXcILd20,30358,grocery_or_supermarket,,33.9102168,-84.3792036
ChIJ6yymv18J9YgR58jT-QzWXmE,30358,grocery_or_supermarket,,33.9321441,-84.3322921
ChIJrZOGs4IN9YgRmP3swWLpEKk,30358,grocery_or_supermarket,,33.981788,-84.427945
ChIJURQfUegL9YgRIF-K5ufiRuU,30358,grocery_or_supermarket,,33.9484704,-84.3347005
ChIJs1TmWRcP9YgR5lMLQ45fcts,30358,grocery_or_supermarket,,33.8814997,-84.3809168
ChIJ1zoUGxYE9YgRL399jlxWp6Q,30361,grocery_or_supermarket,,33.7797565,-84.3678403
ChIJAQAAAFME9YgR4o539sFGv0M,30361,grocery_or_supermarket,,33.7971137,-84.3804888
ChIJ10zeHTUE9YgR0gO0QptFsIQ,30361,grocery_or_supermarket,,33.800517,-84.372989
ChIJ6cBjtBAE9YgRUisH70GZTX4,30361,grocery_or_supermarket,,33.775188,-84.3658097
ChIJg0Ul6VQE9YgRy-YZx9vQRbs,30361,grocery_or_supermarket,,33.800951,-84.3934681
ChIJBb6sr5ME9YgRjtXSBOtRe1M,30361,grocery_or_supermarket,,33.7832132,-84.35467
ChIJZ75CEBcE9YgRzBUatdvfMdQ,30361,grocery_or_supermarket,,33.7725829,-84.3654761
ChIJreRAYvIE9YgRbsssSxcWrRs,30361,grocery_or_supermarket,,33.7842234,-84.4055378
ChIJlxGwyM0F9YgRtcK7jFtCEog,30361,grocery_or_supermarket,,33.8067817,-84.366375
ChIJWTDCsqgG9YgR-U6sWxq-qJw,30361,grocery_or_supermarket,,33.7671024,-84.3484783
ChIJr_ik5T8D9YgRUHtyScyVpkI,30361,grocery_or_supermarket,,33.7364924,-84.4182372
ChIJB9i6rq_i9IgRY6cUo_oOyRk,30364,grocery_or_supermarket,,33.6632094,-84.4465815
ChIJ_xPs4a_i9IgRjoN45Ue4YOg,30364,grocery_or_supermarket,,33.6608846,-84.448102
ChIJbS1MyKIC9YgR_f8TS956S-M,30364,grocery_or_supermarket,,33.6809918,-84.4177651
ChIJ8WwDFLji9IgRqoe9HReMKEQ,30364,grocery_or_supermarket,,33.6508607,-84.4498367
ChIJhWw0HLji9IgR7rTgQCPlpZI,30364,grocery_or_supermarket,,33.6508856,-84.4498764
ChIJ98UKmpAC9YgRx_FrB4QSp7o,30364,grocery_or_supermarket,,33.6826787,-84.4092222
ChIJ_eRmLiMd9YgR1QOj3oULqV4,30364,grocery_or_supermarket,,33.7064932,-84.4565526
ChIJL858kG_99IgRH6lNfQJdx_U,30364,grocery_or_supermarket,,33.6581893,-84.4087343
ChIJgae8QYkC9YgR5WYPBYjZlus,30364,grocery_or_supermarket,,33.6852058,-84.4000734
ChIJbe30v-8C9YgRzZmzLGuBbk0,30364,grocery_or_supermarket,,33.7034342,-84.4100028
ChIJwR5ZmiYD9YgRqcB_x4nsZc8,30364,grocery_or_supermarket,,33.7207092,-84.4244978
ChIJv7Uvqpv99IgR-0OnJPO1UKU,30364,grocery_or_supermarket,,33.655176,-84.388434
ChIJ36PlsDzj9IgRerHCMyKlNQo,30364,grocery_or_supermarket,,33.6158486,-84.4554606
ChIJ38AR_0sC9YgRzvoeQfknxWU,30364,grocery_or_supermarket,,33.7083006,-84.3803597
ChIJ5ylOSQ8D9YgRmeNcwOn2AsE,30364,grocery_or_supermarket,,33.7267834,-84.4018115
ChIJr_ik5T8D9YgRUHtyScyVpkI,30364,grocery_or_supermarket,,33.7364924,-84.4182372
ChIJlZJ6A7ID9YgRkG-TijaNtj0,30364,grocery_or_supermarket,,33.7189936,-84.385472
ChIJsbNRuoYD9YgRy1fhsJgldJY,30368,grocery_or_supermarket,,33.7539328,-84.390386
ChIJI00M5YgD9YgR0wAaEQ6oqZU,30368,grocery_or_supermarket,,33.7546186,-84.3836863
ChIJw2Pxp_ED9YgR76DtrNcdY6I,30368,grocery_or_supermarket,,33.7492177,-84.3678997
ChIJk3VXo2sD9YgROKC8qaLZjGY,30368,grocery_or_supermarket,,33.7408717,-84.4135485
ChIJ1d4zXGoD9YgR-NXfbZN2qOI,30368,grocery_or_supermarket,,33.739629,-84.416105
ChIJ5ylOSQ8D9YgRmeNcwOn2AsE,30368,grocery_or_supermarket,,33.7267834,-84.4018115
ChIJr_ik5T8D9YgRUHtyScyVpkI,30368,grocery_or_supermarket,,33.7364924,-84.4182372
ChIJlZJ6A7ID9YgRkG-TijaNtj0,30368,grocery_or_supermarket,,33.7189936,-84.385472
ChIJ6cBjtBAE9YgRUisH70GZTX4,30368,grocery_or_supermarket,,33.775188,-84.3658097
ChIJa-9dZxoE9YgRB5SAyPu3qoo,30368,grocery_or_supermarket,,33.7716769,-84.3633876
ChIJBb6sr5ME9YgRjtXSBOtRe1M,30368,grocery_or_supermarket,,33.7832132,-84.35467
ChIJJ66tSXEb9YgR49Ga4VUaXOI,30369,grocery_or_supermarket,,33.7777347,-84.4750829
ChIJO-GVHGMa9YgRy-XFhDi-Rgw,30369,grocery_or_supermarket,,33.8391055,-84.4821192
ChIJYbDqtHIa9YgRrQn6JFBGqHM,30369,grocery_or_supermarket,,33.842338,-84.5012053
ChIJ30JeSHsc9YgR1Wl2XUlOFw0,30369,grocery_or_supermarket,,33.7504098,-84.4858342
ChIJzWAQUrsc9YgRf2pnxnimCyQ,30369,grocery_or_supermarket,,33.7502936,-84.4536058
ChIJi7ON-aYE9YgRGHzwnQ8MyeE,30369,grocery_or_supermarket,,33.7638854,-84.4250837
ChIJu-ozPJIE9YgRneAKSWnekIc,30369,grocery_or_supermarket,,33.7768865,-84.4081811
ChIJLym-7VQE9YgRpzegAmUhAIk,30369,grocery_or_supermarket,,33.8017601,-84.4125193
ChIJg3B8U6wQ9YgRhUVnvwhANf4,30369,grocery_or_supermarket,,33.8618217,-84.5174884
ChIJDYah9HsD9YgRKoQfaN75ynw,30370,grocery_or_supermarket,,33.7535325,-84.402477
ChIJw2Pxp_ED9YgR76DtrNcdY6I,30370,grocery_or_supermarket,,33.7492177,-84.3678997
ChIJk3VXo2sD9YgROKC8qaLZjGY,30370,grocery_or_supermarket,,33.7408717,-84.4135485
ChIJraRjlwgE9YgRMQYH8zBgerE,30370,grocery_or_supermarket,,33.761427,-84.3653191
ChIJ1d4zXGoD9YgR-NXfbZN2qOI,30370,grocery_or_supermarket,,33.739629,-84.416105
ChIJr_ik5T8D9YgRUHtyScyVpkI,30370,grocery_or_supermarket,,33.7364924,-84.4182372
ChIJlZJ6A7ID9YgRkG-TijaNtj0,30370,grocery_or_supermarket,,33.7189936,-84.385472
ChIJ6cBjtBAE9YgRUisH70GZTX4,30370,grocery_or_supermarket,,33.775188,-84.3658097
ChIJa-9dZxoE9YgRB5SAyPu3qoo,30370,grocery_or_supermarket,,33.7716769,-84.3633876
ChIJ1zoUGxYE9YgRL399jlxWp6Q,30370,grocery_or_supermarket,,33.7797565,-84.3678403
ChIJZ75CEBcE9YgRzBUatdvfMdQ,30370,grocery_or_supermarket,,33.7725829,-84.3654761
ChIJWTDCsqgG9YgR-U6sWxq-qJw,30370,grocery_or_supermarket,,33.7671024,-84.3484783
ChIJreRAYvIE9YgRbsssSxcWrRs,30370,grocery_or_supermarket,,33.7842234,-84.4055378
ChIJB5Pa4PoT9YgRRZV7ENqXFlw,30370,grocery_or_supermarket,,33.9525416,-84.5104355
ChIJTfOT55389IgRMdwExIWG6Ho,30370,grocery_or_supermarket,,33.5828642,-84.4129833
ChIJae9o8gQH9YgR3uq8CQkWxPc,30370,grocery_or_supermarket,,33.7908588,-84.3052307
ChIJw2Pxp_ED9YgR76DtrNcdY6I,30371,grocery_or_supermarket,,33.7492177,-84.3678997
ChIJk3VXo2sD9YgROKC8qaLZjGY,30371,grocery_or_supermarket,,33.7408717,-84.4135485
ChIJraRjlwgE9YgRMQYH8zBgerE,30371,grocery_or_supermarket,,33.761427,-84.3653191
ChIJ1d4zXGoD9YgR-NXfbZN2qOI,30371,grocery_or_supermarket,,33.739629,-84.416105
ChIJr_ik5T8D9YgRUHtyScyVpkI,30371,grocery_or_supermarket,,33.7364924,-84.4182372
ChIJlZJ6A7ID9YgRkG-TijaNtj0,30371,grocery_or_supermarket,,33.7189936,-84.385472
ChIJ6cBjtBAE9YgRUisH70GZTX4,30371,grocery_or_supermarket,,33.775188,-84.3658097
ChIJa-9dZxoE9YgRB5SAyPu3qoo,30371,grocery_or_supermarket,,33.7716769,-84.3633876
ChIJ1zoUGxYE9YgRL399jlxWp6Q,30371,grocery_or_supermarket,,33.7797565,-84.3678403
ChIJZ75CEBcE9YgRzBUatdvfMdQ,30371,grocery_or_supermarket,,33.7725829,-84.3654761
ChIJWTDCsqgG9YgR-U6sWxq-qJw,30371,grocery_or_supermarket,,33.7671024,-84.3484783
ChIJB5Pa4PoT9YgRRZV7ENqXFlw,30371,grocery_or_supermarket,,33.9525416,-84.5104355
ChIJTfOT55389IgRMdwExIWG6Ho,30371,grocery_or_supermarket,,33.5828642,-84.4129833
ChIJPRBk2UMd9YgRlTYgwg0aplU,30371,grocery_or_supermarket,,33.6877229,-84.4547178
ChIJzdeJft8W9YgRPkxegbwskHk,30371,grocery_or_supermarket,,33.9010676,-84.4875364
ChIJsbNRuoYD9YgRy1fhsJgldJY,30374,grocery_or_supermarket,,33.7539328,-84.390386
ChIJDYah9HsD9YgRKoQfaN75ynw,30374,grocery_or_supermarket,,33.7535325,-84.402477
ChIJBfK5TIwD9YgRjvHEUfCW3pQ,30374,grocery_or_supermarket,,33.7499749,-84.3768908
ChIJw2Pxp_ED9YgR76DtrNcdY6I,30374,grocery_or_supermarket,,33.7492177,-84.3678997
ChIJr_ik5T8D9YgRUHtyScyVpkI,30374,grocery_or_supermarket,,33.7364924,-84.4182372
ChIJ1zoUGxYE9YgRL399jlxWp6Q,30374,grocery_or_supermarket,,33.7797565,-84.3678403
ChIJY67FFGED9YgRCn6XUng5x4A,30374,grocery_or_supermarket,,33.7557898,-84.4136594
ChIJk3VXo2sD9YgROKC8qaLZjGY,30374,grocery_or_supermarket,,33.7408717,-84.4135485
ChIJBb6sr5ME9YgRjtXSBOtRe1M,30374,grocery_or_supermarket,,33.7832132,-84.35467
ChIJ6cBjtBAE9YgRUisH70GZTX4,30374,grocery_or_supermarket,,33.775188,-84.3658097
ChIJbS1MyKIC9YgR_f8TS956S-M,30374,grocery_or_supermarket,,33.6809918,-84.4177651
ChIJraRjlwgE9YgRMQYH8zBgerE,30374,grocery_or_supermarket,,33.761427,-84.3653191
ChIJg0yHiCsC9YgRFquwusYb_kU,30374,grocery_or_supermarket,,33.709367,-84.3593679
ChIJu7FCnlsB9YgREOKPzeQBCE8,30375,grocery_or_supermarket,,33.7755299,-84.3751382
ChIJ6cBjtBAE9YgRUisH70GZTX4,30375,grocery_or_supermarket,,33.775188,-84.3658097
ChIJI00M5YgD9YgR0wAaEQ6oqZU,30375,grocery_or_supermarket,,33.7546186,-84.3836863
ChIJsbNRuoYD9YgRy1fhsJgldJY,30375,grocery_or_supermarket,,33.7539328,-84.390386
ChIJa-9dZxoE9YgRB5SAyPu3qoo,30375,grocery_or_supermarket,,33.7716769,-84.3633876
ChIJBb6sr5ME9YgRjtXSBOtRe1M,30375,grocery_or_supermarket,,33.7832132,-84.35467
ChIJw2Pxp_ED9YgR76DtrNcdY6I,30375,grocery_or_supermarket,,33.7492177,-84.3678997
ChIJWTDCsqgG9YgR-U6sWxq-qJw,30375,grocery_or_supermarket,,33.7671024,-84.3484783
ChIJi7ON-aYE9YgRGHzwnQ8MyeE,30375,grocery_or_supermarket,,33.7638854,-84.4250837
ChIJBb6sr5ME9YgRjtXSBOtRe1M,30377,grocery_or_supermarket,,33.7832132,-84.35467
ChIJreRAYvIE9YgRbsssSxcWrRs,30377,grocery_or_supermarket,,33.7842234,-84.4055378
ChIJLym-7VQE9YgRpzegAmUhAIk,30377,grocery_or_supermarket,,33.8017601,-84.4125193
ChIJg0Ul6VQE9YgRy-YZx9vQRbs,30377,grocery_or_supermarket,,33.800951,-84.3934681
ChIJDYah9HsD9YgRKoQfaN75ynw,30377,grocery_or_supermarket,,33.7535325,-84.402477
ChIJsbNRuoYD9YgRy1fhsJgldJY,30377,grocery_or_supermarket,,33.7539328,-84.390386
ChIJY67FFGED9YgRCn6XUng5x4A,30377,grocery_or_supermarket,,33.7557898,-84.4136594
ChIJOTP7gTEc9YgRW9NDPYouWGU,30378,grocery_or_supermarket,,33.7248442,-84.5081825
ChIJ-y7akfwY9YgRitRTp5E_JEE,30378,grocery_or_supermarket,,33.802272,-84.5687504
ChIJ30JeSHsc9YgR1Wl2XUlOFw0,30378,grocery_or_supermarket,,33.7504098,-84.4858342
ChIJqdCihBQi9YgRc8kdcy_d9So,30378,grocery_or_supermarket,,33.7897701,-84.6200494
ChIJg6NS4WMY9YgRWBM0JQ-adtI,30378,grocery_or_supermarket,,33.816366,-84.5895947
ChIJJ66tSXEb9YgR49Ga4VUaXOI,30378,grocery_or_supermarket,,33.7777347,-84.4750829
ChIJ16t1kFoi9YgRKGOmQYZ7SOE,30378,grocery_or_supermarket,,33.7977966,-84.6406722
ChIJJ4sHsEcY9YgRdLQy2xMRxz8,30378,grocery_or_supermarket,,33.8318266,-84.5767169
ChIJb9Zi0pIj9YgRnm-8Ad0pHvs,30378,grocery_or_supermarket,,33.7937794,-84.6773565
ChIJ7eeBijcY9YgR1MpSBE2ZMEk,30378,grocery_or_supermarket,,33.8352649,-84.5741483
ChIJYbDqtHIa9YgRrQn6JFBGqHM,30378,grocery_or_supermarket,,33.842338,-84.5012053
ChIJwR5ZmiYD9YgRqcB_x4nsZc8,30378,grocery_or_supermarket,,33.7207092,-84.4244978
ChIJEZoCPXH99IgREIjZU_PiL7g,30380,grocery_or_supermarket,,33.6559589,-84.4024886
ChIJL858kG_99IgRH6lNfQJdx_U,30380,grocery_or_supermarket,,33.6581893,-84.4087343
ChIJ98UKmpAC9YgRx_FrB4QSp7o,30380,grocery_or_supermarket,,33.6826787,-84.4092222
ChIJbS1MyKIC9YgR_f8TS956S-M,30380,grocery_or_supermarket,,33.6809918,-84.4177651
ChIJjyWRQv_89IgR19IjKIDXR4U,30380,grocery_or_supermarket,,33.6203728,-84.3887408
ChIJ_xPs4a_i9IgRjoN45Ue4YOg,30380,grocery_or_supermarket,,33.6608846,-84.448102
ChIJqyitFYD-9IgR1VX6v2O8vBs,30380,grocery_or_supermarket,,33.6209878,-84.3548205
ChIJbe30v-8C9YgRzZmzLGuBbk0,30380,grocery_or_supermarket,,33.7034342,-84.4100028
ChIJl6IJR9X99IgRYms_KzDMn-Y,30380,grocery_or_supermarket,,33.6241064,-84.3555405
ChIJB9i6rq_i9IgRY6cUo_oOyRk,30380,grocery_or_supermarket,,33.6632094,-84.4465815
ChIJlZJ6A7ID9YgRkG-TijaNtj0,30380,grocery_or_supermarket,,33.7189936,-84.385472
ChIJCf-swIT-9IgRD21NZKkbwhA,30380,grocery_or_supermarket,,33.612621,-84.347231
ChIJNYyG134B9YgRUJOqTz5seeQ,30380,grocery_or_supermarket,,33.7137395,-84.3502697
ChIJQ2WQ17n89IgRnqqC_BzjFhw,30380,grocery_or_supermarket,,33.6071118,-84.4442716
ChIJTfOT55389IgRMdwExIWG6Ho,30380,grocery_or_supermarket,,33.5828642,-84.4129833
ChIJsbNRuoYD9YgRy1fhsJgldJY,30384,grocery_or_supermarket,,33.7539328,-84.390386
ChIJDYah9HsD9YgRKoQfaN75ynw,30384,grocery_or_supermarket,,33.7535325,-84.402477
ChIJBfK5TIwD9YgRjvHEUfCW3pQ,30384,grocery_or_supermarket,,33.7499749,-84.3768908
ChIJw2Pxp_ED9YgR76DtrNcdY6I,30384,grocery_or_supermarket,,33.7492177,-84.3678997
ChIJY67FFGED9YgRCn6XUng5x4A,30384,grocery_or_supermarket,,33.7557898,-84.4136594
ChIJk3VXo2sD9YgROKC8qaLZjGY,30384,grocery_or_supermarket,,33.7408717,-84.4135485
ChIJraRjlwgE9YgRMQYH8zBgerE,30384,grocery_or_supermarket,,33.761427,-84.3653191
ChIJ1d4zXGoD9YgR-NXfbZN2qOI,30384,grocery_or_supermarket,,33.739629,-84.416105
ChIJr_ik5T8D9YgRUHtyScyVpkI,30384,grocery_or_supermarket,,33.7364924,-84.4182372
ChIJ5ylOSQ8D9YgRmeNcwOn2AsE,30384,grocery_or_supermarket,,33.7267834,-84.4018115
ChIJ6cBjtBAE9YgRUisH70GZTX4,30384,grocery_or_supermarket,,33.775188,-84.3658097
ChIJ1zoUGxYE9YgRL399jlxWp6Q,30384,grocery_or_supermarket,,33.7797565,-84.3678403
ChIJlZJ6A7ID9YgRkG-TijaNtj0,30384,grocery_or_supermarket,,33.7189936,-84.385472
ChIJv7Uvqpv99IgR-0OnJPO1UKU,30388,grocery_or_supermarket,,33.655176,-84.388434
ChIJL858kG_99IgRH6lNfQJdx_U,30388,grocery_or_supermarket,,33.6581893,-84.4087343
ChIJjyWRQv_89IgR3tuLbLczKD8,30388,grocery_or_supermarket,,33.6216593,-84.3928628
ChIJjyWRQv_89IgR19IjKIDXR4U,30388,grocery_or_supermarket,,33.6203728,-84.3887408
ChIJ98UKmpAC9YgRx_FrB4QSp7o,30388,grocery_or_supermarket,,33.6826787,-84.4092222
ChIJgae8QYkC9YgR5WYPBYjZlus,30388,grocery_or_supermarket,,33.6852058,-84.4000734
ChIJbS1MyKIC9YgR_f8TS956S-M,30388,grocery_or_supermarket,,33.6809918,-84.4177651
ChIJ8WwDFLji9IgRqoe9HReMKEQ,30388,grocery_or_supermarket,,33.6508607,-84.4498367
ChIJ_xPs4a_i9IgRjoN45Ue4YOg,30388,grocery_or_supermarket,,33.6608846,-84.448102
ChIJJ3Aphani9IgRE-JGr4XtgJg,30388,grocery_or_supermarket,,33.6695697,-84.4441958
ChIJB9i6rq_i9IgRY6cUo_oOyRk,30388,grocery_or_supermarket,,33.6632094,-84.4465815
ChIJhWw0HLji9IgR7rTgQCPlpZI,30388,grocery_or_supermarket,,33.6508856,-84.4498764
ChIJ8bnPUGr89IgRpeMX4J0TqLM,30388,grocery_or_supermarket,,33.5996202,-84.3783473
ChIJbSTZaiQC9YgRXIE43ThLdgY,30388,grocery_or_supermarket,,33.6970886,-84.3608444
ChIJbe30v-8C9YgRzZmzLGuBbk0,30388,grocery_or_supermarket,,33.7034342,-84.4100028
ChIJQ2WQ17n89IgR_A0pjMM13lY,30388,grocery_or_supermarket,,33.6016445,-84.4272594
ChIJcwkZisr89IgR6fVaVJeD7Xw,30388,grocery_or_supermarket,,33.6056311,-84.4357895
ChIJ38AR_0sC9YgRzvoeQfknxWU,30388,grocery_or_supermarket,,33.7083006,-84.3803597
ChIJsbNRuoYD9YgRy1fhsJgldJY,30392,grocery_or_supermarket,,33.7539328,-84.390386
ChIJI00M5YgD9YgR0wAaEQ6oqZU,30392,grocery_or_supermarket,,33.7546186,-84.3836863
ChIJDYah9HsD9YgRKoQfaN75ynw,30392,grocery_or_supermarket,,33.7535325,-84.402477
ChIJw2Pxp_ED9YgR76DtrNcdY6I,30392,grocery_or_supermarket,,33.7492177,-84.3678997
ChIJY67FFGED9YgRCn6XUng5x4A,30392,grocery_or_supermarket,,33.7557898,-84.4136594
ChIJk3VXo2sD9YgROKC8qaLZjGY,30392,grocery_or_supermarket,,33.7408717,-84.4135485
ChIJr_ik5T8D9YgRUHtyScyVpkI,30392,grocery_or_supermarket,,33.7364924,-84.4182372
ChIJwR5ZmiYD9YgRqcB_x4nsZc8,30392,grocery_or_supermarket,,33.7207092,-84.4244978
ChIJ1zoUGxYE9YgRL399jlxWp6Q,30392,grocery_or_supermarket,,33.7797565,-84.3678403
ChIJBb6sr5ME9YgRjtXSBOtRe1M,30392,grocery_or_supermarket,,33.7832132,-84.35467
ChIJ6cBjtBAE9YgRUisH70GZTX4,30392,grocery_or_supermarket,,33.775188,-84.3658097
ChIJbS1MyKIC9YgR_f8TS956S-M,30392,grocery_or_supermarket,,33.6809918,-84.4177651
ChIJraRjlwgE9YgRMQYH8zBgerE,30392,grocery_or_supermarket,,33.761427,-84.3653191
ChIJsbNRuoYD9YgRy1fhsJgldJY,30394,grocery_or_supermarket,,33.7539328,-84.390386
ChIJw2Pxp_ED9YgR76DtrNcdY6I,30394,grocery_or_supermarket,,33.7492177,-84.3678997
ChIJk3VXo2sD9YgROKC8qaLZjGY,30394,grocery_or_supermarket,,33.7408717,-84.4135485
ChIJraRjlwgE9YgRMQYH8zBgerE,30394,grocery_or_supermarket,,33.761427,-84.3653191
ChIJ1d4zXGoD9YgR-NXfbZN2qOI,30394,grocery_or_supermarket,,33.739629,-84.416105
ChIJr_ik5T8D9YgRUHtyScyVpkI,30394,grocery_or_supermarket,,33.7364924,-84.4182372
ChIJ6cBjtBAE9YgRUisH70GZTX4,30394,grocery_or_supermarket,,33.775188,-84.3658097
ChIJa-9dZxoE9YgRB5SAyPu3qoo,30394,grocery_or_supermarket,,33.7716769,-84.3633876
ChIJlZJ6A7ID9YgRkG-TijaNtj0,30394,grocery_or_supermarket,,33.7189936,-84.385472
ChIJ1zoUGxYE9YgRL399jlxWp6Q,30394,grocery_or_supermarket,,33.7797565,-84.3678403
ChIJZ75CEBcE9YgRzBUatdvfMdQ,30394,grocery_or_supermarket,,33.7725829,-84.3654761
ChIJWTDCsqgG9YgR-U6sWxq-qJw,30394,grocery_or_supermarket,,33.7671024,-84.3484783
ChIJreRAYvIE9YgRbsssSxcWrRs,30394,grocery_or_supermarket,,33.7842234,-84.4055378
ChIJv7Uvqpv99IgR-0OnJPO1UKU,30396,grocery_or_supermarket,,33.655176,-84.388434
ChIJL858kG_99IgRH6lNfQJdx_U,30396,grocery_or_supermarket,,33.6581893,-84.4087343
ChIJjyWRQv_89IgR19IjKIDXR4U,30396,grocery_or_supermarket,,33.6203728,-84.3887408
ChIJGbpHHjX89IgRlAXei38Z0Rw,30396,grocery_or_supermarket,,33.6225977,-84.3727733
ChIJ98UKmpAC9YgRx_FrB4QSp7o,30396,grocery_or_supermarket,,33.6826787,-84.4092222
ChIJgae8QYkC9YgR5WYPBYjZlus,30396,grocery_or_supermarket,,33.6852058,-84.4000734
ChIJbS1MyKIC9YgR_f8TS956S-M,30396,grocery_or_supermarket,,33.6809918,-84.4177651
ChIJqyitFYD-9IgR1VX6v2O8vBs,30396,grocery_or_supermarket,,33.6209878,-84.3548205
ChIJJ3Aphani9IgRE-JGr4XtgJg,30396,grocery_or_supermarket,,33.6695697,-84.4441958
ChIJ_xPs4a_i9IgRjoN45Ue4YOg,30396,grocery_or_supermarket,,33.6608846,-84.448102
ChIJ8WwDFLji9IgRqoe9HReMKEQ,30396,grocery_or_supermarket,,33.6508607,-84.4498367
ChIJhWw0HLji9IgR7rTgQCPlpZI,30396,grocery_or_supermarket,,33.6508856,-84.4498764
ChIJ8bnPUGr89IgRpeMX4J0TqLM,30396,grocery_or_supermarket,,33.5996202,-84.3783473
ChIJbSTZaiQC9YgRXIE43ThLdgY,30396,grocery_or_supermarket,,33.6970886,-84.3608444
ChIJbe30v-8C9YgRzZmzLGuBbk0,30396,grocery_or_supermarket,,33.7034342,-84.4100028
ChIJQ2WQ17n89IgR_A0pjMM13lY,30396,grocery_or_supermarket,,33.6016445,-84.4272594
ChIJcwkZisr89IgR6fVaVJeD7Xw,30396,grocery_or_supermarket,,33.6056311,-84.4357895
ChIJ38AR_0sC9YgRzvoeQfknxWU,30396,grocery_or_supermarket,,33.7083006,-84.3803597
ChIJsbNRuoYD9YgRy1fhsJgldJY,30398,grocery_or_supermarket,,33.7539328,-84.390386
ChIJI00M5YgD9YgR0wAaEQ6oqZU,30398,grocery_or_supermarket,,33.7546186,-84.3836863
ChIJw2Pxp_ED9YgR76DtrNcdY6I,30398,grocery_or_supermarket,,33.7492177,-84.3678997
ChIJk3VXo2sD9YgROKC8qaLZjGY,30398,grocery_or_supermarket,,33.7408717,-84.4135485
ChIJ1d4zXGoD9YgR-NXfbZN2qOI,30398,grocery_or_supermarket,,33.739629,-84.416105
ChIJ5ylOSQ8D9YgRmeNcwOn2AsE,30398,grocery_or_supermarket,,33.7267834,-84.4018115
ChIJr_ik5T8D9YgRUHtyScyVpkI,30398,grocery_or_supermarket,,33.7364924,-84.4182372
ChIJlZJ6A7ID9YgRkG-TijaNtj0,30398,grocery_or_supermarket,,33.7189936,-84.385472
ChIJ6cBjtBAE9YgRUisH70GZTX4,30398,grocery_or_supermarket,,33.775188,-84.3658097
ChIJi7ON-aYE9YgRGHzwnQ8MyeE,30398,grocery_or_supermarket,,33.7638854,-84.4250837
ChIJa-9dZxoE9YgRB5SAyPu3qoo,30398,grocery_or_supermarket,,33.7716769,-84.3633876
ChIJsbNRuoYD9YgRy1fhsJgldJY,31106,grocery_or_supermarket,,33.7539328,-84.390386
ChIJI00M5YgD9YgR0wAaEQ6oqZU,31106,grocery_or_supermarket,,33.7546186,-84.3836863
ChIJBfK5TIwD9YgRjvHEUfCW3pQ,31106,grocery_or_supermarket,,33.7499749,-84.3768908
ChIJw2Pxp_ED9YgR76DtrNcdY6I,31106,grocery_or_supermarket,,33.7492177,-84.3678997
ChIJk3VXo2sD9YgROKC8qaLZjGY,31106,grocery_or_supermarket,,33.7408717,-84.4135485
ChIJ1d4zXGoD9YgR-NXfbZN2qOI,31106,grocery_or_supermarket,,33.739629,-84.416105
ChIJ5ylOSQ8D9YgRmeNcwOn2AsE,31106,grocery_or_supermarket,,33.7267834,-84.4018115
ChIJr_ik5T8D9YgRUHtyScyVpkI,31106,grocery_or_supermarket,,33.7364924,-84.4182372
ChIJlZJ6A7ID9YgRkG-TijaNtj0,31106,grocery_or_supermarket,,33.7189936,-84.385472
ChIJ6cBjtBAE9YgRUisH70GZTX4,31106,grocery_or_supermarket,,33.775188,-84.3658097
ChIJi7ON-aYE9YgRGHzwnQ8MyeE,31106,grocery_or_supermarket,,33.7638854,-84.4250837
ChIJBb6sr5ME9YgRjtXSBOtRe1M,31106,grocery_or_supermarket,,33.7832132,-84.35467
ChIJsbNRuoYD9YgRy1fhsJgldJY,31107,grocery_or_supermarket,,33.7539328,-84.390386
ChIJI00M5YgD9YgR0wAaEQ6oqZU,31107,grocery_or_supermarket,,33.7546186,-84.3836863
ChIJw2Pxp_ED9YgR76DtrNcdY6I,31107,grocery_or_supermarket,,33.7492177,-84.3678997
ChIJk3VXo2sD9YgROKC8qaLZjGY,31107,grocery_or_supermarket,,33.7408717,-84.4135485
ChIJ1d4zXGoD9YgR-NXfbZN2qOI,31107,grocery_or_supermarket,,33.739629,-84.416105
ChIJ5ylOSQ8D9YgRmeNcwOn2AsE,31107,grocery_or_supermarket,,33.7267834,-84.4018115
ChIJr_ik5T8D9YgRUHtyScyVpkI,31107,grocery_or_supermarket,,33.7364924,-84.4182372
ChIJlZJ6A7ID9YgRkG-TijaNtj0,31107,grocery_or_supermarket,,33.7189936,-84.385472
ChIJ6cBjtBAE9YgRUisH70GZTX4,31107,grocery_or_supermarket,,33.775188,-84.3658097
ChIJi7ON-aYE9YgRGHzwnQ8MyeE,31107,grocery_or_supermarket,,33.7638854,-84.4250837
ChIJa-9dZxoE9YgRB5SAyPu3qoo,31107,grocery_or_supermarket,,33.7716769,-84.3633876
ChIJt3HwQvUF9YgRxBRc6csptew,31126,grocery_or_supermarket,,33.84552,-84.3745814
ChIJAz1IDPgF9YgRzn9e4HDqFEI,31126,grocery_or_supermarket,,33.8459141,-84.3621872
ChIJH6wyD1MP9YgRseDZrRZWK6E,31126,grocery_or_supermarket,,33.840941,-84.374955
ChIJ83So4a8I9YgR93PnInUyxd8,31126,grocery_or_supermarket,,33.856402,-84.3450209
ChIJQySAuI4F9YgRj3NAqVrX5js,31126,grocery_or_supermarket,,33.8408911,-84.381743
ChIJA2Nd5SYG9YgRh9RbU5P_AQA,31126,grocery_or_supermarket,,33.8412109,-84.325894
ChIJE7j3VREP9YgRiel1VuYEVZk,31126,grocery_or_supermarket,,33.8744413,-84.3798848
ChIJmV7R-BUG9YgR_ZTjYIP2M2k,31126,grocery_or_supermarket,,33.827982,-84.333309
ChIJB5Pa4PoT9YgRRZV7ENqXFlw,31126,grocery_or_supermarket,,33.9525416,-84.5104355
ChIJRxNxqqqj9YgRXFBKg025kEc,31126,grocery_or_supermarket,,33.9696567,-84.1429564
ChIJJZMSYfsT9YgRqd68ONpGUWc,31126,grocery_or_supermarket,,33.9479065,-84.5132416
ChIJzdeJft8W9YgRPkxegbwskHk,31126,grocery_or_supermarket,,33.9010676,-84.4875364
ChIJNRN-NJod9YgREuUFVEVZO2Q,31131,grocery_or_supermarket,,33.6868182,-84.4876634
ChIJOTP7gTEc9YgRW9NDPYouWGU,31131,grocery_or_supermarket,,33.7248442,-84.5081825
ChIJPRBk2UMd9YgRlTYgwg0aplU,31131,grocery_or_supermarket,,33.6877229,-84.4547178
ChIJTfOT55389IgRMdwExIWG6Ho,31131,grocery_or_supermarket,,33.5828642,-84.4129833
ChIJB5Pa4PoT9YgRRZV7ENqXFlw,31131,grocery_or_supermarket,,33.9525416,-84.5104355
ChIJ03mBjoIH9YgRmlvPFl07b60,31131,grocery_or_supermarket,,33.7986531,-84.2794785
ChIJr_ik5T8D9YgRUHtyScyVpkI,31131,grocery_or_supermarket,,33.7364924,-84.4182372
ChIJzdeJft8W9YgRPkxegbwskHk,31131,grocery_or_supermarket,,33.9010676,-84.4875364
ChIJcZ6oOt0T9YgR7e39d_eo9_k,31131,grocery_or_supermarket,,33.9507837,-84.4988838
ChIJq4vrxncH9YgR_zZpw8O_RZE,31131,grocery_or_supermarket,,33.7976687,-84.2806728
ChIJw2Pxp_ED9YgR76DtrNcdY6I,31131,grocery_or_supermarket,,33.7492177,-84.3678997
ChIJ7aGOqH8A9YgR8wB4ji-wl1E,31131,grocery_or_supermarket,,33.7087086,-84.2744593
ChIJC00f3PcQ9YgRp9dfseHig1Y,31139,grocery_or_supermarket,,33.883624,-84.4805916
ChIJKdr1hHAa9YgR4qda4WUzo3A,31139,grocery_or_supermarket,,33.8442228,-84.4910563
ChIJzdeJft8W9YgRPkxegbwskHk,31139,grocery_or_supermarket,,33.9010676,-84.4875364
ChIJO-GVHGMa9YgRy-XFhDi-Rgw,31139,grocery_or_supermarket,,33.8391055,-84.4821192
ChIJicJ1MNwQ9YgRmXhxnhegdJ8,31139,grocery_or_supermarket,,33.8909654,-84.5039525
ChIJ9QKGsxoR9YgR1r-OaVkPXxM,31139,grocery_or_supermarket,,33.9072017,-84.4892502
ChIJYbDqtHIa9YgRrQn6JFBGqHM,31139,grocery_or_supermarket,,33.842338,-84.5012053
ChIJs31HEpcR9YgR0RbJGogJ22U,31139,grocery_or_supermarket,,33.9213896,-84.4682872
ChIJAdg0n0kX9YgR-dQnX0rfwcI,31139,grocery_or_supermarket,,33.875039,-84.533672
ChIJ3eTuo28R9YgR2qLNW0IS_mU,31139,grocery_or_supermarket,,33.9277873,-84.4929775
ChIJ0Q0YUFKe-4gRRbo7eiOCQFU,31150,grocery_or_supermarket,,32.1866303,-82.5653193
ChIJV4dewpkO9YgRg240W67FCMw,31156,grocery_or_supermarket,,33.926269,-84.378101
ChIJ6yymv18J9YgR58jT-QzWXmE,31156,grocery_or_supermarket,,33.9321441,-84.3322921
ChIJRzp7a5QO9YgRTeyoOkbsYwc,31156,grocery_or_supermarket,,33.9176936,-84.3797966
ChIJ7XDbQ58N9YgRgpArzkRWK9E,31156,grocery_or_supermarket,,33.9770652,-84.4192755
ChIJ3fBfiOwO9YgReOnzvA12uVM,31156,grocery_or_supermarket,,33.9113507,-84.3812855
ChIJoUaYd8MN9YgRSXtpOosAVso,31156,grocery_or_supermarket,,33.9507958,-84.4139645
ChIJAevjlXcN9YgRS-CC5KoEg-4,31156,grocery_or_supermarket,,33.984536,-84.426736
ChIJrZOGs4IN9YgRmP3swWLpEKk,31156,grocery_or_supermarket,,33.981788,-84.427945
ChIJ_U49CZ0N9YgRVZQjqhJQx14,31156,grocery_or_supermarket,,33.9809539,-84.42795
ChIJx79nxb3m9IgRHVI0Ge5U6JA,31192,grocery_or_supermarket,,33.5657464,-84.5368063
ChIJY9rgCW7g9IgRIse7ALVOApM,31192,grocery_or_supermarket,,33.6505837,-84.5941965
ChIJ8WwDFLji9IgRqoe9HReMKEQ,31192,grocery_or_supermarket,,33.6508607,-84.4498367
ChIJhWw0HLji9IgR7rTgQCPlpZI,31192,grocery_or_supermarket,,33.6508856,-84.4498764
ChIJ_xPs4a_i9IgRjoN45Ue4YOg,31192,grocery_or_supermarket,,33.6608846,-84.448102
ChIJcwkZisr89IgR6fVaVJeD7Xw,31192,grocery_or_supermarket,,33.6056311,-84.4357895
ChIJQ2WQ17n89IgR_A0pjMM13lY,31192,grocery_or_supermarket,,33.6016445,-84.4272594
ChIJTfOT55389IgRMdwExIWG6Ho,31192,grocery_or_supermarket,,33.5828642,-84.4129833
ChIJOTP7gTEc9YgRW9NDPYouWGU,31192,grocery_or_supermarket,,33.7248442,-84.5081825
ChIJL858kG_99IgRH6lNfQJdx_U,31192,grocery_or_supermarket,,33.6581893,-84.4087343
ChIJv7Uvqpv99IgR-0OnJPO1UKU,31193,grocery_or_supermarket,,33.655176,-84.388434
ChIJL858kG_99IgRH6lNfQJdx_U,31193,grocery_or_supermarket,,33.6581893,-84.4087343
ChIJgae8QYkC9YgR5WYPBYjZlus,31193,grocery_or_supermarket,,33.6852058,-84.4000734
ChIJ98UKmpAC9YgRx_FrB4QSp7o,31193,grocery_or_supermarket,,33.6826787,-84.4092222
ChIJbS1MyKIC9YgR_f8TS956S-M,31193,grocery_or_supermarket,,33.6809918,-84.4177651
ChIJjyWRQv_89IgR19IjKIDXR4U,31193,grocery_or_supermarket,,33.6203728,-84.3887408
ChIJbSTZaiQC9YgRXIE43ThLdgY,31193,grocery_or_supermarket,,33.6970886,-84.3608444
ChIJJ3Aphani9IgRE-JGr4XtgJg,31193,grocery_or_supermarket,,33.6695697,-84.4441958
ChIJbe30v-8C9YgRzZmzLGuBbk0,31193,grocery_or_supermarket,,33.7034342,-84.4100028
ChIJB9i6rq_i9IgRY6cUo_oOyRk,31193,grocery_or_supermarket,,33.6632094,-84.4465815
ChIJ_xPs4a_i9IgRjoN45Ue4YOg,31193,grocery_or_supermarket,,33.6608846,-84.448102
ChIJ38AR_0sC9YgRzvoeQfknxWU,31193,grocery_or_supermarket,,33.7083006,-84.3803597
ChIJ8WwDFLji9IgRqoe9HReMKEQ,31193,grocery_or_supermarket,,33.6508607,-84.4498367
ChIJhWw0HLji9IgR7rTgQCPlpZI,31193,grocery_or_supermarket,,33.6508856,-84.4498764
ChIJg0yHiCsC9YgRFquwusYb_kU,31193,grocery_or_supermarket,,33.709367,-84.3593679
ChIJlZJ6A7ID9YgRkG-TijaNtj0,31193,grocery_or_supermarket,,33.7189936,-84.385472
ChIJjSeY-hwD9YgRfsiMrIc8tPo,31193,grocery_or_supermarket,,33.7183641,-84.4082864
ChIJ8bnPUGr89IgRpeMX4J0TqLM,31193,grocery_or_supermarket,,33.5996202,-84.3783473
ChIJsbNRuoYD9YgRy1fhsJgldJY,31195,grocery_or_supermarket,,33.7539328,-84.390386
ChIJw2Pxp_ED9YgR76DtrNcdY6I,31195,grocery_or_supermarket,,33.7492177,-84.3678997
ChIJk3VXo2sD9YgROKC8qaLZjGY,31195,grocery_or_supermarket,,33.7408717,-84.4135485
ChIJraRjlwgE9YgRMQYH8zBgerE,31195,grocery_or_supermarket,,33.761427,-84.3653191
ChIJ1d4zXGoD9YgR-NXfbZN2qOI,31195,grocery_or_supermarket,,33.739629,-84.416105
ChIJr_ik5T8D9YgRUHtyScyVpkI,31195,grocery_or_supermarket,,33.7364924,-84.4182372
ChIJlZJ6A7ID9YgRkG-TijaNtj0,31195,grocery_or_supermarket,,33.7189936,-84.385472
ChIJ6cBjtBAE9YgRUisH70GZTX4,31195,grocery_or_supermarket,,33.775188,-84.3658097
ChIJa-9dZxoE9YgRB5SAyPu3qoo,31195,grocery_or_supermarket,,33.7716769,-84.3633876
ChIJ1zoUGxYE9YgRL399jlxWp6Q,31195,grocery_or_supermarket,,33.7797565,-84.3678403
ChIJZ75CEBcE9YgRzBUatdvfMdQ,31195,grocery_or_supermarket,,33.7725829,-84.3654761
ChIJWTDCsqgG9YgR-U6sWxq-qJw,31195,grocery_or_supermarket,,33.7671024,-84.3484783
ChIJreRAYvIE9YgRbsssSxcWrRs,31195,grocery_or_supermarket,,33.7842234,-84.4055378
ChIJI_FfY3wB9YgR1H6p_aAy8M0,31195,grocery_or_supermarket,,33.7201102,-84.3504739
ChIJsbNRuoYD9YgRy1fhsJgldJY,31196,grocery_or_supermarket,,33.7539328,-84.390386
ChIJI00M5YgD9YgR0wAaEQ6oqZU,31196,grocery_or_supermarket,,33.7546186,-84.3836863
ChIJDYah9HsD9YgRKoQfaN75ynw,31196,grocery_or_supermarket,,33.7535325,-84.402477
ChIJBfK5TIwD9YgRjvHEUfCW3pQ,31196,grocery_or_supermarket,,33.7499749,-84.3768908
ChIJw2Pxp_ED9YgR76DtrNcdY6I,31196,grocery_or_supermarket,,33.7492177,-84.3678997
ChIJwR5ZmiYD9YgRqcB_x4nsZc8,31196,grocery_or_supermarket,,33.7207092,-84.4244978
ChIJr_ik5T8D9YgRUHtyScyVpkI,31196,grocery_or_supermarket,,33.7364924,-84.4182372
ChIJ1zoUGxYE9YgRL399jlxWp6Q,31196,grocery_or_supermarket,,33.7797565,-84.3678403
ChIJBb6sr5ME9YgRjtXSBOtRe1M,31196,grocery_or_supermarket,,33.7832132,-84.35467
ChIJ6cBjtBAE9YgRUisH70GZTX4,31196,grocery_or_supermarket,,33.775188,-84.3658097
ChIJbS1MyKIC9YgR_f8TS956S-M,31196,grocery_or_supermarket,,33.6809918,-84.4177651
ChIJk3VXo2sD9YgROKC8qaLZjGY,31196,grocery_or_supermarket,,33.7408717,-84.4135485
ChIJg0yHiCsC9YgRFquwusYb_kU,31196,grocery_or_supermarket,,33.709367,-84.3593679
ChIJsbNRuoYD9YgRy1fhsJgldJY,30302,grocery_or_supermarket,,33.7539328,-84.390386
ChIJPRBk2UMd9YgRlTYgwg0aplU,30302,grocery_or_supermarket,,33.6877229,-84.4547178
ChIJicJyxI_99IgRxfezVLLed-E,30304,grocery_or_supermarket,,33.658954,-84.384068
ChIJTdU_aYP99IgRPbtb5c7AfuI,30304,grocery_or_supermarket,,33.6597091,-84.3935557
ChIJhWw0HLji9IgR7rTgQCPlpZI,30304,grocery_or_supermarket,,33.6508856,-84.4498764
ChIJBb6sr5ME9YgRjtXSBOtRe1M,30306,grocery_or_supermarket,,33.7832132,-84.35467
ChIJCQfrG2EG9YgRk-OyqR3iIBg,30306,grocery_or_supermarket,,33.8041851,-84.3363293
ChIJ1zoUGxYE9YgRL399jlxWp6Q,30306,grocery_or_supermarket,,33.7797565,-84.3678403
ChIJ6cBjtBAE9YgRUisH70GZTX4,30306,grocery_or_supermarket,,33.775188,-84.3658097
ChIJWTDCsqgG9YgR-U6sWxq-qJw,30306,grocery_or_supermarket,,33.7671024,-84.3484783
ChIJa-9dZxoE9YgRB5SAyPu3qoo,30306,grocery_or_supermarket,,33.7716769,-84.3633876
ChIJ4dTfQl8G9YgR-Gew40Ad8qk,30306,grocery_or_supermarket,,33.8005048,-84.3257339
ChIJ10zeHTUE9YgR0gO0QptFsIQ,30306,grocery_or_supermarket,,33.800517,-84.372989
ChIJKznvTVMB9YgRWFYyoZFkjyk,30306,grocery_or_supermarket,,33.7560452,-84.3480857
ChIJr0U0BUIG9YgRq4StqIACTu8,30306,grocery_or_supermarket,,33.8158203,-84.333212
ChIJTbyh5GYH9YgRQYETAM4CrjI,30307,grocery_or_supermarket,,33.778818,-84.277182
ChIJreRAYvIE9YgRbsssSxcWrRs,30309,grocery_or_supermarket,,33.7842234,-84.4055378
ChIJk3VXo2sD9YgROKC8qaLZjGY,30312,grocery_or_supermarket,,33.7408717,-84.4135485
ChIJlZJ6A7ID9YgRkG-TijaNtj0,30312,grocery_or_supermarket,,33.7189936,-84.385472
ChIJ1d4zXGoD9YgR-NXfbZN2qOI,30314,grocery_or_supermarket,,33.739629,-84.416105
ChIJlZJ6A7ID9YgRkG-TijaNtj0,30321,grocery_or_supermarket,,33.7189936,-84.385472
ChIJa-9dZxoE9YgRB5SAyPu3qoo,30324,grocery_or_supermarket,,33.7716769,-84.3633876
ChIJ1XkZlusO9YgR-fEnXcILd20,30328,grocery_or_supermarket,,33.9102168,-84.3792036
ChIJ0_vRNf8b9YgRNWm9nBCAjjI,30336,grocery_or_supermarket,,33.7661832,-84.5173617
ChIJiUb9RuEe9YgRCrM0wzDGkDs,30336,grocery_or_supermarket,,33.7395179,-84.559764
ChIJ8WwDFLji9IgRqoe9HReMKEQ,30344,grocery_or_supermarket,,33.6508607,-84.4498367
ChIJgUobCJzi9IgRd9B0FVCwFOo,30344,grocery_or_supermarket,,33.6665998,-84.4651266
ChIJt4hKcKR09YgROWUYm2e7ibM,30350,grocery_or_supermarket,,34.0395846,-84.3475093
ChIJY67FFGED9YgRCn6XUng5x4A,30353,grocery_or_supermarket,,33.7557898,-84.4136594
ChIJ1d4zXGoD9YgR-NXfbZN2qOI,30353,grocery_or_supermarket,,33.739629,-84.416105
ChIJ5ylOSQ8D9YgRmeNcwOn2AsE,30353,grocery_or_supermarket,,33.7267834,-84.4018115
ChIJlZJ6A7ID9YgRkG-TijaNtj0,30353,grocery_or_supermarket,,33.7189936,-84.385472
ChIJu7FCnlsB9YgREOKPzeQBCE8,30353,grocery_or_supermarket,,33.7755299,-84.3751382
ChIJu7FCnlsB9YgREOKPzeQBCE8,30357,grocery_or_supermarket,,33.7755299,-84.3751382
ChIJreRAYvIE9YgRbsssSxcWrRs,30363,grocery_or_supermarket,,33.7842234,-84.4055378
ChIJg0Ul6VQE9YgRy-YZx9vQRbs,30363,grocery_or_supermarket,,33.800951,-84.3934681
ChIJLym-7VQE9YgRpzegAmUhAIk,30363,grocery_or_supermarket,,33.8017601,-84.4125193
ChIJBb6sr5ME9YgRjtXSBOtRe1M,30363,grocery_or_supermarket,,33.7832132,-84.35467
ChIJN_zP3agF9YgRK-ptZFY1yYk,30363,grocery_or_supermarket,,33.8119915,-84.3913963
ChIJ1zoUGxYE9YgRL399jlxWp6Q,30363,grocery_or_supermarket,,33.7797565,-84.3678403
ChIJae9o8gQH9YgR3uq8CQkWxPc,30363,grocery_or_supermarket,,33.7908588,-84.3052307
ChIJ03mBjoIH9YgRmlvPFl07b60,30363,grocery_or_supermarket,,33.7986531,-84.2794785
ChIJJ3Aphani9IgRE-JGr4XtgJg,30364,grocery_or_supermarket,,33.6695697,-84.4441958
ChIJi7ON-aYE9YgRGHzwnQ8MyeE,30368,grocery_or_supermarket,,33.7638854,-84.4250837
ChIJKdr1hHAa9YgR4qda4WUzo3A,30369,grocery_or_supermarket,,33.8442228,-84.4910563
ChIJzdeJft8W9YgRPkxegbwskHk,30369,grocery_or_supermarket,,33.9010676,-84.4875364
ChIJBb6sr5ME9YgRjtXSBOtRe1M,30370,grocery_or_supermarket,,33.7832132,-84.35467
ChIJreRAYvIE9YgRbsssSxcWrRs,30371,grocery_or_supermarket,,33.7842234,-84.4055378
ChIJI_FfY3wB9YgR1H6p_aAy8M0,30371,grocery_or_supermarket,,33.7201102,-84.3504739
ChIJKznvTVMB9YgRWFYyoZFkjyk,30371,grocery_or_supermarket,,33.7560452,-84.3480857
ChIJI00M5YgD9YgR0wAaEQ6oqZU,30374,grocery_or_supermarket,,33.7546186,-84.3836863
ChIJwR5ZmiYD9YgRqcB_x4nsZc8,30374,grocery_or_supermarket,,33.7207092,-84.4244978
ChIJu-ozPJIE9YgRneAKSWnekIc,30375,grocery_or_supermarket,,33.7768865,-84.4081811
ChIJNRN-NJod9YgREuUFVEVZO2Q,30378,grocery_or_supermarket,,33.6868182,-84.4876634
ChIJgae8QYkC9YgR5WYPBYjZlus,30380,grocery_or_supermarket,,33.6852058,-84.4000734
ChIJ8WwDFLji9IgRqoe9HReMKEQ,30380,grocery_or_supermarket,,33.6508607,-84.4498367
ChIJBb6sr5ME9YgRjtXSBOtRe1M,30384,grocery_or_supermarket,,33.7832132,-84.35467
ChIJPcHsio0O9YgRLc_tHpPH1B0,30388,grocery_or_supermarket,,33.6233753,-84.3965073
ChIJAbesjs7i9IgRGpMzEw5QAxg,30388,grocery_or_supermarket,,33.640809,-84.4448347
ChIJKznvTVMB9YgRWFYyoZFkjyk,30394,grocery_or_supermarket,,33.7560452,-84.3480857
ChIJI_FfY3wB9YgR1H6p_aAy8M0,30394,grocery_or_supermarket,,33.7201102,-84.3504739
ChIJrT9qfXwB9YgRSp708zlc_oQ,30394,grocery_or_supermarket,,33.7201146,-84.3504467
ChIJEyH3XHwB9YgRKo6ZdDBJjlI,30394,grocery_or_supermarket,,33.7200866,-84.3504975
ChIJjyWRQv_89IgR3tuLbLczKD8,30396,grocery_or_supermarket,,33.6216593,-84.3928628
ChIJB9i6rq_i9IgRY6cUo_oOyRk,30396,grocery_or_supermarket,,33.6632094,-84.4465815
ChIJ36PlsDzj9IgRerHCMyKlNQo,30396,grocery_or_supermarket,,33.6158486,-84.4554606
ChIJBb6sr5ME9YgRjtXSBOtRe1M,30398,grocery_or_supermarket,,33.7832132,-84.35467
ChIJu-ozPJIE9YgRneAKSWnekIc,31107,grocery_or_supermarket,,33.7768865,-84.4081811
ChIJF1Bdx5_i9IgRTn4Vb2KDm4M,31131,grocery_or_supermarket,,33.670228,-84.4610834
ChIJJRSiMjwd9YgR__M2a4dO6Gw,31131,grocery_or_supermarket,,33.7010416,-84.4565605
ChIJae9o8gQH9YgR3uq8CQkWxPc,31131,grocery_or_supermarket,,33.7908588,-84.3052307
ChIJJZMSYfsT9YgRqd68ONpGUWc,31131,grocery_or_supermarket,,33.9479065,-84.5132416
ChIJOTP7gTEc9YgRW9NDPYouWGU,31136,grocery_or_supermarket,,33.7248442,-84.5081825
ChIJWbZxWkci9YgRnNf8yeQj06g,31136,grocery_or_supermarket,,33.7923422,-84.6328331
ChIJqdCihBQi9YgRc8kdcy_d9So,31136,grocery_or_supermarket,,33.7897701,-84.6200494
ChIJ30JeSHsc9YgR1Wl2XUlOFw0,31136,grocery_or_supermarket,,33.7504098,-84.4858342
ChIJ16t1kFoi9YgRKGOmQYZ7SOE,31136,grocery_or_supermarket,,33.7977966,-84.6406722
ChIJnTdCYmEY9YgRuZmBhM8aY_o,31136,grocery_or_supermarket,,33.8153514,-84.5904509
ChIJf0XhHPEQ9YgRS0ftb-9Bvdo,31139,grocery_or_supermarket,,33.8822287,-84.4876042
ChIJE7j3VREP9YgRiel1VuYEVZk,31139,grocery_or_supermarket,,33.8744413,-84.3798848
ChIJn9v1g4EN9YgRE2T9yjnIM9Y,31156,grocery_or_supermarket,,33.9818895,-84.4318467
ChIJywh7BXQN9YgRBws9v51xUWc,31156,grocery_or_supermarket,,33.9890313,-84.4227796
ChIJs5HNnUgK9YgRy9ZPB3lwNPE,31156,grocery_or_supermarket,,33.9587927,-84.3019631
ChIJq54QjkgK9YgRL-0WnUnARR8,31156,grocery_or_supermarket,,33.9582912,-84.3040525
ChIJqyitFYD-9IgR1VX6v2O8vBs,31193,grocery_or_supermarket,,33.6209878,-84.3548205
ChIJwR5ZmiYD9YgRqcB_x4nsZc8,31193,grocery_or_supermarket,,33.7207092,-84.4244978
ChIJQ2WQ17n89IgR_A0pjMM13lY,31193,grocery_or_supermarket,,33.6016445,-84.4272594
ChIJcwkZisr89IgR6fVaVJeD7Xw,31193,grocery_or_supermarket,,33.6056311,-84.4357895
ChIJKznvTVMB9YgRWFYyoZFkjyk,31195,grocery_or_supermarket,,33.7560452,-84.3480857
ChIJicJyxI_99IgRxfezVLLed-E,30380,grocery_or_supermarket,,33.658954,-84.384068
ChIJg0yHiCsC9YgRFquwusYb_kU,30380,grocery_or_supermarket,,33.709367,-84.3593679
ChIJwR5ZmiYD9YgRqcB_x4nsZc8,30380,grocery_or_supermarket,,33.7207092,-84.4244978
ChIJK0dEFvQE9YgR9QyxhU3-DsU,30375,grocery_or_supermarket,,33.7859132,-84.4002382
ChIJ10zeHTUE9YgR0gO0QptFsIQ,30375,grocery_or_supermarket,,33.800517,-84.372989
ChIJs_odr7jc9IgRyXO2hijdSXQ,30268,grocery_or_supermarket,,33.5194694,-84.6692873
ChIJ9cLhz9fa9IgRee55e752PnA,30268,grocery_or_supermarket,,33.5172738,-84.7338313
ChIJ36PlsDzj9IgRdgILp2AmKRQ,30337,grocery_or_supermarket,,33.6158605,-84.4556698
ChIJ3eTuo28R9YgR2qLNW0IS_mU,30339,grocery_or_supermarket,,33.9277873,-84.4929775
ChIJYaUOQACi9YgRYfXV8v0OfuA,30097,grocery_or_supermarket,,34.0129983,-84.1835128
ChIJdyqXHc-Y9YgRdKH-xfKpMQc,30097,grocery_or_supermarket,,34.0446675,-84.1782587
ChIJNRMXxA-i9YgRnDMQMK3r_1M,30097,grocery_or_supermarket,,34.0057921,-84.1730573
ChIJq_oLNmKi9YgRt5qlTcGEA60,30097,grocery_or_supermarket,,33.9988026,-84.145804
ChIJPXds5J-Y9YgRkrNfRNYSBBs,30097,grocery_or_supermarket,,34.015402,-84.163723
ChIJy6oG5hOi9YgRP6GIXlY3tBM,30097,grocery_or_supermarket,,33.9996569,-84.1692521
ChIJORC1wzyZ9YgRqG0raZOQoj8,30097,grocery_or_supermarket,,34.070253,-84.170786
ChIJO8mizhWZ9YgRDkJCMWA2NP0,30097,grocery_or_supermarket,,34.0773392,-84.1622567
ChIJGUXFcnuY9YgRpbrD-uZywjs,30097,grocery_or_supermarket,,34.0226147,-84.1369617
ChIJGUXFcnuY9YgRwdoW5o4bolI,30097,grocery_or_supermarket,,34.0212196,-84.1203457
ChIJP8w3e4qX9YgR5vpkAMLRzWQ,30097,grocery_or_supermarket,,34.0372588,-84.0997188
ChIJMRmqRdCY9YgRyRcROdHCLtU,30097,grocery_or_supermarket,,34.0508309,-84.1769967
ChIJAyUt7CKZ9YgRXYAxMRefAc8,30097,grocery_or_supermarket,,34.069535,-84.16593
ChIJ50e-RLuh9YgRNPUPt4T7N4M,30097,grocery_or_supermarket,,33.985608,-84.214066
ChIJMxipgUW99YgRdnh2z8OdcZQ,30097,grocery_or_supermarket,,33.9980721,-84.0898968
ChIJNRN-NJod9YgREuUFVEVZO2Q,30364,grocery_or_supermarket,,33.6868182,-84.4876634
ChIJjSeY-hwD9YgRfsiMrIc8tPo,30364,grocery_or_supermarket,,33.7183641,-84.4082864
ChIJ7ybhrrDn9IgRQY0NskKqJXw,30213,grocery_or_supermarket,,33.527243,-84.575123
ChIJNytCfBXn9IgR7yjETU8diZk,30213,grocery_or_supermarket,,33.5661833,-84.5825532
ChIJuQwusT3n9IgRG_mco4WS_34,30213,grocery_or_supermarket,,33.5684754,-84.5798072
ChIJzRt4XxLn9IgRpiDeskJBRRM,30213,grocery_or_supermarket,,33.5569216,-84.582514
ChIJmyz4Jbbj9IgRshAuZ21acSU,30213,grocery_or_supermarket,,33.6232195,-84.5012779
ChIJPRBk2UMd9YgRlTYgwg0aplU,30213,grocery_or_supermarket,,33.6877229,-84.4547178
ChIJ32m4EGsD9YgRJuVh3NrSNwg,30310,grocery_or_supermarket,,33.7392452,-84.4138994
ChIJWxlqPxsD9YgRe5Fmlyu8cX8,30310,grocery_or_supermarket,,33.7219045,-84.4076314
ChIJuxCh0yED9YgRQYnc8B0B5f8,30310,grocery_or_supermarket,,33.718035,-84.417685
ChIJWTDCsqgG9YgR-U6sWxq-qJw,30354,grocery_or_supermarket,,33.7671024,-84.3484783
ChIJgYuQHbYG9YgRkCRneKN6ySs,30306,grocery_or_supermarket,,33.7625692,-84.3332728
ChIJmyz4Jbbj9IgRshAuZ21acSU,30272,grocery_or_supermarket,,33.6232195,-84.5012779
ChIJ36PlsDzj9IgRerHCMyKlNQo,30272,grocery_or_supermarket,,33.6158486,-84.4554606
ChIJ8WwDFLji9IgRqoe9HReMKEQ,30272,grocery_or_supermarket,,33.6508607,-84.4498367
ChIJhWw0HLji9IgR7rTgQCPlpZI,30272,grocery_or_supermarket,,33.6508856,-84.4498764
ChIJcwkZisr89IgR6fVaVJeD7Xw,30272,grocery_or_supermarket,,33.6056311,-84.4357895
ChIJ_xPs4a_i9IgRjoN45Ue4YOg,30272,grocery_or_supermarket,,33.6608846,-84.448102
ChIJB9i6rq_i9IgRY6cUo_oOyRk,30272,grocery_or_supermarket,,33.6632094,-84.4465815
ChIJQ2WQ17n89IgR_A0pjMM13lY,30272,grocery_or_supermarket,,33.6016445,-84.4272594
ChIJTfOT55389IgRMdwExIWG6Ho,30272,grocery_or_supermarket,,33.5828642,-84.4129833
ChIJL858kG_99IgRH6lNfQJdx_U,30272,grocery_or_supermarket,,33.6581893,-84.4087343
ChIJbS1MyKIC9YgR_f8TS956S-M,30272,grocery_or_supermarket,,33.6809918,-84.4177651
ChIJeWqQhmb79IgRhhQgFsQ0yYQ,30272,grocery_or_supermarket,,33.5731381,-84.4103769
ChIJ_eRmLiMd9YgR1QOj3oULqV4,30272,grocery_or_supermarket,,33.7064932,-84.4565526
ChIJjyWRQv_89IgR19IjKIDXR4U,30272,grocery_or_supermarket,,33.6203728,-84.3887408
ChIJ5ensv6V09YgRI5OjA1pOMEY,30075,grocery_or_supermarket,,34.0350946,-84.3469624
ChIJvZeYAxJz9YgRpmp4ipX7rp0,30075,grocery_or_supermarket,,34.059369,-84.379653
ChIJt4hKcKR09YgROWUYm2e7ibM,30075,grocery_or_supermarket,,34.0395846,-84.3475093
ChIJGaxJmaR09YgRX86FSiDFctQ,30075,grocery_or_supermarket,,34.0399973,-84.3454366
ChIJfc52NMt09YgRRkyralYpbSo,30075,grocery_or_supermarket,,34.0226737,-84.3294152
ChIJ--DqE7109YgR_fgQ5wu5vLA,30075,grocery_or_supermarket,,34.0443484,-84.342365
ChIJVW2mfVRz9YgRR8HqfjMblU8,30075,grocery_or_supermarket,,34.0271782,-84.3577661
ChIJf0vYHQJz9YgRBBNqC0vWxqQ,30075,grocery_or_supermarket,,34.0643467,-84.395591
ChIJk6CQqrF09YgRQcvxK4_1MLo,30075,grocery_or_supermarket,,34.031486,-84.3410999
ChIJydlGiK8M9YgR9Zh9Vlo_-tI,30075,grocery_or_supermarket,,34.0337925,-84.339682
ChIJBwtS6dwM9YgRFXx6Pau8VM8,30075,grocery_or_supermarket,,34.0041144,-84.389529
ChIJJyI9ue109YgRoff4qPee5c4,30075,grocery_or_supermarket,,34.054059,-84.3287
ChIJsXicpB5z9YgRYMP-C3RdHJw,30075,grocery_or_supermarket,,34.0528366,-84.3921491
ChIJ5ensv6V09YgRI5OjA1pOMEY,30076,grocery_or_supermarket,,34.0350946,-84.3469624
ChIJJyI9ue109YgRdHJb0JHih88,30076,grocery_or_supermarket,,34.0540592,-84.3286995
ChIJt4hKcKR09YgROWUYm2e7ibM,30076,grocery_or_supermarket,,34.0395846,-84.3475093
ChIJ--k7HfJ09YgRBho4aBWeeC4,30076,grocery_or_supermarket,,34.0568148,-84.3281865
ChIJfc52NMt09YgRRkyralYpbSo,30076,grocery_or_supermarket,,34.0226737,-84.3294152
ChIJGaxJmaR09YgRX86FSiDFctQ,30076,grocery_or_supermarket,,34.0399973,-84.3454366
ChIJJyI9ue109YgRoff4qPee5c4,30076,grocery_or_supermarket,,34.054059,-84.3287
ChIJ--DqE7109YgR_fgQ5wu5vLA,30076,grocery_or_supermarket,,34.0443484,-84.342365
ChIJD_Ei_Lx09YgR4DsPyCW_SKM,30076,grocery_or_supermarket,,34.040225,-84.3406737
ChIJk6CQqrF09YgRQcvxK4_1MLo,30076,grocery_or_supermarket,,34.031486,-84.3410999
ChIJydlGiK8M9YgR9Zh9Vlo_-tI,30076,grocery_or_supermarket,,34.0337925,-84.339682
ChIJJyI9ue109YgR4GBt0MbEEi4,30076,grocery_or_supermarket,,34.0540954,-84.328533
ChIJVW2mfVRz9YgRR8HqfjMblU8,30076,grocery_or_supermarket,,34.0271782,-84.3577661
ChIJoVT0tcYK9YgRKmzG0qTIzBQ,30076,grocery_or_supermarket,,34.00502,-84.294856
ChIJ56AzkO109YgRx9A_oDkzgLI,30076,grocery_or_supermarket,,34.0553058,-84.3297283
ChIJydlGiK8M9YgR9Zh9Vlo_-tI,30077,grocery_or_supermarket,,34.0337925,-84.339682
ChIJ--DqE7109YgR_fgQ5wu5vLA,30077,grocery_or_supermarket,,34.0443484,-84.342365
ChIJJyI9ue109YgRdHJb0JHih88,30077,grocery_or_supermarket,,34.0540592,-84.3286995
ChIJf0vYHQJz9YgRBBNqC0vWxqQ,30077,grocery_or_supermarket,,34.0643467,-84.395591
ChIJoVT0tcYK9YgRKmzG0qTIzBQ,30077,grocery_or_supermarket,,34.00502,-84.294856
ChIJAevjlXcN9YgRS-CC5KoEg-4,30077,grocery_or_supermarket,,33.984536,-84.426736
ChIJ7XDbQ58N9YgRgpArzkRWK9E,30077,grocery_or_supermarket,,33.9770652,-84.4192755
ChIJJyI9ue109YgRdHJb0JHih88,30075,grocery_or_supermarket,,34.0540592,-84.3286995
ChIJ3fBfiOwO9YgReOnzvA12uVM,30358,grocery_or_supermarket,,33.9113507,-84.3812855
ChIJE7j3VREP9YgRiel1VuYEVZk,30339,grocery_or_supermarket,,33.8744413,-84.3798848
ChIJx79nxb3m9IgRHVI0Ge5U6JA,30291,grocery_or_supermarket,,33.5657464,-84.5368063
ChIJxdApcR3k9IgRvR7DEITrV_Y,30291,grocery_or_supermarket,,33.5737169,-84.5236712
ChIJuQwusT3n9IgRG_mco4WS_34,30291,grocery_or_supermarket,,33.5684754,-84.5798072
ChIJNytCfBXn9IgR7yjETU8diZk,30291,grocery_or_supermarket,,33.5661833,-84.5825532
ChIJmyz4Jbbj9IgRshAuZ21acSU,30291,grocery_or_supermarket,,33.6232195,-84.5012779
ChIJoZffS3vj9IgROzSrjpQY2XE,30291,grocery_or_supermarket,,33.590389,-84.4705348
ChIJ36PlsDzj9IgRerHCMyKlNQo,30291,grocery_or_supermarket,,33.6158486,-84.4554606
ChIJTfOT55389IgRMdwExIWG6Ho,30291,grocery_or_supermarket,,33.5828642,-84.4129833
ChIJ8WwDFLji9IgRqoe9HReMKEQ,30291,grocery_or_supermarket,,33.6508607,-84.4498367
ChIJhWw0HLji9IgR7rTgQCPlpZI,30291,grocery_or_supermarket,,33.6508856,-84.4498764
ChIJGbpHHjX89IgRlAXei38Z0Rw,31193,grocery_or_supermarket,,33.6225977,-84.3727733
ChIJl6IJR9X99IgRYms_KzDMn-Y,31193,grocery_or_supermarket,,33.6241064,-84.3555405
ChIJQySAuI4F9YgRj3NAqVrX5js,30324,grocery_or_supermarket,,33.8408911,-84.381743
ChIJ4dTfQl8G9YgR-Gew40Ad8qk,30322,grocery_or_supermarket,,33.8005048,-84.3257339
ChIJGdOc-m2r9YgR3Y6NOmSOoIs,30322,grocery_or_supermarket,,33.8014959,-84.3279673
ChIJCQfrG2EG9YgRk-OyqR3iIBg,30322,grocery_or_supermarket,,33.8041851,-84.3363293
ChIJae9o8gQH9YgR3uq8CQkWxPc,30322,grocery_or_supermarket,,33.7908588,-84.3052307
ChIJr0U0BUIG9YgRq4StqIACTu8,30322,grocery_or_supermarket,,33.8158203,-84.333212
ChIJ-5Zf2T0G9YgRXl9W47RkY5Y,30322,grocery_or_supermarket,,33.8164481,-84.3126116
ChIJfQirobQH9YgRuQ2iFlIDUNI,30322,grocery_or_supermarket,,33.8163693,-84.3109415
ChIJQcarkEwG9YgRHQs9feHYDo0,30322,grocery_or_supermarket,,33.8156147,-84.3137351
ChIJBb6sr5ME9YgRjtXSBOtRe1M,30322,grocery_or_supermarket,,33.7832132,-84.35467
ChIJY_Z6x3cG9YgR1RbakV-W720,30322,grocery_or_supermarket,,33.8144356,-84.3529249
ChIJUU_XgGAH9YgRJOdVGlK3__c,30002,grocery_or_supermarket,,33.7759756,-84.2727593
ChIJ67Gas9-p9YgR9Pkx_N8g7KE,30002,grocery_or_supermarket,,33.7770856,-84.2673524
ChIJTbyh5GYH9YgRQYETAM4CrjI,30002,grocery_or_supermarket,,33.778818,-84.277182
ChIJr0U0BUIG9YgRq4StqIACTu8,30329,grocery_or_supermarket,,33.8158203,-84.333212
ChIJQcarkEwG9YgRHQs9feHYDo0,30329,grocery_or_supermarket,,33.8156147,-84.3137351
ChIJ4dTfQl8G9YgR-Gew40Ad8qk,30329,grocery_or_supermarket,,33.8005048,-84.3257339
ChIJmV7R-BUG9YgR_ZTjYIP2M2k,30329,grocery_or_supermarket,,33.827982,-84.333309
ChIJ-5Zf2T0G9YgRXl9W47RkY5Y,30329,grocery_or_supermarket,,33.8164481,-84.3126116
ChIJD5ygySAG9YgRYswfmojV5CI,30329,grocery_or_supermarket,,33.8427009,-84.3247255
ChIJHeDwnxkG9YgRwQxPqV8Hbsk,30329,grocery_or_supermarket,,33.8367478,-84.3371045
ChIJA2Nd5SYG9YgRh9RbU5P_AQA,30329,grocery_or_supermarket,,33.8412109,-84.325894
ChIJx0PlQWII9YgRsQpCgD6UvJs,30329,grocery_or_supermarket,,33.8580473,-84.3103897
ChIJHeHyO4gI9YgROdqUmjNrPoQ,30329,grocery_or_supermarket,,33.855359,-84.31347
ChIJGdOc-m2r9YgR3Y6NOmSOoIs,30329,grocery_or_supermarket,,33.8014959,-84.3279673
ChIJbyvy6CAG9YgRRe1JvpdLHJE,30329,grocery_or_supermarket,,33.842855,-84.329414
ChIJqySFw0II9YgRCDKVxKLQYPI,30329,grocery_or_supermarket,,33.8676152,-84.3005562
ChIJzT-1f2EI9YgRi4ET0WWNoSk,30329,grocery_or_supermarket,,33.8608148,-84.3094388
ChIJsbNRuoYD9YgRy1fhsJgldJY,30332,grocery_or_supermarket,,33.7539328,-84.390386
ChIJw2Pxp_ED9YgR76DtrNcdY6I,30332,grocery_or_supermarket,,33.7492177,-84.3678997
ChIJ_7ezL3V19YgRQX18jUE-87M,30009,grocery_or_supermarket,,34.063151,-84.290567
ChIJvXMS01qz9YgROeNyZseaosI,30012,grocery_or_supermarket,,33.6663961,-84.0277787
ChIJKW-SBfqy9YgRpRsirK5M_cc,30012,grocery_or_supermarket,,33.6955741,-84.072181
ChIJNxFnyF6z9YgRHEIgOJHz850,30012,grocery_or_supermarket,,33.669458,-84.02057
ChIJ_ZK33kyx9YgR9W8tXslpUGY,30012,grocery_or_supermarket,,33.755301,-84.0177719
ChIJXQZcRrG09YgRBnn8UiY-JME,30012,grocery_or_supermarket,,33.6580649,-84.0019743
ChIJo-iYLU1L9IgRWwpT-371QpU,30012,grocery_or_supermarket,,33.6514206,-84.0042134
ChIJmzlACcO09YgRsPCuE1oWDgc,30012,grocery_or_supermarket,,33.643868,-84.0169414
ChIJHx_2hFhL9IgRR3lK6tYr-Z0,30012,grocery_or_supermarket,,33.6375005,-84.0165817
ChIJT1H-E1lL9IgR4Lbhs7OcnqU,30013,grocery_or_supermarket,,33.6351063,-84.0160533
ChIJHx_2hFhL9IgRR3lK6tYr-Z0,30013,grocery_or_supermarket,,33.6375005,-84.0165817
ChIJmzlACcO09YgRsPCuE1oWDgc,30013,grocery_or_supermarket,,33.643868,-84.0169414
ChIJo-iYLU1L9IgRWwpT-371QpU,30013,grocery_or_supermarket,,33.6514206,-84.0042134
ChIJXQZcRrG09YgRBnn8UiY-JME,30013,grocery_or_supermarket,,33.6580649,-84.0019743
ChIJrTfFeohL9IgRVuuQXsQIzzU,30013,grocery_or_supermarket,,33.595371,-84.01294
ChIJnYz2wR9L9IgRmPNVvKRPKE0,30013,grocery_or_supermarket,,33.626186,-83.97543
ChIJYwzWXaxL9IgRGniza-gEJoM,30013,grocery_or_supermarket,,33.5983159,-83.977407
ChIJE0i94iNL9IgRaCQlOz1kP8k,30013,grocery_or_supermarket,,33.632646,-83.979761
ChIJ7TpEEFVK9IgR3r3Co3bI5c4,30013,grocery_or_supermarket,,33.6285383,-83.9761468
ChIJ6yymv18J9YgR58jT-QzWXmE,30338,grocery_or_supermarket,,33.9321441,-84.3322921
ChIJCUkh5YEJ9YgRjnTO_bxX0sM,30338,grocery_or_supermarket,,33.927348,-84.310897
ChIJq54QjkgK9YgRL-0WnUnARR8,30338,grocery_or_supermarket,,33.9582912,-84.3040525
ChIJTyzNKXgJ9YgRrN66PsNTJ3U,30338,grocery_or_supermarket,,33.9226595,-84.3157486
ChIJURQfUegL9YgRIF-K5ufiRuU,30338,grocery_or_supermarket,,33.9484704,-84.3347005
ChIJs5HNnUgK9YgRy9ZPB3lwNPE,30338,grocery_or_supermarket,,33.9587927,-84.3019631
ChIJCUkh5YEJ9YgR6Ay8kTGGshA,30338,grocery_or_supermarket,,33.928202,-84.3115916
ChIJF87T_EUK9YgRmfOf9eSK7GE,30338,grocery_or_supermarket,,33.9607317,-84.3011308
ChIJm1UhusEJ9YgRd3565oMYAak,30338,grocery_or_supermarket,,33.9077452,-84.2881654
ChIJTU-Q2YEL9YgRSGsJh_z1hpM,30338,grocery_or_supermarket,,33.9827223,-84.3480585
ChIJ46cUmB4J9YgR94HFilRzZLI,30338,grocery_or_supermarket,,33.8946018,-84.3302963
ChIJ7XlP97IJ9YgRs5PT9qmEtFg,30341,grocery_or_supermarket,,33.8901968,-84.2999316
ChIJ4dP9VcoJ9YgRbzng1n3vty0,30341,grocery_or_supermarket,,33.889866,-84.2891304
ChIJG0xBTl4I9YgRwl_d-sLicRQ,30341,grocery_or_supermarket,,33.8681833,-84.308988
ChIJqySFw0II9YgRCDKVxKLQYPI,30341,grocery_or_supermarket,,33.8676152,-84.3005562
ChIJmyZDXjQI9YgR4HG77_wTeXw,30341,grocery_or_supermarket,,33.8848612,-84.2880528
ChIJgwU6obAJ9YgRSAnuh_nT3uo,30341,grocery_or_supermarket,,33.8988568,-84.2973476
ChIJXYzLljQI9YgRg3c8s6LKxtw,30341,grocery_or_supermarket,,33.885352,-84.2868194
ChIJ4ZnXzbYJ9YgRr9WmbOYEygk,30341,grocery_or_supermarket,,33.9002565,-84.3027601
ChIJX06W7D8I9YgRnFyh918M1pg,30341,grocery_or_supermarket,,33.866604,-84.290142
ChIJm1UhusEJ9YgRd3565oMYAak,30341,grocery_or_supermarket,,33.9077452,-84.2881654
ChIJ6yymv18J9YgR58jT-QzWXmE,30341,grocery_or_supermarket,,33.9321441,-84.3322921
ChIJPfhxjLUJ9YgRJvn7gRvz6tU,30341,grocery_or_supermarket,,33.8924693,-84.2906807
ChIJrxHiPK4J9YgRAGDDX_p3_sQ,30341,grocery_or_supermarket,,33.895223,-84.3022833
ChIJA2FzMbQJ9YgRKY2lfHaaFvM,30341,grocery_or_supermarket,,33.8923343,-84.2934314
ChIJe1uH0s4J9YgRO4E14TmH6Cg,30341,grocery_or_supermarket,,33.8957065,-84.2849677
ChIJ3ZBtnZ2n9YgRbpp2YQDuF1U,30341,grocery_or_supermarket,,33.885184,-84.256784
ChIJ0WvelNoJ9YgRg1lYZsgdC6w,30341,grocery_or_supermarket,,33.8995619,-84.2791665
ChIJe1uH0s4J9YgRO4E14TmH6Cg,30340,grocery_or_supermarket,,33.8957065,-84.2849677
ChIJ0WvelNoJ9YgRg1lYZsgdC6w,30340,grocery_or_supermarket,,33.8995619,-84.2791665
ChIJA2NGdueg9YgRpkuLF4X9_hk,30340,grocery_or_supermarket,,33.9128386,-84.2639569
ChIJW9kxfFun9YgRIPRYu3G50Hw,30340,grocery_or_supermarket,,33.890748,-84.2847022
ChIJwwPFUV6n9YgRX35TxV_JUdM,30340,grocery_or_supermarket,,33.9109439,-84.2666844
ChIJFZDiwM8J9YgRkfDvgPfG7ss,30340,grocery_or_supermarket,,33.8953806,-84.2815481
ChIJe8BxQRKn9YgR-uZmvmo9R08,30340,grocery_or_supermarket,,33.898299,-84.2452707
ChIJm1UhusEJ9YgRd3565oMYAak,30340,grocery_or_supermarket,,33.9077452,-84.2881654
ChIJNaAP1Cyn9YgRgdSvW_Oqq_A,30340,grocery_or_supermarket,,33.9175783,-84.2584568
ChIJbzlWOUWn9YgRDnjaRe-zcJM,30340,grocery_or_supermarket,,33.9284845,-84.2377168
ChIJe6P4P88J9YgRY9wFS9t4MPY,30340,grocery_or_supermarket,,33.8968009,-84.2852205
ChIJ4dP9VcoJ9YgRbzng1n3vty0,30340,grocery_or_supermarket,,33.889866,-84.2891304
ChIJE5O9bFyn9YgRyRPqhnTOQRM,30340,grocery_or_supermarket,,33.913128,-84.2633569
ChIJGUnQ8MK49YgRnDpGq9U7GvY,30017,grocery_or_supermarket,,33.8973752,-83.9618754
ChIJ5-VW25W59YgRb_lAg8pIgN8,30017,grocery_or_supermarket,,33.8555912,-83.9955041
ChIJL1N0TF249YgRYYt95MN5zMM,30017,grocery_or_supermarket,,33.8593385,-83.9545591
ChIJXYPZG0O59YgRon5kHjOqhqA,30017,grocery_or_supermarket,,33.9003001,-84.004835
ChIJP_MTjKOw9YgRsTbOC3CL50g,30017,grocery_or_supermarket,,33.8826788,-84.0079624
ChIJmbqa5ES59YgRaQ1_cqkiIA8,30017,grocery_or_supermarket,,33.90136,-84.0058846
ChIJvTSWg3u59YgRCGv0TnUwceg,30017,grocery_or_supermarket,,33.8839438,-84.0082908
ChIJz7mhhCm_9YgRADzZSffhj2M,30017,grocery_or_supermarket,,33.923127,-83.971929
ChIJbTcy94vH9YgRLYsC-R9nHUU,30017,grocery_or_supermarket,,33.8516332,-83.9260464
ChIJLcwWiN2-9YgR28n1Oc_hQEk,30017,grocery_or_supermarket,,33.9386097,-83.9829772
ChIJ3QrxNUSo9YgRM7zx3ilVn4A,30021,grocery_or_supermarket,,33.81014,-84.2425898
ChIJuS9wwEmo9YgR99LYn5gx5cw,30021,grocery_or_supermarket,,33.8039776,-84.2479432
ChIJu-IVGWCo9YgRunPKEN0RJd8,30021,grocery_or_supermarket,,33.8199226,-84.2285064
ChIJ3QrxNUSo9YgRLrV_Fo-uhUQ,30021,grocery_or_supermarket,,33.8107818,-84.2422961
ChIJ3QrxNUSo9YgRqi_Rw8vRGDI,30021,grocery_or_supermarket,,33.8107818,-84.2422961
ChIJoa36hUWo9YgReGrJhgy4Ypw,30021,grocery_or_supermarket,,33.807808,-84.241669
ChIJ2UgICUSo9YgRFE_Mf8aNINw,30021,grocery_or_supermarket,,33.8129692,-84.2423886
ChIJA4SsAUWo9YgRTW7rAWZhtaI,30021,grocery_or_supermarket,,33.8098382,-84.2413441
ChIJX2rv_USo9YgR8-C2Q9JPRJY,30021,grocery_or_supermarket,,33.81028,-84.240847
ChIJhxbbA0Wo9YgRNmo3Jt2aQlQ,30021,grocery_or_supermarket,,33.8098595,-84.2407304
ChIJEWbvn4qo9YgR5oyBCAz2Hfw,30021,grocery_or_supermarket,,33.8194956,-84.227918
ChIJx-rmHq-p9YgRvyDW5koXzLU,30021,grocery_or_supermarket,,33.8001966,-84.2374996
ChIJZ0HACkSo9YgR-h_6hFMKFtc,30021,grocery_or_supermarket,,33.8129619,-84.2423716
ChIJzT-1f2EI9YgRi4ET0WWNoSk,30345,grocery_or_supermarket,,33.8608148,-84.3094388
ChIJx0PlQWII9YgRsQpCgD6UvJs,30345,grocery_or_supermarket,,33.8580473,-84.3103897
ChIJ7wdC1GMI9YgRPVABpvhd9d8,30345,grocery_or_supermarket,,33.8599134,-84.3085455
ChIJq5tGtEII9YgR6uESH0DlqOs,30345,grocery_or_supermarket,,33.8669905,-84.3013525
ChIJa7BbEGEI9YgRrEVsRBLHI94,30345,grocery_or_supermarket,,33.8625716,-84.3087012
ChIJx3hPueOn9YgRqOs4u2h26GI,30345,grocery_or_supermarket,,33.843522,-84.2555749
ChIJHeHyO4gI9YgROdqUmjNrPoQ,30345,grocery_or_supermarket,,33.855359,-84.31347
ChIJQcarkEwG9YgRHQs9feHYDo0,30345,grocery_or_supermarket,,33.8156147,-84.3137351
ChIJfQirobQH9YgRuQ2iFlIDUNI,30345,grocery_or_supermarket,,33.8163693,-84.3109415
ChIJmV7R-BUG9YgR_ZTjYIP2M2k,30345,grocery_or_supermarket,,33.827982,-84.333309
ChIJq4vrxncH9YgR_zZpw8O_RZE,30345,grocery_or_supermarket,,33.7976687,-84.2806728
ChIJ6yymv18J9YgR58jT-QzWXmE,30346,grocery_or_supermarket,,33.9321441,-84.3322921
ChIJTyzNKXgJ9YgRrN66PsNTJ3U,30346,grocery_or_supermarket,,33.9226595,-84.3157486
ChIJQee59eL89IgR-Qef8SVMNV8,30349,grocery_or_supermarket,,33.624045,-84.409266
ChIJ8cYmcTuW9YgR6-odRQoApEw,30024,grocery_or_supermarket,,34.021997,-84.0448268
ChIJPQ31DVKW9YgRpZ1v6y-EA1Y,30024,grocery_or_supermarket,,34.0434548,-84.0539704
ChIJO8mizhWZ9YgRDkJCMWA2NP0,30024,grocery_or_supermarket,,34.0773392,-84.1622567
ChIJ60vabFy99YgR0olJxCJf76U,30024,grocery_or_supermarket,,34.0047974,-84.0830306
ChIJP8w3e4qX9YgR5vpkAMLRzWQ,30024,grocery_or_supermarket,,34.0372588,-84.0997188
ChIJAyUt7CKZ9YgRXYAxMRefAc8,30024,grocery_or_supermarket,,34.069535,-84.16593
ChIJORC1wzyZ9YgRqG0raZOQoj8,30024,grocery_or_supermarket,,34.070253,-84.170786
ChIJxZ7tNYSX9YgRTLjlq2Hiyf8,30024,grocery_or_supermarket,,34.0482748,-84.0949934
ChIJA8SBbE-W9YgRm9itLBEWI6c,30024,grocery_or_supermarket,,34.0374381,-84.0426743
ChIJVYAAUw6X9YgRRGJWIqiNJd0,30024,grocery_or_supermarket,,34.064157,-84.0721852
ChIJVYAAUw6X9YgRIMxF1X5Ctxs,30024,grocery_or_supermarket,,34.003491,-84.0383394
ChIJISslz0yY9YgR6-D-IkmnxGU,30024,grocery_or_supermarket,,34.0571509,-84.1288801
ChIJMxipgUW99YgRdnh2z8OdcZQ,30024,grocery_or_supermarket,,33.9980721,-84.0898968
ChIJ4ThpjPCT9YgRS1Y1IY2uoT4,30024,grocery_or_supermarket,,34.1040559,-84.0050486
ChIJxagyH2iP9YgRgIxaS0FsQqg,30028,grocery_or_supermarket,,34.254579,-84.088704
ChIJ2XPil2iP9YgR2RFe2_0Cjco,30028,grocery_or_supermarket,,34.2509787,-84.0912614
ChIJ_yq57WWE9YgRxHaEryj2QyQ,30028,grocery_or_supermarket,,34.247433,-84.170973
ChIJmwIHy_iF9YgRzIof7oJLB_Y,30028,grocery_or_supermarket,,34.2726186,-84.1023894
ChIJidG-noKD9YgRLk2gc4HbMPQ,30028,grocery_or_supermarket,,34.2383692,-84.1930558
ChIJmYo-dI2G9YgRYGOcd9J4SRU,30028,grocery_or_supermarket,,34.300165,-84.1534306
ChIJb1gdUnmF9YgRrhg8QCt_vDk,30028,grocery_or_supermarket,,34.229205,-84.106896
ChIJF8AaBSSP9YgRhrlzN2ulyDg,30028,grocery_or_supermarket,,34.2607703,-84.0651335
ChIJjbYDWSKF9YgRuA_lboqMOzk,30028,grocery_or_supermarket,,34.2114976,-84.1358833
ChIJy0epgcU14BQR2MOohvqGOMA,30028,grocery_or_supermarket,,34.184052,-84.143751
ChIJTbyh5GYH9YgRQYETAM4CrjI,30030,grocery_or_supermarket,,33.778818,-84.277182
ChIJk7btERUH9YgRgqDBQpUIQjo,30030,grocery_or_supermarket,,33.7782892,-84.2931858
ChIJaXzmaj4H9YgRiYpv7csZtCg,30030,grocery_or_supermarket,,33.7749748,-84.2951309
ChIJae9o8gQH9YgR3uq8CQkWxPc,30030,grocery_or_supermarket,,33.7908588,-84.3052307
ChIJn42zmz0H9YgRyc_rfakiKoQ,30030,grocery_or_supermarket,,33.77599,-84.29867
ChIJq4vrxncH9YgR_zZpw8O_RZE,30030,grocery_or_supermarket,,33.7976687,-84.2806728
ChIJY-w5VFUH9YgRUHYfGFfNt8Q,30030,grocery_or_supermarket,,33.7540215,-84.270808
ChIJUU_XgGAH9YgRJOdVGlK3__c,30030,grocery_or_supermarket,,33.7759756,-84.2727593
ChIJ03mBjoIH9YgRmlvPFl07b60,30030,grocery_or_supermarket,,33.7986531,-84.2794785
ChIJGdK6x34H9YgR1YfwqW18C-w,30030,grocery_or_supermarket,,33.7918249,-84.2733926
ChIJAz1IDPgF9YgRzn9e4HDqFEI,30355,grocery_or_supermarket,,33.8459141,-84.3621872
ChIJA0ZHhUT99IgR7QtK5rk2Nkc,30354,grocery_or_supermarket,,33.6562283,-84.4240045
ChIJTfOT55389IgRMdwExIWG6Ho,30354,grocery_or_supermarket,,33.5828642,-84.4129833
ChIJ_xlKOBeq9YgR1jRseuwgGMs,30032,grocery_or_supermarket,,33.7392148,-84.2535638
ChIJ7aGOqH8A9YgR8wB4ji-wl1E,30032,grocery_or_supermarket,,33.7087086,-84.2744593
ChIJY-w5VFUH9YgRUHYfGFfNt8Q,30032,grocery_or_supermarket,,33.7540215,-84.270808
ChIJXatrWoap9YgRas0UCZXX5HE,30032,grocery_or_supermarket,,33.7547392,-84.2363151
ChIJfyUuzoEA9YgRzaf6HfB_u5k,30032,grocery_or_supermarket,,33.7119631,-84.2707126
ChIJf-hhBQCq9YgRB1ThBAEjOqU,30032,grocery_or_supermarket,,33.7519543,-84.2694485
ChIJURTdSOyp9YgRYAkSesnIwJM,30032,grocery_or_supermarket,,33.76674,-84.25265
ChIJVWfvp7Cp9YgROU2FCJctv_g,30032,grocery_or_supermarket,,33.7852631,-84.2430603
ChIJTbyh5GYH9YgRQYETAM4CrjI,30032,grocery_or_supermarket,,33.778818,-84.277182
ChIJZfm-yaSr9YgRxJLE00IIZo0,30032,grocery_or_supermarket,,33.7168437,-84.2133992
ChIJaX-8r7qr9YgRVoYSu6xGBf4,30032,grocery_or_supermarket,,33.7182648,-84.2174627
ChIJaXzmaj4H9YgRiYpv7csZtCg,30032,grocery_or_supermarket,,33.7749748,-84.2951309
ChIJY9H9Rgir9YgRfPZrZ3sGQks,30032,grocery_or_supermarket,,33.7045666,-84.2157611
ChIJ03mBjoIH9YgRmlvPFl07b60,30032,grocery_or_supermarket,,33.7986531,-84.2794785
ChIJq4vrxncH9YgR_zZpw8O_RZE,30032,grocery_or_supermarket,,33.7976687,-84.2806728
ChIJae9o8gQH9YgR3uq8CQkWxPc,30032,grocery_or_supermarket,,33.7908588,-84.3052307
ChIJk7btERUH9YgRgqDBQpUIQjo,30032,grocery_or_supermarket,,33.7782892,-84.2931858
ChIJn42zmz0H9YgRyc_rfakiKoQ,30031,grocery_or_supermarket,,33.77599,-84.29867
ChIJae9o8gQH9YgR3uq8CQkWxPc,30031,grocery_or_supermarket,,33.7908588,-84.3052307
ChIJo5bKZnMH9YgRQlMn7EAIJRE,30031,grocery_or_supermarket,,33.7922407,-84.2890095
ChIJTbyh5GYH9YgRQYETAM4CrjI,30031,grocery_or_supermarket,,33.778818,-84.277182
ChIJF7DKUgcH9YgRuEg3VZM1rMg,30031,grocery_or_supermarket,,33.7987035,-84.3068622
ChIJq4vrxncH9YgR_zZpw8O_RZE,30031,grocery_or_supermarket,,33.7976687,-84.2806728
ChIJGdK6x34H9YgR1YfwqW18C-w,30031,grocery_or_supermarket,,33.7918249,-84.2733926
ChIJ4dTfQl8G9YgR-Gew40Ad8qk,30031,grocery_or_supermarket,,33.8005048,-84.3257339
ChIJ03mBjoIH9YgRmlvPFl07b60,30031,grocery_or_supermarket,,33.7986531,-84.2794785
ChIJWTDCsqgG9YgR-U6sWxq-qJw,30031,grocery_or_supermarket,,33.7671024,-84.3484783
ChIJ7aGOqH8A9YgR8wB4ji-wl1E,30034,grocery_or_supermarket,,33.7087086,-84.2744593
ChIJY9H9Rgir9YgRfPZrZ3sGQks,30034,grocery_or_supermarket,,33.7045666,-84.2157611
ChIJB_5hgCCr9YgRkD2cQGvirH8,30034,grocery_or_supermarket,,33.6814966,-84.22799
ChIJJTfISt6q9YgRJx3xZsRE9Qc,30034,grocery_or_supermarket,,33.68306,-84.2306271
ChIJ3R8BWN-q9YgRrvvQSBEkvKM,30034,grocery_or_supermarket,,33.67916,-84.2287659
ChIJfyUuzoEA9YgRzaf6HfB_u5k,30034,grocery_or_supermarket,,33.7119631,-84.2707126
ChIJL3JNs4Sq9YgRJM3gZnfKsdo,30034,grocery_or_supermarket,,33.6971635,-84.2638283
ChIJHZdmQ4Kq9YgROUAJQfoXZPA,30034,grocery_or_supermarket,,33.7008125,-84.2683941
ChIJZfm-yaSr9YgRxJLE00IIZo0,30034,grocery_or_supermarket,,33.7168437,-84.2133992
ChIJaX-8r7qr9YgRVoYSu6xGBf4,30034,grocery_or_supermarket,,33.7182648,-84.2174627
ChIJ_xlKOBeq9YgR1jRseuwgGMs,30034,grocery_or_supermarket,,33.7392148,-84.2535638
ChIJ03mBjoIH9YgRmlvPFl07b60,30033,grocery_or_supermarket,,33.7986531,-84.2794785
ChIJae9o8gQH9YgR3uq8CQkWxPc,30033,grocery_or_supermarket,,33.7908588,-84.3052307
ChIJq4vrxncH9YgR_zZpw8O_RZE,30033,grocery_or_supermarket,,33.7976687,-84.2806728
ChIJK4OhwAGo9YgRQIp3YMA3OLM,30033,grocery_or_supermarket,,33.8381055,-84.2688474
ChIJGdK6x34H9YgR1YfwqW18C-w,30033,grocery_or_supermarket,,33.7918249,-84.2733926
ChIJF0Y7RtOp9YgRaObbNI_mAKM,30033,grocery_or_supermarket,,33.7962187,-84.2638286
ChIJo5bKZnMH9YgRQlMn7EAIJRE,30033,grocery_or_supermarket,,33.7922407,-84.2890095
ChIJF7DKUgcH9YgRuEg3VZM1rMg,30033,grocery_or_supermarket,,33.7987035,-84.3068622
ChIJuS9wwEmo9YgR99LYn5gx5cw,30033,grocery_or_supermarket,,33.8039776,-84.2479432
ChIJ-5Zf2T0G9YgRXl9W47RkY5Y,30033,grocery_or_supermarket,,33.8164481,-84.3126116
ChIJZfm-yaSr9YgRxJLE00IIZo0,30035,grocery_or_supermarket,,33.7168437,-84.2133992
ChIJY9H9Rgir9YgRfPZrZ3sGQks,30035,grocery_or_supermarket,,33.7045666,-84.2157611
ChIJaX-8r7qr9YgRVoYSu6xGBf4,30035,grocery_or_supermarket,,33.7182648,-84.2174627
ChIJ01QiTPKr9YgRptfcH0r5W7k,30035,grocery_or_supermarket,,33.731933,-84.192365
ChIJXatrWoap9YgRas0UCZXX5HE,30035,grocery_or_supermarket,,33.7547392,-84.2363151
ChIJ_xlKOBeq9YgR1jRseuwgGMs,30035,grocery_or_supermarket,,33.7392148,-84.2535638
ChIJJTfISt6q9YgRJx3xZsRE9Qc,30035,grocery_or_supermarket,,33.68306,-84.2306271
ChIJB_5hgCCr9YgRkD2cQGvirH8,30035,grocery_or_supermarket,,33.6814966,-84.22799
ChIJ03mBjoIH9YgRmlvPFl07b60,30035,grocery_or_supermarket,,33.7986531,-84.2794785
ChIJL3JNs4Sq9YgRJM3gZnfKsdo,30035,grocery_or_supermarket,,33.6971635,-84.2638283
ChIJfyUuzoEA9YgRzaf6HfB_u5k,30035,grocery_or_supermarket,,33.7119631,-84.2707126
ChIJ7aGOqH8A9YgR8wB4ji-wl1E,30035,grocery_or_supermarket,,33.7087086,-84.2744593
ChIJq4vrxncH9YgR_zZpw8O_RZE,30035,grocery_or_supermarket,,33.7976687,-84.2806728
ChIJae9o8gQH9YgR3uq8CQkWxPc,30035,grocery_or_supermarket,,33.7908588,-84.3052307
ChIJTbyh5GYH9YgRQYETAM4CrjI,30035,grocery_or_supermarket,,33.778818,-84.277182
ChIJVWfvp7Cp9YgROU2FCJctv_g,30035,grocery_or_supermarket,,33.7852631,-84.2430603
ChIJdVca4PsJ9YgRXLw5_09QTcM,30360,grocery_or_supermarket,,33.9255422,-84.276165
ChIJ5xoCAKig9YgROHN__jcQLTY,30360,grocery_or_supermarket,,33.94189,-84.269679
ChIJm1UhusEJ9YgRd3565oMYAak,30360,grocery_or_supermarket,,33.9077452,-84.2881654
ChIJOz8FjVOn9YgRdlKb9sgyw0U,30360,grocery_or_supermarket,,33.9265763,-84.2639956
ChIJ8fCzqMIJ9YgRFjyFyuIOQWQ,30360,grocery_or_supermarket,,33.9083052,-84.2805141
ChIJBymTyqyg9YgRBFJeoEMFnv8,30360,grocery_or_supermarket,,33.9308396,-84.2632321
ChIJtczmQ6ug9YgRhaFIMcZcRwQ,30360,grocery_or_supermarket,,33.932011,-84.265719
ChIJA2NGdueg9YgRpkuLF4X9_hk,30360,grocery_or_supermarket,,33.9128386,-84.2639569
ChIJFZDiwM8J9YgRkfDvgPfG7ss,30360,grocery_or_supermarket,,33.8953806,-84.2815481
ChIJq54QjkgK9YgRL-0WnUnARR8,30360,grocery_or_supermarket,,33.9582912,-84.3040525
ChIJs5HNnUgK9YgRy9ZPB3lwNPE,30360,grocery_or_supermarket,,33.9587927,-84.3019631
ChIJF87T_EUK9YgRmfOf9eSK7GE,30360,grocery_or_supermarket,,33.9607317,-84.3011308
ChIJgwU6obAJ9YgRSAnuh_nT3uo,30360,grocery_or_supermarket,,33.8988568,-84.2973476
ChIJxXleA5qs9YgRROucfnz24sU,30038,grocery_or_supermarket,,33.679918,-84.1763408
ChIJv0K9zoit9YgRRlIQwxiIz0I,30038,grocery_or_supermarket,,33.7117646,-84.1080316
ChIJ69FTWf-s9YgRy3DQBVS-4-I,30038,grocery_or_supermarket,,33.7024411,-84.1481502
ChIJYf9JYUys9YgRNaJ00q7j0wk,30038,grocery_or_supermarket,,33.7183388,-84.1467596
ChIJCdV2u0ys9YgRNObyDXG23S0,30038,grocery_or_supermarket,,33.7186679,-84.144531
ChIJKW-SBfqy9YgRpRsirK5M_cc,30038,grocery_or_supermarket,,33.6955741,-84.072181
ChIJIeE5VeWt9YgRCsOysyef3dc,30038,grocery_or_supermarket,,33.7244094,-84.1646343
ChIJY9H9Rgir9YgRfPZrZ3sGQks,30038,grocery_or_supermarket,,33.7045666,-84.2157611
ChIJJTfISt6q9YgRJx3xZsRE9Qc,30038,grocery_or_supermarket,,33.68306,-84.2306271
ChIJK0dEFvQE9YgR9QyxhU3-DsU,30363,grocery_or_supermarket,,33.7859132,-84.4002382
ChIJWTDCsqgG9YgR-U6sWxq-qJw,30363,grocery_or_supermarket,,33.7671024,-84.3484783
ChIJ2XPil2iP9YgR2RFe2_0Cjco,30040,grocery_or_supermarket,,34.2509787,-84.0912614
ChIJn6Yc3z-b9YgRGvhn117Aj-8,30040,grocery_or_supermarket,,34.170446,-84.163088
ChIJjbYDWSKF9YgRuA_lboqMOzk,30040,grocery_or_supermarket,,34.2114976,-84.1358833
ChIJy0epgcU14BQR2MOohvqGOMA,30040,grocery_or_supermarket,,34.184052,-84.143751
ChIJ20ekLXib9YgRIC8D4B3MDWE,30040,grocery_or_supermarket,,34.1516289,-84.1778753
ChIJb1gdUnmF9YgRrhg8QCt_vDk,30040,grocery_or_supermarket,,34.229205,-84.106896
ChIJxagyH2iP9YgRgIxaS0FsQqg,30040,grocery_or_supermarket,,34.254579,-84.088704
ChIJidG-noKD9YgRLk2gc4HbMPQ,30040,grocery_or_supermarket,,34.2383692,-84.1930558
ChIJ-ekfd8Sa9YgRbjPyFx0UcL0,30040,grocery_or_supermarket,,34.1742069,-84.129689
ChIJ1-mB9Xhs9YgRF1tST6lqrWw,30188,grocery_or_supermarket,,34.0844118,-84.5206054
ChIJfeYFfAxs9YgROccz-bWKxVs,30188,grocery_or_supermarket,,34.100991,-84.516571
ChIJmxTcM7pt9YgRCx5LpTMFExM,30188,grocery_or_supermarket,,34.0884018,-84.469194
ChIJ87DJdE5s9YgR7KmNR1Q5JKM,30188,grocery_or_supermarket,,34.0865083,-84.485937
ChIJ1-mB9Xhs9YgRCFAiBI73i0A,30188,grocery_or_supermarket,,34.0844221,-84.5207516
ChIJ7Z_c6wts9YgRDYCIF2o5JrY,30188,grocery_or_supermarket,,34.1021077,-84.5183825
ChIJo2agDwts9YgRcqFj3-XRhSY,30188,grocery_or_supermarket,,34.1001783,-84.5188514
ChIJz76kQJpt9YgR90ONkqX_F1g,30188,grocery_or_supermarket,,34.0818984,-84.4531142
ChIJBX4hDb9u9YgRZTMNSPfl5YY,30188,grocery_or_supermarket,,34.1414508,-84.5038253
ChIJjb5slqhu9YgRgYyW12sf8Ro,30188,grocery_or_supermarket,,34.123878,-84.512635
ChIJnyzlmURs9YgRZH3gnMg4TmE,30188,grocery_or_supermarket,,34.0877012,-84.495066
ChIJ6WtuVeuw9YgRDAmy4VpzCAM,30039,grocery_or_supermarket,,33.8108946,-84.0416865
ChIJmaNrbIO69YgRyKpE277HA4s,30039,grocery_or_supermarket,,33.8363165,-84.0679745
ChIJNTw0-euw9YgRfMQEOCpYD70,30039,grocery_or_supermarket,,33.807444,-84.042916
ChIJrTbujQ6x9YgRmRR06GGhBjA,30039,grocery_or_supermarket,,33.7733325,-84.0458426
ChIJj42mAj669YgRB301mXubh98,30039,grocery_or_supermarket,,33.853016,-84.034248
ChIJsfFBzKaw9YgR8mcq2QNhUTY,30039,grocery_or_supermarket,,33.8270049,-84.0320871
ChIJP_MTjKOw9YgRZGK4LaRHdXE,30039,grocery_or_supermarket,,33.824809,-84.033216
ChIJQybunY259YgRb_gxRkDNgdI,30039,grocery_or_supermarket,,33.8560052,-84.011618
ChIJ5-VW25W59YgRb_lAg8pIgN8,30039,grocery_or_supermarket,,33.8555912,-83.9955041
ChIJP_MTjKOw9YgRsTbOC3CL50g,30039,grocery_or_supermarket,,33.8826788,-84.0079624
ChIJu2bsMrNn7ogR2JTtF4UL51U,31604,grocery_or_supermarket,,30.8750705,-83.2937552
ChIJQYxF-wd_7ogRNx4QLVUNZbE,31604,grocery_or_supermarket,,30.7826,-83.56
ChIJb3SfO4Zu7ogRAUvTuneukKA,31604,grocery_or_supermarket,,30.9908214,-83.3753521
ChIJDzHJ1wp_7ogRCVDb-jq8kEk,31604,grocery_or_supermarket,,30.7853403,-83.5704369
ChIJQ-k9_g1n7ogRyhPrb5qXXMk,31604,grocery_or_supermarket,,30.8479561,-83.2768608
ChIJ6RVoecq99YgRZinN2ODQqOs,30043,grocery_or_supermarket,,33.9670126,-84.0369194
ChIJH_4f9l2-9YgR2xTygGJ-L34,30043,grocery_or_supermarket,,33.968566,-83.9956172
ChIJ04MhEsu99YgRtIzwNoGe73Q,30043,grocery_or_supermarket,,33.9664742,-84.0334783
ChIJk9OEuQG_9YgRPY4KqrAtUNU,30043,grocery_or_supermarket,,33.9595249,-83.9729473
ChIJnx2t7M299YgR6aHfxklFdAA,30043,grocery_or_supermarket,,33.9681476,-84.0282081
ChIJ60vabFy99YgR0olJxCJf76U,30043,grocery_or_supermarket,,34.0047974,-84.0830306
ChIJaeuhRDe-9YgR0dDKWG3QMbg,30043,grocery_or_supermarket,,33.9886966,-83.9836902
ChIJVypr8dy_9YgRKvtilR8NQPU,30043,grocery_or_supermarket,,33.9959774,-83.9602181
ChIJ8cYmcTuW9YgR6-odRQoApEw,30043,grocery_or_supermarket,,34.021997,-84.0448268
ChIJx0OOzEqU9YgRfk9Q4Fvt0-I,30043,grocery_or_supermarket,,34.048066,-83.992081
ChIJf0aGdCe-9YgRLU9UjikmLjI,30043,grocery_or_supermarket,,34.0049955,-83.9862763
ChIJp4Tsk5S89YgRER2_0pLudVs,30043,grocery_or_supermarket,,33.9415464,-84.0776683
ChIJ0QZU62ik9YgR8_dUIAJLKt4,30047,grocery_or_supermarket,,33.9072326,-84.1547875
ChIJqe9uRmik9YgRZi1Ct4fO9eM,30047,grocery_or_supermarket,,33.9050774,-84.1556784
ChIJzVkFprCk9YgRxjSckZHWsh4,30047,grocery_or_supermarket,,33.9079463,-84.1109836
ChIJB68ArPek9YgRfKxVqlrRFWc,30047,grocery_or_supermarket,,33.8945243,-84.1429191
ChIJ0-RjljWk9YgR0TTZbQ8PF2Y,30047,grocery_or_supermarket,,33.8845274,-84.1650682
ChIJP6jAiKek9YgR3zq0H9o3OCM,30047,grocery_or_supermarket,,33.9246042,-84.1132047
ChIJOzpMWU6k9YgRrkfOOknBOaw,30047,grocery_or_supermarket,,33.887532,-84.157453
ChIJY9gS1bqk9YgRxVvq7Q2QGSg,30047,grocery_or_supermarket,,33.9131393,-84.1138451
ChIJZ3rOmXKk9YgRxrMozbTsrmA,30047,grocery_or_supermarket,,33.9141788,-84.1629189
ChIJbWD3l0qk9YgRY3OcLjgLQ6o,30047,grocery_or_supermarket,,33.8830827,-84.1639417
ChIJ86hsG22k9YgRCAHDTwBtP1s,30047,grocery_or_supermarket,,33.9126497,-84.162725
ChIJsxWqD2ik9YgR0vtLtFWIrT8,30047,grocery_or_supermarket,,33.904536,-84.154757
ChIJBVZooAe79YgRAj5jjLsoRco,30047,grocery_or_supermarket,,33.8843873,-84.0602609
ChIJr5idfrqk9YgRRrmig079xxU,30047,grocery_or_supermarket,,33.9095354,-84.1121707
ChIJbTcy94vH9YgRLYsC-R9nHUU,30052,grocery_or_supermarket,,33.8516332,-83.9260464
ChIJhxilWyLG9YgRVsxrZhDmBe0,30052,grocery_or_supermarket,,33.8461899,-83.9133017
ChIJkV7JnSPG9YgRHe9EYyEE4XE,30052,grocery_or_supermarket,,33.8311986,-83.8843047
ChIJT8Q0nCPG9YgRPMl3Zo8MKik,30052,grocery_or_supermarket,,33.8311706,-83.8843059
ChIJL1N0TF249YgRYYt95MN5zMM,30052,grocery_or_supermarket,,33.8593385,-83.9545591
ChIJpWoRpiPG9YgRh1b0iIdvvfI,30052,grocery_or_supermarket,,33.836599,-83.8986673
ChIJ5-VW25W59YgRb_lAg8pIgN8,30052,grocery_or_supermarket,,33.8555912,-83.9955041
ChIJCY4vWJPH9YgRtnWADA_SlS4,30052,grocery_or_supermarket,,33.8488191,-83.9168841
ChIJI00M5YgD9YgR0wAaEQ6oqZU,30384,grocery_or_supermarket,,33.7546186,-84.3836863
ChIJwR5ZmiYD9YgRqcB_x4nsZc8,30384,grocery_or_supermarket,,33.7207092,-84.4244978
ChIJv0K9zoit9YgRRlIQwxiIz0I,30058,grocery_or_supermarket,,33.7117646,-84.1080316
ChIJYf9JYUys9YgRNaJ00q7j0wk,30058,grocery_or_supermarket,,33.7183388,-84.1467596
ChIJ7y4odtWt9YgR6pT14HWF3TQ,30058,grocery_or_supermarket,,33.7462479,-84.1408824
ChIJIeE5VeWt9YgRCsOysyef3dc,30058,grocery_or_supermarket,,33.7244094,-84.1646343
ChIJi6iXDIet9YgRyEZYUkA_vpU,30058,grocery_or_supermarket,,33.7085108,-84.1027371
ChIJ69FTWf-s9YgRy3DQBVS-4-I,30058,grocery_or_supermarket,,33.7024411,-84.1481502
ChIJxXleA5qs9YgRROucfnz24sU,30058,grocery_or_supermarket,,33.679918,-84.1763408
ChIJZfm-yaSr9YgRxJLE00IIZo0,30058,grocery_or_supermarket,,33.7168437,-84.2133992
ChIJ_xlKOBeq9YgR1jRseuwgGMs,30058,grocery_or_supermarket,,33.7392148,-84.2535638
ChIJGbpHHjX89IgRlAXei38Z0Rw,30388,grocery_or_supermarket,,33.6225977,-84.3727733
ChIJl6IJR9X99IgRYms_KzDMn-Y,30388,grocery_or_supermarket,,33.6241064,-84.3555405
ChIJqyitFYD-9IgR1VX6v2O8vBs,30388,grocery_or_supermarket,,33.6209878,-84.3548205
ChIJB5Pa4PoT9YgRRZV7ENqXFlw,30062,grocery_or_supermarket,,33.9525416,-84.5104355
ChIJcZ6oOt0T9YgR7e39d_eo9_k,30062,grocery_or_supermarket,,33.9507837,-84.4988838
ChIJXSD4M7gT9YgRrnIj4pK-fwA,30062,grocery_or_supermarket,,33.9677192,-84.491394
ChIJ3eTuo28R9YgR2qLNW0IS_mU,30062,grocery_or_supermarket,,33.9277873,-84.4929775
ChIJJZMSYfsT9YgRqd68ONpGUWc,30062,grocery_or_supermarket,,33.9479065,-84.5132416
ChIJPXpf-gQU9YgRN-WT0UVPi6E,30062,grocery_or_supermarket,,33.951219,-84.530654
ChIJnfe7_6cW9YgRLblToScus88,30062,grocery_or_supermarket,,33.9443773,-84.5319327
ChIJ9QKGsxoR9YgR1r-OaVkPXxM,30062,grocery_or_supermarket,,33.9072017,-84.4892502
ChIJHy7M73cN9YgRsR1DIMvTZgU,30062,grocery_or_supermarket,,33.9831904,-84.426063
ChIJEYP5w7kT9YgRLf1p8bn56IE,30062,grocery_or_supermarket,,33.9675136,-84.4916991
ChIJy7dcxkwN9YgRyyhZIA6M_rk,30062,grocery_or_supermarket,,34.0259024,-84.422023
ChIJC7NHNlkR9YgR0hC2Ct_vPh4,30062,grocery_or_supermarket,,33.9386292,-84.506293
ChIJAevjlXcN9YgRS-CC5KoEg-4,30062,grocery_or_supermarket,,33.984536,-84.426736
ChIJ0dqAhhYU9YgR0DGgkwCM5G8,30062,grocery_or_supermarket,,33.959521,-84.540256
ChIJrZOGs4IN9YgRmP3swWLpEKk,30062,grocery_or_supermarket,,33.981788,-84.427945
ChIJ7XDbQ58N9YgRgpArzkRWK9E,30062,grocery_or_supermarket,,33.9770652,-84.4192755
ChIJe7CqoVFr9YgRIuQxx5RssNs,30066,grocery_or_supermarket,,34.0386587,-84.5309914
ChIJ8zYWvVRr9YgRk3oe05I6frY,30066,grocery_or_supermarket,,34.033528,-84.526162
ChIJcQKzAN8U9YgR_zuo_RpzrzY,30066,grocery_or_supermarket,,34.0116556,-84.5615702
ChIJ1-mB9Xhs9YgRF1tST6lqrWw,30066,grocery_or_supermarket,,34.0844118,-84.5206054
ChIJ0dqAhhYU9YgR0DGgkwCM5G8,30066,grocery_or_supermarket,,33.959521,-84.540256
ChIJN2DvezFt9YgRDyQp0g7-Dwo,30066,grocery_or_supermarket,,34.0347787,-84.4665938
ChIJB5Pa4PoT9YgRRZV7ENqXFlw,30066,grocery_or_supermarket,,33.9525416,-84.5104355
ChIJ0ea6ZIUW9YgRhqkrLrUaYdg,30066,grocery_or_supermarket,,33.9333083,-84.5556461
ChIJXSD4M7gT9YgRrnIj4pK-fwA,30066,grocery_or_supermarket,,33.9677192,-84.491394
ChIJPXpf-gQU9YgRN-WT0UVPi6E,30066,grocery_or_supermarket,,33.951219,-84.530654
ChIJoxDBU2IU9YgRAyF5CcDBD4A,30066,grocery_or_supermarket,,33.985138,-84.535717
ChIJJZMSYfsT9YgRqd68ONpGUWc,30066,grocery_or_supermarket,,33.9479065,-84.5132416
ChIJ7y4odtWt9YgR6pT14HWF3TQ,30074,grocery_or_supermarket,,33.7462479,-84.1408824
ChIJCdV2u0ys9YgRNObyDXG23S0,30074,grocery_or_supermarket,,33.7186679,-84.144531
ChIJuZFjpFqp9YgRuG5lhX8UHgE,30074,grocery_or_supermarket,,33.7595257,-84.1948823
ChIJ6bByjCWp9YgR1FEGeIuk5ww,30074,grocery_or_supermarket,,33.786043,-84.19759
ChIJKW-SBfqy9YgRpRsirK5M_cc,30074,grocery_or_supermarket,,33.6955741,-84.072181
ChIJu-IVGWCo9YgRunPKEN0RJd8,30074,grocery_or_supermarket,,33.8199226,-84.2285064
ChIJ3QrxNUSo9YgRLrV_Fo-uhUQ,30074,grocery_or_supermarket,,33.8107818,-84.2422961
ChIJ3QrxNUSo9YgRM7zx3ilVn4A,30074,grocery_or_supermarket,,33.81014,-84.2425898
ChIJvXMS01qz9YgROeNyZseaosI,30074,grocery_or_supermarket,,33.6663961,-84.0277787
ChIJUU_XgGAH9YgRJOdVGlK3__c,30074,grocery_or_supermarket,,33.7759756,-84.2727593
ChIJ6bByjCWp9YgR1FEGeIuk5ww,30072,grocery_or_supermarket,,33.786043,-84.19759
ChIJYbg51dGo9YgRpbBFW9YOuKo,30072,grocery_or_supermarket,,33.804887,-84.191228
ChIJk1UXSteo9YgRBNPJsEw_K-U,30072,grocery_or_supermarket,,33.7992589,-84.1950453
ChIJ4-w3Mf6o9YgRr3vxD8gD06k,30072,grocery_or_supermarket,,33.798326,-84.22493
ChIJ3QrxNUSo9YgRM7zx3ilVn4A,30072,grocery_or_supermarket,,33.81014,-84.2425898
ChIJuS9wwEmo9YgR99LYn5gx5cw,30072,grocery_or_supermarket,,33.8039776,-84.2479432
ChIJy9DmUrmo9YgR812LCbf7zPM,30072,grocery_or_supermarket,,33.8218737,-84.2015915
ChIJM9HuKnGp9YgRzSX8kJLA__U,30072,grocery_or_supermarket,,33.7648934,-84.2225055
ChIJq9jXVaOo9YgRzFjO1brtlKY,30072,grocery_or_supermarket,,33.828153,-84.201658
ChIJdQxdveau9YgRSKdbSkPlbgI,30072,grocery_or_supermarket,,33.7853664,-84.1602578
ChIJuZFjpFqp9YgRuG5lhX8UHgE,30072,grocery_or_supermarket,,33.7595257,-84.1948823
ChIJx0-R2SGm9YgRsm7r3My7g2o,30072,grocery_or_supermarket,,33.8427158,-84.2070359
ChIJq4vrxncH9YgR_zZpw8O_RZE,30072,grocery_or_supermarket,,33.7976687,-84.2806728
ChIJTbyh5GYH9YgRQYETAM4CrjI,30072,grocery_or_supermarket,,33.778818,-84.277182
ChIJ03mBjoIH9YgRmlvPFl07b60,30072,grocery_or_supermarket,,33.7986531,-84.2794785
ChIJ_xlKOBeq9YgR1jRseuwgGMs,30072,grocery_or_supermarket,,33.7392148,-84.2535638
ChIJdxe_69Nb9IgR8IruRSYOnqU,30252,grocery_or_supermarket,,33.4334889,-84.1805273
ChIJx1c4yKpb9IgR7GyST0NjLKY,30252,grocery_or_supermarket,,33.432889,-84.1441913
ChIJKzgUuyxX9IgRrbutHCgwlQE,30252,grocery_or_supermarket,,33.5061716,-84.1437276
ChIJaRPaVDJX9IgRIKfSB3EWWZw,30252,grocery_or_supermarket,,33.5122891,-84.1884457
ChIJdYqyM1ha9IgR-PtXtUB-nxw,30252,grocery_or_supermarket,,33.4470929,-84.1458524
ChIJN5qUyPBa9IgRpKt6LxUwIPs,30252,grocery_or_supermarket,,33.4473311,-84.137653
ChIJE-lnfD1a9IgREqr5ct3zSHo,30252,grocery_or_supermarket,,33.458261,-84.1729846
ChIJXUuzrT5a9IgRTAWHmGROdo4,30252,grocery_or_supermarket,,33.4528772,-84.1696754
ChIJd57SUfwKIocRifNNerGNTpc,87108,grocery_or_supermarket,,35.0750962,-106.5786651
ChIJd-PUPosKIocRLCg5Qt9BLVY,87108,grocery_or_supermarket,,35.074289,-106.5573276
ChIJW_K3JK0LIocR0cr-PyNOAJA,87108,grocery_or_supermarket,,35.0596394,-106.5823924
ChIJk0bJn_sKIocRDpyB0uC86To,87108,grocery_or_supermarket,,35.0760435,-106.5743525
ChIJebMSnx4LIocR-QortrXmtCs,87108,grocery_or_supermarket,,35.0829877,-106.5865992
ChIJW1KYS1QKIocRXfmIXngzYT0,87108,grocery_or_supermarket,,35.0648635,-106.5781401
ChIJq4YJXPMKIocRMCcliHQdBo4,87108,grocery_or_supermarket,,35.0761973,-106.5595346
ChIJw_tiPPcKIocR-jRmDbmTPVo,87108,grocery_or_supermarket,,35.0753317,-106.5679814
ChIJVzOkdw8LIocRkXhIpJGSrc8,87108,grocery_or_supermarket,,35.0733117,-106.5947749
ChIJGYp84h4LIocRuWLP_fERo0c,87108,grocery_or_supermarket,,35.0852374,-106.5858454
ChIJuQyrqPAKIocRjgLUHshDDUw,87108,grocery_or_supermarket,,35.0748709,-106.5701813
ChIJl8RMogALIocREk7fcX8_B_E,87108,grocery_or_supermarket,,35.067031,-106.586579
ChIJP_MTjKOw9YgRsTbOC3CL50g,30078,grocery_or_supermarket,,33.8826788,-84.0079624
ChIJvTSWg3u59YgRCGv0TnUwceg,30078,grocery_or_supermarket,,33.8839438,-84.0082908
ChIJXYPZG0O59YgRon5kHjOqhqA,30078,grocery_or_supermarket,,33.9003001,-84.004835
ChIJ5-VW25W59YgRb_lAg8pIgN8,30078,grocery_or_supermarket,,33.8555912,-83.9955041
ChIJj42mAj669YgRB301mXubh98,30078,grocery_or_supermarket,,33.853016,-84.034248
ChIJ_5SI83y59YgRV67JYpo8WNI,30078,grocery_or_supermarket,,33.8831176,-84.0129876
ChIJk_Gcgo259YgRROwNReQpsCA,30078,grocery_or_supermarket,,33.8583248,-84.0187618
ChIJQybunY259YgRb_gxRkDNgdI,30078,grocery_or_supermarket,,33.8560052,-84.011618
ChIJmbqa5ES59YgRaQ1_cqkiIA8,30078,grocery_or_supermarket,,33.90136,-84.0058846
ChIJP_MTjKOw9YgRZGK4LaRHdXE,30078,grocery_or_supermarket,,33.824809,-84.033216
ChIJ59xqswm79YgRvbSK2CYX5tw,30078,grocery_or_supermarket,,33.890718,-84.060758
ChIJrZOGs4IN9YgRmP3swWLpEKk,30077,grocery_or_supermarket,,33.981788,-84.427945
ChIJdxe_69Nb9IgR8IruRSYOnqU,30253,grocery_or_supermarket,,33.4334889,-84.1805273
ChIJE-lnfD1a9IgREqr5ct3zSHo,30253,grocery_or_supermarket,,33.458261,-84.1729846
ChIJXUuzrT5a9IgRTAWHmGROdo4,30253,grocery_or_supermarket,,33.4528772,-84.1696754
ChIJx1c4yKpb9IgR7GyST0NjLKY,30253,grocery_or_supermarket,,33.432889,-84.1441913
ChIJaRPaVDJX9IgRIKfSB3EWWZw,30253,grocery_or_supermarket,,33.5122891,-84.1884457
ChIJdYqyM1ha9IgR-PtXtUB-nxw,30253,grocery_or_supermarket,,33.4470929,-84.1458524
ChIJKzgUuyxX9IgRrbutHCgwlQE,30253,grocery_or_supermarket,,33.5061716,-84.1437276
ChIJKdr1hHAa9YgR4qda4WUzo3A,30080,grocery_or_supermarket,,33.8442228,-84.4910563
ChIJzdeJft8W9YgRPkxegbwskHk,30080,grocery_or_supermarket,,33.9010676,-84.4875364
ChIJicJ1MNwQ9YgRmXhxnhegdJ8,30080,grocery_or_supermarket,,33.8909654,-84.5039525
ChIJC00f3PcQ9YgRp9dfseHig1Y,30080,grocery_or_supermarket,,33.883624,-84.4805916
ChIJf0XhHPEQ9YgRS0ftb-9Bvdo,30080,grocery_or_supermarket,,33.8822287,-84.4876042
ChIJGfOUPkgX9YgRINc6L1m9WbA,30080,grocery_or_supermarket,,33.8766035,-84.528819
ChIJO-GVHGMa9YgRy-XFhDi-Rgw,30080,grocery_or_supermarket,,33.8391055,-84.4821192
ChIJg3B8U6wQ9YgRhUVnvwhANf4,30080,grocery_or_supermarket,,33.8618217,-84.5174884
ChIJga-JzSEX9YgRPkowr5tpj9o,30080,grocery_or_supermarket,,33.8964579,-84.5418593
ChIJYbDqtHIa9YgRrQn6JFBGqHM,30080,grocery_or_supermarket,,33.842338,-84.5012053
ChIJi_xD5t4W9YgRKwpTBvzUbtA,30080,grocery_or_supermarket,,33.9021986,-84.5394567
ChIJGVOeqFUQ9YgRCkpQ4NsLox4,30080,grocery_or_supermarket,,33.8935587,-84.4768756
ChIJS9s53PAQ9YgROCaq4vBKJqs,30080,grocery_or_supermarket,,33.8831989,-84.4870374
ChIJPTlqndOp9YgRTamyoI5D5iI,30079,grocery_or_supermarket,,33.7944353,-84.2640627
ChIJQaFnLy6o9YgRF8Z1Eos1t3I,30079,grocery_or_supermarket,,33.8049268,-84.2597948
ChIJVWfvp7Cp9YgROU2FCJctv_g,30079,grocery_or_supermarket,,33.7852631,-84.2430603
ChIJuS9wwEmo9YgR99LYn5gx5cw,30079,grocery_or_supermarket,,33.8039776,-84.2479432
ChIJGdK6x34H9YgR1YfwqW18C-w,30079,grocery_or_supermarket,,33.7918249,-84.2733926
ChIJ03mBjoIH9YgRmlvPFl07b60,30079,grocery_or_supermarket,,33.7986531,-84.2794785
ChIJq4vrxncH9YgR_zZpw8O_RZE,30079,grocery_or_supermarket,,33.7976687,-84.2806728
ChIJTbyh5GYH9YgRQYETAM4CrjI,30079,grocery_or_supermarket,,33.778818,-84.277182
ChIJ3QrxNUSo9YgRM7zx3ilVn4A,30079,grocery_or_supermarket,,33.81014,-84.2425898
ChIJUU_XgGAH9YgRJOdVGlK3__c,30079,grocery_or_supermarket,,33.7759756,-84.2727593
ChIJBf7v9qip9YgRODE0_HCoewY,30079,grocery_or_supermarket,,33.786513,-84.23072
ChIJ6yymv18J9YgR58jT-QzWXmE,30079,grocery_or_supermarket,,33.9321441,-84.3322921
ChIJGfOUPkgX9YgRINc6L1m9WbA,30082,grocery_or_supermarket,,33.8766035,-84.528819
ChIJg3B8U6wQ9YgRhUVnvwhANf4,30082,grocery_or_supermarket,,33.8618217,-84.5174884
ChIJAdg0n0kX9YgR-dQnX0rfwcI,30082,grocery_or_supermarket,,33.875039,-84.533672
ChIJga-JzSEX9YgRPkowr5tpj9o,30082,grocery_or_supermarket,,33.8964579,-84.5418593
ChIJYbDqtHIa9YgRrQn6JFBGqHM,30082,grocery_or_supermarket,,33.842338,-84.5012053
ChIJg3B8U6wQ9YgRBiKUeAKnrGA,30082,grocery_or_supermarket,,33.8618217,-84.5174884
ChIJKdr1hHAa9YgR4qda4WUzo3A,30082,grocery_or_supermarket,,33.8442228,-84.4910563
ChIJ3VNUKGwa9YgR-N2m8THfai4,30082,grocery_or_supermarket,,33.8380494,-84.4960505
ChIJ22IzuzkX9YgRJOzJ1v_bt78,30082,grocery_or_supermarket,,33.8799737,-84.5346372
ChIJJWIEoBwX9YgRSa1FuYFlvgk,30082,grocery_or_supermarket,,33.8935979,-84.5520141
ChIJJ4sHsEcY9YgRdLQy2xMRxz8,30082,grocery_or_supermarket,,33.8318266,-84.5767169
ChIJ35XV890W9YgRY613sqUfQHM,30082,grocery_or_supermarket,,33.9054524,-84.5418423
ChIJ7eeBijcY9YgR1MpSBE2ZMEk,30082,grocery_or_supermarket,,33.8352649,-84.5741483
ChIJ68m1yi2m9YgRoq5EFy5zRuo,30084,grocery_or_supermarket,,33.8482174,-84.2240547
ChIJWVy5DQqo9YgRtAjzUbBN_TM,30084,grocery_or_supermarket,,33.840757,-84.253131
ChIJx3hPueOn9YgRqOs4u2h26GI,30084,grocery_or_supermarket,,33.843522,-84.2555749
ChIJRQn17lem9YgRr406Gb4f9jQ,30084,grocery_or_supermarket,,33.8838484,-84.2185817
ChIJu-IVGWCo9YgRunPKEN0RJd8,30084,grocery_or_supermarket,,33.8199226,-84.2285064
ChIJx0-R2SGm9YgRsm7r3My7g2o,30084,grocery_or_supermarket,,33.8427158,-84.2070359
ChIJN1e4lmKm9YgRXQ3weU_eqVY,30084,grocery_or_supermarket,,33.8851038,-84.194144
ChIJkza0xS2m9YgRYe171mJoUsE,30084,grocery_or_supermarket,,33.8491372,-84.2235546
ChIJfS6vlxqm9YgRZWwSrjJwm1g,30084,grocery_or_supermarket,,33.8490384,-84.197717
ChIJQeNOUTym9YgRiDUWkVChct0,30084,grocery_or_supermarket,,33.8514761,-84.2123016
ChIJdwKNcT6m9YgRb4Mtf5KgbAo,30084,grocery_or_supermarket,,33.8550969,-84.2069149
ChIJZdBn4J-n9YgRYSTi4lWcCDM,30084,grocery_or_supermarket,,33.883868,-84.2478289
ChIJbWD3l0qk9YgRY3OcLjgLQ6o,30084,grocery_or_supermarket,,33.8830827,-84.1639417
ChIJYbg51dGo9YgRpbBFW9YOuKo,30084,grocery_or_supermarket,,33.804887,-84.191228
ChIJdQxdveau9YgRSKdbSkPlbgI,30083,grocery_or_supermarket,,33.7853664,-84.1602578
ChIJYbg51dGo9YgRpbBFW9YOuKo,30083,grocery_or_supermarket,,33.804887,-84.191228
ChIJ6bByjCWp9YgR1FEGeIuk5ww,30083,grocery_or_supermarket,,33.786043,-84.19759
ChIJmWTsiqqp9YgRaQ1pYe8rmrE,30083,grocery_or_supermarket,,33.7927634,-84.229053
ChIJBf7v9qip9YgRODE0_HCoewY,30083,grocery_or_supermarket,,33.786513,-84.23072
ChIJ0YIQiCKp9YgRmp1iDAyYhx8,30083,grocery_or_supermarket,,33.785886,-84.2059953
ChIJ28eq8dCo9YgR39nSY-25P7I,30083,grocery_or_supermarket,,33.8032135,-84.194582
ChIJk1UXSteo9YgRBNPJsEw_K-U,30083,grocery_or_supermarket,,33.7992589,-84.1950453
ChIJ4-w3Mf6o9YgRr3vxD8gD06k,30083,grocery_or_supermarket,,33.798326,-84.22493
ChIJq9jXVaOo9YgRzFjO1brtlKY,30083,grocery_or_supermarket,,33.828153,-84.201658
ChIJZwcSJqmp9YgRcRJc1kdfsQU,30083,grocery_or_supermarket,,33.7878814,-84.2312596
ChIJ0-r9Zqmp9YgRFvvcuIJNadQ,30083,grocery_or_supermarket,,33.7898135,-84.2316593
ChIJuZFjpFqp9YgRuG5lhX8UHgE,30083,grocery_or_supermarket,,33.7595257,-84.1948823
ChIJcWq3jKKu9YgRtcbc5Jv5wfc,30083,grocery_or_supermarket,,33.7571804,-84.1657781
ChIJYbg51dGo9YgRpbBFW9YOuKo,30086,grocery_or_supermarket,,33.804887,-84.191228
ChIJdQxdveau9YgRSKdbSkPlbgI,30086,grocery_or_supermarket,,33.7853664,-84.1602578
ChIJ6bByjCWp9YgR1FEGeIuk5ww,30086,grocery_or_supermarket,,33.786043,-84.19759
ChIJk1UXSteo9YgRBNPJsEw_K-U,30086,grocery_or_supermarket,,33.7992589,-84.1950453
ChIJq9jXVaOo9YgRzFjO1brtlKY,30086,grocery_or_supermarket,,33.828153,-84.201658
ChIJy9DmUrmo9YgR812LCbf7zPM,30086,grocery_or_supermarket,,33.8218737,-84.2015915
ChIJx0-R2SGm9YgRsm7r3My7g2o,30086,grocery_or_supermarket,,33.8427158,-84.2070359
ChIJ4-w3Mf6o9YgRr3vxD8gD06k,30086,grocery_or_supermarket,,33.798326,-84.22493
ChIJ3QrxNUSo9YgRM7zx3ilVn4A,30086,grocery_or_supermarket,,33.81014,-84.2425898
ChIJdwKNcT6m9YgRb4Mtf5KgbAo,30085,grocery_or_supermarket,,33.8550969,-84.2069149
ChIJq9jXVaOo9YgRzFjO1brtlKY,30085,grocery_or_supermarket,,33.828153,-84.201658
ChIJN1e4lmKm9YgRXQ3weU_eqVY,30085,grocery_or_supermarket,,33.8851038,-84.194144
ChIJIXLNoJWm9YgRfqGNTP6CVmo,30085,grocery_or_supermarket,,33.9041993,-84.2048972
ChIJbWD3l0qk9YgRY3OcLjgLQ6o,30085,grocery_or_supermarket,,33.8830827,-84.1639417
ChIJ3QrxNUSo9YgRM7zx3ilVn4A,30085,grocery_or_supermarket,,33.81014,-84.2425898
ChIJIXLNoJWm9YgRTNQQORLFZSo,30085,grocery_or_supermarket,,33.9042366,-84.2046766
ChIJRdRO5u2m9YgRL28UEUv05iU,30085,grocery_or_supermarket,,33.896439,-84.211749
ChIJx3hPueOn9YgRqOs4u2h26GI,30085,grocery_or_supermarket,,33.843522,-84.2555749
ChIJe8BxQRKn9YgR-uZmvmo9R08,30085,grocery_or_supermarket,,33.898299,-84.2452707
ChIJuS9wwEmo9YgR99LYn5gx5cw,30085,grocery_or_supermarket,,33.8039776,-84.2479432
ChIJZdBn4J-n9YgRYSTi4lWcCDM,30085,grocery_or_supermarket,,33.883868,-84.2478289
ChIJ0QZU62ik9YgR8_dUIAJLKt4,30085,grocery_or_supermarket,,33.9072326,-84.1547875
ChIJZ3rOmXKk9YgRxrMozbTsrmA,30085,grocery_or_supermarket,,33.9141788,-84.1629189
ChIJFZDiwM8J9YgRkfDvgPfG7ss,30085,grocery_or_supermarket,,33.8953806,-84.2815481
ChIJdQxdveau9YgRSKdbSkPlbgI,30088,grocery_or_supermarket,,33.7853664,-84.1602578
ChIJuZFjpFqp9YgRuG5lhX8UHgE,30088,grocery_or_supermarket,,33.7595257,-84.1948823
ChIJ6bByjCWp9YgR1FEGeIuk5ww,30088,grocery_or_supermarket,,33.786043,-84.19759
ChIJcWq3jKKu9YgRtcbc5Jv5wfc,30088,grocery_or_supermarket,,33.7571804,-84.1657781
ChIJMaPPeKKu9YgRrXKG8vetvRY,30088,grocery_or_supermarket,,33.756108,-84.164732
ChIJk1UXSteo9YgRBNPJsEw_K-U,30088,grocery_or_supermarket,,33.7992589,-84.1950453
ChIJM9HuKnGp9YgRzSX8kJLA__U,30088,grocery_or_supermarket,,33.7648934,-84.2225055
ChIJYbg51dGo9YgRpbBFW9YOuKo,30088,grocery_or_supermarket,,33.804887,-84.191228
ChIJ6cBjtBAE9YgRUisH70GZTX4,30088,grocery_or_supermarket,,33.775188,-84.3658097
ChIJ1zoUGxYE9YgRL399jlxWp6Q,30088,grocery_or_supermarket,,33.7797565,-84.3678403
ChIJH6wyD1MP9YgRseDZrRZWK6E,30088,grocery_or_supermarket,,33.840941,-84.374955
ChIJCUkh5YEJ9YgRjnTO_bxX0sM,30088,grocery_or_supermarket,,33.927348,-84.310897
ChIJWTDCsqgG9YgR-U6sWxq-qJw,30088,grocery_or_supermarket,,33.7671024,-84.3484783
ChIJwR5ZmiYD9YgRqcB_x4nsZc8,30088,grocery_or_supermarket,,33.7207092,-84.4244978
ChIJdQxdveau9YgRSKdbSkPlbgI,30087,grocery_or_supermarket,,33.7853664,-84.1602578
ChIJK7afqGSl9YgRVqG_wLWtVBo,30087,grocery_or_supermarket,,33.8411665,-84.1329565
ChIJ7y4odtWt9YgR6pT14HWF3TQ,30087,grocery_or_supermarket,,33.7462479,-84.1408824
ChIJcWq3jKKu9YgRtcbc5Jv5wfc,30087,grocery_or_supermarket,,33.7571804,-84.1657781
ChIJMaPPeKKu9YgRrXKG8vetvRY,30087,grocery_or_supermarket,,33.756108,-84.164732
ChIJYbg51dGo9YgRpbBFW9YOuKo,30087,grocery_or_supermarket,,33.804887,-84.191228
ChIJ6WtuVeuw9YgRDAmy4VpzCAM,30087,grocery_or_supermarket,,33.8108946,-84.0416865
ChIJNTw0-euw9YgRfMQEOCpYD70,30087,grocery_or_supermarket,,33.807444,-84.042916
ChIJmaNrbIO69YgRyKpE277HA4s,30087,grocery_or_supermarket,,33.8363165,-84.0679745
ChIJ6bByjCWp9YgR1FEGeIuk5ww,30087,grocery_or_supermarket,,33.786043,-84.19759
ChIJv0K9zoit9YgRRlIQwxiIz0I,30087,grocery_or_supermarket,,33.7117646,-84.1080316
ChIJP_MTjKOw9YgRZGK4LaRHdXE,30087,grocery_or_supermarket,,33.824809,-84.033216
ChIJT1H-E1lL9IgR4Lbhs7OcnqU,30094,grocery_or_supermarket,,33.6351063,-84.0160533
ChIJNxFnyF6z9YgRHEIgOJHz850,30094,grocery_or_supermarket,,33.669458,-84.02057
ChIJHx_2hFhL9IgRR3lK6tYr-Z0,30094,grocery_or_supermarket,,33.6375005,-84.0165817
ChIJmzlACcO09YgRsPCuE1oWDgc,30094,grocery_or_supermarket,,33.643868,-84.0169414
ChIJrTfFeohL9IgRVuuQXsQIzzU,30094,grocery_or_supermarket,,33.595371,-84.01294
ChIJvXMS01qz9YgROeNyZseaosI,30094,grocery_or_supermarket,,33.6663961,-84.0277787
ChIJo-iYLU1L9IgRWwpT-371QpU,30094,grocery_or_supermarket,,33.6514206,-84.0042134
ChIJE0i94iNL9IgRaCQlOz1kP8k,30094,grocery_or_supermarket,,33.632646,-83.979761
ChIJKW-SBfqy9YgRpRsirK5M_cc,30094,grocery_or_supermarket,,33.6955741,-84.072181
ChIJoynXukLQ9YgRiyg7v27K2-0,30655,grocery_or_supermarket,,33.7955655,-83.7252549
ChIJqRj5VPLQ9YgRVCAeq0LCBAA,30655,grocery_or_supermarket,,33.7892273,-83.712074
ChIJw9bWAI3Q9YgRuV45UxUn4tA,30655,grocery_or_supermarket,,33.7953142,-83.7116907
ChIJ95pDuAjT9YgRk2uUhzeBLwc,30655,grocery_or_supermarket,,33.6750532,-83.7096616
ChIJqyitFYD-9IgR1VX6v2O8vBs,30288,grocery_or_supermarket,,33.6209878,-84.3548205
ChIJl6IJR9X99IgRYms_KzDMn-Y,30288,grocery_or_supermarket,,33.6241064,-84.3555405
ChIJi8KX85X-9IgR9Tvc-xLqA6Y,30288,grocery_or_supermarket,,33.6004922,-84.3369219
ChIJg0yHiCsC9YgRFquwusYb_kU,30288,grocery_or_supermarket,,33.709367,-84.3593679
ChIJTfOT55389IgRMdwExIWG6Ho,30288,grocery_or_supermarket,,33.5828642,-84.4129833
ChIJNYyG134B9YgRUJOqTz5seeQ,30288,grocery_or_supermarket,,33.7137395,-84.3502697
ChIJ7aGOqH8A9YgR8wB4ji-wl1E,30288,grocery_or_supermarket,,33.7087086,-84.2744593
ChIJEZoCPXH99IgREIjZU_PiL7g,30288,grocery_or_supermarket,,33.6559589,-84.4024886
ChIJ_xPs4a_i9IgRjoN45Ue4YOg,30288,grocery_or_supermarket,,33.6608846,-84.448102
ChIJq4vrxncH9YgR_zZpw8O_RZE,30288,grocery_or_supermarket,,33.7976687,-84.2806728
ChIJr_ik5T8D9YgRUHtyScyVpkI,30288,grocery_or_supermarket,,33.7364924,-84.4182372
ChIJp-tBZghV9IgRiyelfTLRv0c,30294,grocery_or_supermarket,,33.6193182,-84.2391159
ChIJp5OKuST_9IgRn-M_TC3D6cU,30294,grocery_or_supermarket,,33.5919115,-84.3024256
ChIJB_5hgCCr9YgRkD2cQGvirH8,30294,grocery_or_supermarket,,33.6814966,-84.22799
ChIJJTfISt6q9YgRJx3xZsRE9Qc,30294,grocery_or_supermarket,,33.68306,-84.2306271
ChIJ1SB7ILT-9IgRRMVnM1Sdp5I,30294,grocery_or_supermarket,,33.5833463,-84.337648
ChIJqyitFYD-9IgR1VX6v2O8vBs,30294,grocery_or_supermarket,,33.6209878,-84.3548205
ChIJI4pWUE3_9IgRNpmCqSmKvEk,30294,grocery_or_supermarket,,33.575463,-84.280825
ChIJi8KX85X-9IgR9Tvc-xLqA6Y,30294,grocery_or_supermarket,,33.6004922,-84.3369219
ChIJ3R8BWN-q9YgRrvvQSBEkvKM,30294,grocery_or_supermarket,,33.67916,-84.2287659
ChIJ7aGOqH8A9YgR8wB4ji-wl1E,30294,grocery_or_supermarket,,33.7087086,-84.2744593
ChIJGcGzBxD89IgRrmBhT9Zzrwc,30294,grocery_or_supermarket,,33.5911636,-84.3644971
ChIJ0zKb7T1W9IgR1wzlIeh8LC0,30294,grocery_or_supermarket,,33.5510016,-84.2551252
ChIJraRjlwgE9YgRMQYH8zBgerE,30302,grocery_or_supermarket,,33.761427,-84.3653191
ChIJ1zoUGxYE9YgRL399jlxWp6Q,30302,grocery_or_supermarket,,33.7797565,-84.3678403
ChIJq4vrxncH9YgR_zZpw8O_RZE,30302,grocery_or_supermarket,,33.7976687,-84.2806728
ChIJae9o8gQH9YgR3uq8CQkWxPc,30302,grocery_or_supermarket,,33.7908588,-84.3052307
ChIJ7aGOqH8A9YgR8wB4ji-wl1E,30302,grocery_or_supermarket,,33.7087086,-84.2744593
ChIJWTDCsqgG9YgR-U6sWxq-qJw,30302,grocery_or_supermarket,,33.7671024,-84.3484783
ChIJAz1IDPgF9YgRzn9e4HDqFEI,30305,grocery_or_supermarket,,33.8459141,-84.3621872
ChIJlxGwyM0F9YgRtcK7jFtCEog,30305,grocery_or_supermarket,,33.8067817,-84.366375
ChIJw2Pxp_ED9YgR76DtrNcdY6I,30306,grocery_or_supermarket,,33.7492177,-84.3678997
ChIJI00M5YgD9YgR0wAaEQ6oqZU,30306,grocery_or_supermarket,,33.7546186,-84.3836863
ChIJK0dEFvQE9YgR9QyxhU3-DsU,30309,grocery_or_supermarket,,33.7859132,-84.4002382
ChIJI00M5YgD9YgR0wAaEQ6oqZU,30308,grocery_or_supermarket,,33.7546186,-84.3836863
ChIJd7b9-EoB9YgRmPg0Y9lsDPA,30317,grocery_or_supermarket,,33.7536109,-84.3353272
ChIJKznvTVMB9YgRWFYyoZFkjyk,30317,grocery_or_supermarket,,33.7560452,-84.3480857
ChIJgYuQHbYG9YgRkCRneKN6ySs,30317,grocery_or_supermarket,,33.7625692,-84.3332728
ChIJraptr0QB9YgREZ5IBPoul64,30317,grocery_or_supermarket,,33.7403774,-84.3431743
ChIJWTDCsqgG9YgR-U6sWxq-qJw,30317,grocery_or_supermarket,,33.7671024,-84.3484783
ChIJY-w5VFUH9YgRUHYfGFfNt8Q,30317,grocery_or_supermarket,,33.7540215,-84.270808
ChIJn42zmz0H9YgRyc_rfakiKoQ,30317,grocery_or_supermarket,,33.77599,-84.29867
ChIJw2Pxp_ED9YgR76DtrNcdY6I,30317,grocery_or_supermarket,,33.7492177,-84.3678997
ChIJg0yHiCsC9YgRFquwusYb_kU,30316,grocery_or_supermarket,,33.709367,-84.3593679
ChIJ83So4a8I9YgR93PnInUyxd8,30319,grocery_or_supermarket,,33.856402,-84.3450209
ChIJDc1o0FIP9YgR9qnUum3iL5Y,30319,grocery_or_supermarket,,33.8680218,-84.3357149
ChIJIzgmlooI9YgRUq29-n7s56w,30319,grocery_or_supermarket,,33.8610261,-84.3323356
ChIJTcly5h4G9YgRZ_OUizqkx2k,30319,grocery_or_supermarket,,33.8413242,-84.336373
ChIJx0PlQWII9YgRsQpCgD6UvJs,30319,grocery_or_supermarket,,33.8580473,-84.3103897
ChIJ46cUmB4J9YgR94HFilRzZLI,30319,grocery_or_supermarket,,33.8946018,-84.3302963
ChIJHeHyO4gI9YgROdqUmjNrPoQ,30319,grocery_or_supermarket,,33.855359,-84.31347
ChIJ7XlP97IJ9YgRs5PT9qmEtFg,30319,grocery_or_supermarket,,33.8901968,-84.2999316
ChIJH6wyD1MP9YgRseDZrRZWK6E,30319,grocery_or_supermarket,,33.840941,-84.374955
ChIJCUkh5YEJ9YgRjnTO_bxX0sM,30319,grocery_or_supermarket,,33.927348,-84.310897
ChIJgwU6obAJ9YgRSAnuh_nT3uo,30319,grocery_or_supermarket,,33.8988568,-84.2973476
ChIJQySAuI4F9YgRj3NAqVrX5js,30319,grocery_or_supermarket,,33.8408911,-84.381743
ChIJe1uH0s4J9YgRO4E14TmH6Cg,30319,grocery_or_supermarket,,33.8957065,-84.2849677
ChIJ4dP9VcoJ9YgRbzng1n3vty0,30319,grocery_or_supermarket,,33.889866,-84.2891304